district,schoolName,schoolAddress,medianResult,unit,lead,status,city,county,latitude,longitude,maxResult
LAUSD,107TH STREET ELEMENTARY,"147 E 107TH ST, LOS ANGELES,    CA 90003",,,,exempt,LA,Los Angeles County,33.939395000000005,-118.272838,
LAUSD,109TH STREET ELEMENTARY SCHOOL,"10915 S MC KINLEY AVE, LOS ANGELES,    CA 90059",,,,exempt,Los Angeles,Los Angeles County,33.937046,-118.26166200000002,
LAUSD,10TH STREET ELEMENTARY,"1000 GRATTAN ST, LOS ANGELES,    CA 90015",,,,exempt,LA,Los Angeles County,34.04864,-118.273255,
LAUSD,112TH STREET EARLY EDUCATION CENTER,"1319 E 112TH ST, LOS ANGELES,    CA 90059",,,,exempt,LA,Los Angeles County,33.932997,-118.25067800000001,
LAUSD,112TH STREET ELEMENTARY,"1265 E 112TH ST, LOS ANGELES,    CA 90059",,,,exempt,LA,Los Angeles County,33.933215000000004,-118.252591,
LAUSD,116TH STREET ELEMENTARY,"11610 STANFORD AVE, LOS ANGELES,    CA 90059",,,,exempt,LA,Los Angeles County,33.928990999999996,-118.262051,
LAUSD,118TH STREET ELEMENTARY,"144 E 118TH ST, LOS ANGELES,    CA 90061",,,,exempt,LA,Los Angeles County,33.926388,-118.27284399999999,
LAUSD,122ND STREET ELEMENTARY,"405 E 122ND ST, LOS ANGELES,    CA 90061",,,,exempt,,Los Angeles County,33.921385,-118.267331,
LAUSD,135TH STREET ELEMENTARY SCHOOL,"801 W 135TH ST, GARDENA,        CA 90247",,,,exempt,Gardena,Los Angeles County,33.909166,-118.291905,
LAUSD,153RD STREET ELEMENTARY,"1605 W 153RD ST, GARDENA,        CA 90247",,,,exempt,Gardena,Los Angeles County,33.892942,-118.30498500000002,
LAUSD,156TH STREET ELEMENTARY,"2100 W 156TH ST, GARDENA,        CA 90249",,,,exempt,Gardena,Los Angeles County,33.889199,-118.316135,
LAUSD,15TH STREET ELEMENTARY,"1527 S MESA ST, SAN PEDRO,      CA 90731",,,,exempt,LA,Los Angeles County,33.730288,-118.28583799999998,
LAUSD,186TH ST SCI CNTR,"1621 W 186TH ST, GARDENA, CA 90248",,,,exempt,Gardena,Los Angeles County,33.862557,-118.306601,
LAUSD,186TH STREET ELEMENTARY,"1581 W 186TH ST, GARDENA,        CA 90248",,,,exempt,Gardena,Los Angeles County,33.863714,-118.30556200000001,
LAUSD,1ST STREET ELEMENTARY,"2820 E FIRST ST, LOS ANGELES,    CA 90033",,,,exempt,Burbank,Los Angeles County,34.180983000000005,-118.311746,
LAUSD,1ST STREET STATE PRESCHOOL,"2820 E 1ST ST, LOS ANGELES,    CA 90033",,,,exempt,LA,Los Angeles County,34.041136,-118.204175,
LAUSD,20TH STREET ELEMENTARY,"1353 E 20TH ST, LOS ANGELES,    CA 90011",,,,exempt,LA,Los Angeles County,34.022545,-118.250216,
LAUSD,232ND PLACE ELEMENTARY,"23240 ARCHIBALD AVE, CARSON,         CA 90745",,,,exempt,Carson,Los Angeles County,33.814533000000004,-118.28261599999999,
LAUSD,24TH STREET EARLY EDUCATION CENTER,"2101 W 24TH ST, LOS ANGELES,    CA 90018",,,,exempt,LA,Los Angeles County,34.034636,-118.31196100000001,
LAUSD,24TH STREET ELEMENTARY,"2055 W 24TH ST, LOS ANGELES,    CA 90018",,,,exempt,LA,Los Angeles County,34.034639,-118.310758,
LAUSD,28TH STREET EARLY EDUCATION CENTER,"747 E 28TH ST, LOS ANGELES,    CA 90018",,,,exempt,LA,Los Angeles County,34.019724,-118.262045,
LAUSD,28TH STREET ELEMENTARY,"2807 STANFORD AVE, LOS ANGELES,    CA 90011",,,,exempt,LA,Los Angeles County,34.018867,-118.26081599999999,
LAUSD,2ND STREET ELEMENTARY,"1942 E SECOND ST, LOS ANGELES,    CA 90033",,,,exempt,Los Angeles,Los Angeles County,34.044846,-118.216706,
LAUSD,31ST DIST PTSA,"17445 CANTLAY ST., LAKE BALBOA, CA 91406",,,,exempt,Los Angeles,Los Angeles County,34.202248,-118.513697,
LAUSD,32ND STREET USC PERFORMING ARTS MAGNET,"822 W 32ND ST, LOS ANGELES,    CA 90007",,,,exempt,LA,Los Angeles County,34.024142,-118.28275,
LAUSD,36TH STREET EARLY EDUCATION CENTER,"3556 S ST ANDRES PL, LOS ANGELES,    CA 90018",,,,exempt,Los Angeles,Los Angeles County,34.023094,-118.311641,
LAUSD,37TH STREET EDUCATION CENTER,"1204 W 36TH PL, LOS ANGELES,    CA 90007",,,,exempt,LA,Los Angeles County,34.021929,-118.294655,
LAUSD,3RD STREET ELEMENTARY,"201 S JUNE ST, LOS ANGELES,    CA 90004",,,,exempt,LA,Los Angeles County,34.070944,-118.33488600000001,
LAUSD,42ND STREET ELEMENTARY,"4231 FOURTH AVE, LOS ANGELES,    CA 90008",,,,exempt,Los Angeles,Los Angeles County,34.006396,-118.321766,
LAUSD,49TH STREET ELEMENTARY,"750 E 49TH ST, LOS ANGELES,    CA 90011",,,,exempt,LA,Los Angeles County,33.998576,-118.262006,
LAUSD,4TH STREET EARLY EDUCATION CENTER (Same Campus as 4th Street Elementary),"420 S AMALIA AVE, LOS ANGELES, CA 90022",,,,exempt,East Los Angeles,Los Angeles County,34.028683,-118.153319,
LAUSD,4TH STREET ELEMENTARY,"420 S AMALIA AVE, LOS ANGELES, CA 90022",,,,exempt,East Los Angeles,Los Angeles County,34.028683,-118.153319,
LAUSD,4TH STREET PRIMARY CENTER,"469 AMALIA AVE, LOS ANGELES, CA 90022",,,,exempt,,Los Angeles County,34.027609999999996,-118.154046,
LAUSD,52ND STREET EARLY EDUCATION CENTER,"901 W 52ND ST, LOS ANGELES,    CA 90037",,,,exempt,LA,Los Angeles County,33.995369000000004,-118.28933300000001,
LAUSD,52ND STREET ELEMENTARY,"816 W 51ST ST, LOS ANGELES,    CA 90037",,,,exempt,LA,Los Angeles County,33.996357,-118.287632,
LAUSD,54th Street Elementary,"5501 S.Eileen Ave, Los Angeles, CA 90043",,,,exempt,Covina,Los Angeles County,34.085153999999996,-117.910417,
LAUSD,59TH STREET ELEMENTARY,"5939 SECOND AVE, LOS ANGELES,    CA 90043",,,,exempt,Los Angeles,Los Angeles County,33.986036,-118.31993999999999,
LAUSD,61ST STREET ELEMENTARY,"6020 S FIGUEROA ST, LOS ANGELES,    CA 90003",,,,exempt,LA,Los Angeles County,33.984836,-118.28256499999999,
LAUSD,66TH STREET EARLY EDUCATION CENTER,"405 E 67TH ST, LOS ANGELES,    CA 90003",,,,exempt,LA,Los Angeles County,33.978895,-118.267049,
LAUSD,66TH STREET ELEMENTARY,"6600 S SAN PEDRO ST, LOS ANGELES,    CA 90003",,,,exempt,LA,Los Angeles County,33.974349,-118.269549,
LAUSD,68TH STREET ELEMENTARY,"612 W 68TH ST, LOS ANGELES,    CA 90044",,,,exempt,LA,Los Angeles County,33.97821,-118.28411899999999,
LAUSD,6TH AVE EARLY EDUCATION CENTER,"3124 SEVENTH AVE, LOS ANGELES,    CA 90018",,,,exempt,Los Angeles,Los Angeles County,34.027014,-118.32451299999998,
LAUSD,6TH AVENUE ELEMENTARY,"3109 SIXTH AVE, LOS ANGELES,    CA 90018",,,,exempt,Los Angeles,Los Angeles County,34.02663,-118.324179,
LAUSD,74TH STREET ELEMENTARY,"2112 W 74TH ST, LOS ANGELES,    CA 90047",,,,exempt,LA,Los Angeles County,33.972753999999995,-118.313376,
LAUSD,75TH STREET EARLY EDUCATION CENTER,"242 W 75TH ST, LOS ANGELES,    CA 90003",,,,exempt,LA,Los Angeles County,33.971777,-118.27769599999999,
LAUSD,75TH STREET ELEMENTARY,"142 W 75TH ST, LOS ANGELES,    CA 90003",,,,exempt,LA,Los Angeles County,33.971701,-118.27554199999999,
LAUSD,7TH STREET ELEMENTARY,"1570 W SEVENTH ST, SAN PEDRO,      CA 90732",,,,exempt,Los Angeles,Los Angeles County,33.738076,-118.311229,
LAUSD,92ND STREET ELEMENTARY,"9211 GRAPE ST, LOS ANGELES,    CA 90002",,,,exempt,LA,Los Angeles County,33.953061,-118.236372,
LAUSD,93RD STREET ELEMENTARY,"330 E 93RD ST, LOS ANGELES,    CA 90003",,,,exempt,LA,Los Angeles County,33.95191,-118.268786,
LAUSD,95TH STREET EARLY EDUCATION CENTER,"1027 W 96TH ST, LOS ANGELES,    CA 90044",,,,exempt,LA,Los Angeles County,33.948775,-118.292573,
LAUSD,95TH STREET ELEMENTARY,"1109 W 96TH ST, LOS ANGELES,    CA 90044",,,,exempt,LA,Los Angeles County,33.948771,-118.29408000000001,
LAUSD,96TH STREET ELEMENTARY,"1471 E 96TH ST, LOS ANGELES,    CA 90002",,,,exempt,LA,Los Angeles County,33.949145,-118.24857800000001,
LAUSD,97TH STREET EARLY EDUCATION CENTER,"430 W COLDEN AVE, LOS ANGELES,    CA 90003",,,,exempt,LA,Los Angeles County,33.949090000000005,-118.28103700000001,
LAUSD,99TH STREET ELEMENTARY,"9900 S WADSWORTH AVE, LOS ANGELES,    CA 90002",,,,exempt,LA,Los Angeles County,33.947037,-118.258528,
LAUSD,9TH STREET ELEMENTARY,"820 TOWNE AVE, LOS ANGELES, CA 90021",,,,exempt,LA,Los Angeles County,34.036724,-118.24768200000001,
LAUSD,9TH STREET SPAN K-8 SCHOOL (FRM: 9TH STREET ES),"820 TOWNE AVE, LOS ANGELES,  CA 90021",,,,exempt,LA,Los Angeles County,34.036724,-118.24768200000001,
LAUSD,ABRAHAM LINCOLN SENIOR HIGH,"3501 N BROADWAY, LOS ANGELES,    CA 90031",,,,exempt,LA,Los Angeles County,34.072302,-118.2209,
LAUSD,ACADEMIA AVANCE,"115 N AVENUE 53, LOS ANGELES, CA 90042",,,,exempt,LA,Los Angeles County,34.107371,-118.198371,
LAUSD,ACADEMIA MODERNA @ SRES #5/ROYBAL-ALLARD ES,"3232 SATURN AVE, HUNTINGTON PRK, CA 90255",,,,exempt,Huntington Park,Los Angeles County,33.975882,-118.209826,
LAUSD,ACADEMIC PERFORMANCE EXCELLENCE ACADEMY @ BERNSTEIN HS,"1309 N WILTON PLACE, HOLLYWOOD, CA 90028",,,,exempt,LA,Los Angeles County,34.07611,-118.313594,
LAUSD,ADDAMS CONTINUATION HIGH,"16341 DONMETZ ST, GRANADA HILLS,  CA 91344",,,,exempt,LA,Los Angeles County,34.273819,-118.488156,
LAUSD,ADMINISTRATIVE SITE - ESC-SOUTH (FMR: LOCAL DISTRICT #8),"1208 MAGNOLIA AVE, GARDENA,     CA 90247",,,,exempt,Gardena,Los Angeles County,33.88862,-118.29685500000001,
LAUSD,AGGELER COMMUNITY DAY SCHOOL,"21050 PLUMMER ST, CHATSWORTH,     CA 91311",,,,exempt,LA,Los Angeles County,34.242635,-118.59163500000001,
LAUSD,AGUSTUS HAWKINS HS (FRM: SO. L.A NEW HS #3),"825 W 60TH ST, LOS ANGELES, CA 90044",,,,exempt,LA,Los Angeles County,33.98561,-118.287645,
LAUSD,ALBERT EINSTEIN CONTINUATION HIGH SCHOOL,"15938 TUPPER ST, NORTH HILLS, CA 91343",,,,exempt,LA,Los Angeles County,34.23915,-118.47927800000001,
LAUSD,ALBION EARLY EDUCATION CENTER,"348 S AVE 18, LOS ANGELES,    CA 90031",,,,exempt,Los Angeles,Los Angeles County,34.069102,-118.22066799999999,
LAUSD,ALBION ELEMENTARY,"322 S AVE 18, LOS ANGELES,    CA 90031",,,,exempt,LA,Los Angeles County,34.069340000000004,-118.22086599999999,
LAUSD,ALDAMA ELEMENTARY,"650 N AVE 50, LOS ANGELES,    CA 90042",,,,exempt,LA,Los Angeles County,34.111178,-118.206925,
LAUSD,ALEXANDRIA EARLY EDUCATION CENTER,"4304 ROSEWOOD AVE, LOS ANGELES,    CA 90004",,,,exempt,LA,Los Angeles County,34.078944,-118.298097,
LAUSD,ALEXANDRIA ELEMENTARY,"4211 OAKWOOD AVE, LOS ANGELES,    CA 90004",,,,exempt,LA,Los Angeles County,34.077744,-118.29843000000001,
LAUSD,ALLESANDRO STATE  PRE-SCHOOL SITE,"2210 RIVERSIDE DR, LOS ANGELES,    CA 90039",,,,exempt,LA,Los Angeles County,34.103359000000005,-118.252513,
LAUSD,ALLESANDRO STATE  PRE-SCHOOL SITE,"2210 RIVERSIDE DR., LOS ANGELES, CA 90039",,,,exempt,LA,Los Angeles County,34.103359000000005,-118.252513,
LAUSD,Alliance Christine Oâ€™Donovan Middle Academy,603 E 115th St Los Angeles CA 90059,,,,not tested,LA,Los Angeles County,33.930183,-118.26495700000001,
LAUSD,ALLIANCE COLLEGE READY HS#16 @ BELMONT HS,"1575 W 2ND ST, LOS ANGELES,    CA 90026",,,,exempt,LA,Los Angeles County,34.061339000000004,-118.263384,
LAUSD,ALLIANCE HEALTH SERVICES ACADEMY HS @ CLAY MS,"12226 S WESTERN AVENUE, LOS ANGELES, CA 90047",,,,exempt,,Los Angeles County,33.921797,-118.308897,
LAUSD,Alliance Marine Innovation and Technology 6-12 Complex,11933 Allegheny Street Los Angeles CA 91352,,,False,tested,LA,Los Angeles County,34.237390999999995,-118.39286399999999,
LAUSD,Alliance Richard Merkin Middle School,2023 South Union Avenue Los Angeles CA 90007,,,False,tested,LA,Los Angeles County,34.036989,-118.282249,
LAUSD,ALLIANCE TECHNOLOGY & MATH SCIENCE HS @ SANDRA SOTOMAYOR LEARNING ACADEMY (FMR:CRHS #13E),"2050 NORTH SAN FERNANDO RD, LOS ANGELES, CA 90011",,,,exempt,Los Angeles,Los Angeles County,34.10226,-118.237398,
LAUSD,Alliance Ted K. Tajima High School,1552 West Rockwood Street Los Angeles CA 90026,,,False,tested,Los Angeles,Los Angeles County,34.063479,-118.26153500000001,
LAUSD,Alliance William and Carol Ouchi High School,5356 South 5th Avenue Los Angeles CA 90047,,,False,tested,Inglewood,Los Angeles County,33.961575,-118.32212700000001,
LAUSD,ALTA CALIFORNIA ELEMENTARY (FRM: VRES #6),"14859 RAYEN ST, PANORAMA CITY, CA 91402",,,,exempt,LA,Los Angeles County,34.231909,-118.456551,
LAUSD,ALTA LOMA ELEMENTARY,"1745 VINEYARD AVE, LOS ANGELES,    CA 90019",,,,exempt,LA,Los Angeles County,34.042596,-118.33883,
LAUSD,AMANECER PRIMARY CENTER,"832 SOUTH EASTMAN AVE, LOS ANGELES, CA 90023",,,,exempt,,Los Angeles County,34.024986,-118.18612399999999,
LAUSD,AMBASSADOR SCHOOL OF GLOBAL EDUCATION @ CENTRAL LA NEW LEARNING CENTER #1,"3201 W 8TH STREET, LOS ANGELES, CA 90005",,,,exempt,LA,Los Angeles County,34.057794,-118.29885900000001,
LAUSD,AMBASSADOR SCHOOL OF GLOBAL LEADERSHIP @ CENTRAL LA NEW LEARNING CENTER #2,"701 S CATALINA ST, LOS ANGELES, CA 90005",,,,exempt,LA,Los Angeles County,34.061869,-118.295367,
LAUSD,AMBLER ELEMENTARY,"319 E SHERMAN DR, CARSON,         CA 90746",,,,exempt,Carson,Los Angeles County,33.877537,-118.271397,
LAUSD,AMELIA EARHART CONTINUATION HIGH SCHOOL,"5355 COLFAX AVE, N HOLLYWOOD,   CA 91601",,,,exempt,LA,Los Angeles County,34.167978999999995,-118.38786,
LAUSD,AMESTOY ELEMENTARY,"1048 W 149TH ST, GARDENA,        CA 90247",,,,exempt,Gardena,Los Angeles County,33.896367,-118.292907,
LAUSD,AMESTOY STATE PRESCHOOL,"1048 W 149TH ST, GARDENA,        CA 90247",,,,exempt,Gardena,Los Angeles County,33.896367,-118.292907,
LAUSD,ANATOLA ELEMENTARY,"7364 ANATOLA AVE, LAKE BALBOA, CA 91406",,,,exempt,Los Angeles,Los Angeles County,34.203922999999996,-118.514521,
LAUSD,ANDASOL ELEMENTARY,"10126 ENCINO AVE, NORTHRIDGE, CA 91325",,,,exempt,LA,Los Angeles County,34.254255,-118.515372,
LAUSD,ANDRES & MARIA CARDENAS ELEMENTARY (FRM: VRES #9),"6900 CALHOUN AVE, VAN NUYS, CA 91405",,,,exempt,LA,Los Angeles County,34.196067,-118.442072,
LAUSD,ANGEL'S GATE CONTINUATION HIGH SCHOOL (@ FT. MACARTHUR),"3607 S GAFFEY ST, SAN PEDRO,      CA 90731",,,,exempt,LA,Los Angeles County,33.737466,-118.29233700000002,
LAUSD,ANGELES MESA ELEMENTARY,"2611 W 52ND ST, LOS ANGELES,    CA 90043",,,,exempt,LA,Los Angeles County,33.995109,-118.321656,
LAUSD,ANIMO CHARTER MIDDLE SCHOOL #3 & 4 (FMR: CLAY MS),"12226 S WESTERN AVE, LOS ANGELES, CA 90047",,,,exempt,,Los Angeles County,33.921797,-118.308897,
LAUSD,ANIMO JACKIE ROBINSON @CLINTON MS,"3500 S HILL STREET, LOS ANGELES, CA 90007",,,,exempt,LA,Los Angeles County,34.018159999999995,-118.275729,
LAUSD,ANIMO VENICE CHARTER HIGH SCHOOL,"820 BROADWAY STREET, VENICE, CA 90291",,,,exempt,LA,Los Angeles County,33.996911,-118.463812,
LAUSD,ANIMO WESTSIDE MS @ COWAN ES,"7615 COWAN AVE, LOS ANGELES,    CA 90045",,,,exempt,LA,Los Angeles County,33.972959,-118.40493899999998,
LAUSD,ANN ELEMENTARY,"126 E BLOOM ST, LOS ANGELES,    CA 90012",,,,exempt,LA,Los Angeles County,34.064868,-118.23048100000001,
LAUSD,ANNALEE ELEMENTARY,"19410 S ANNALEE AVE, CARSON,         CA 90746",,,,exempt,Carson,Los Angeles County,33.854181,-118.25186200000002,
LAUSD,ANNANDALE ELEMENTARY,"6125 POPPY PEAK DR, LOS ANGELES,    CA 90042",,,,exempt,LA,Los Angeles County,34.128431,-118.186745,
LAUSD,ANTON ES (FRMR: GARFIELD ALTERNATIVE EDUCATION CENTER),"831 N BONNIE BEACH PL, LOS ANGELES, CA 90063",,,,exempt,,Los Angeles County,34.045853,-118.181227,
LAUSD,ANTON ES EARLY EDUCATION CENTER (Same Camus as Anton Elementary School),"831 N BONNIE BEACH PL, LOS ANGELES, CA 90063",,,,exempt,,Los Angeles County,34.045853,-118.181227,
LAUSD,APPERSON ELEMENTARY,"10233 WOODWARD AVE, SUNLAND,        CA 91040",,,,exempt,LA,Los Angeles County,34.255144,-118.30712700000001,
LAUSD,APPLE ACADEMY @ MANHATTAN ES,"4900 WESTERN AVENUE, LOS ANGELES, CA 90062",,,,exempt,LA,Los Angeles County,34.057058000000005,-118.309099,
LAUSD,ARAGON ELEMENTARY,"1118 ARAGON AVE, LOS ANGELES,    CA 90065",,,,exempt,LA,Los Angeles County,34.09495,-118.22476699999999,
LAUSD,ARARAT CHARTER (FRM: KINDERGARTEN LEARNING ACADEMY),"6555 SYLMAR AVE, VAN NUYS, CA 91401",,,,exempt,LA,Los Angeles County,34.189223999999996,-118.44643400000001,
LAUSD,ARARAT ES (2ND SITE) @ ERWIN ES,"13400 ERWIN ST, VAN NUYS,       CA 91401",,,,exempt,LA,Los Angeles County,34.182959999999994,-118.423878,
LAUSD,ARCO IRIS PRIMARY CENTER (CLOSED),"4504 ASCOT AVE, LOS ANGELES, CA 90011",,,,exempt,LA,Los Angeles County,34.002841,-118.249849,
LAUSD,ARLETA SENIOR HIGH,"14200 VAN NUYS BLVD, ARLETA, CA 91331",,,,exempt,LA,Los Angeles County,34.251452,-118.44201299999999,
LAUSD,ARLINGTON HEIGHTS ELEMENTARY,"1717 SEVENTH AVE, LOS ANGELES,    CA 90019",,,,exempt,Los Angeles,Los Angeles County,34.041191999999995,-118.325023,
LAUSD,ARMINTA EARLY EDUCATION CENTER,"7911 GOLL AVE, N HOLLYWOOD,    CA 91605",,,,exempt,LA,Los Angeles County,34.214175,-118.381881,
LAUSD,ARMINTA ELEMENTARY,"11530 STRATHERN ST, N HOLLYWOOD,   CA 91605",,,,exempt,LA,Los Angeles County,34.215789,-118.38273999999998,
LAUSD,ARROYO SECO MUSEUM SCIENCE MAGNET,"4805 SYCAMORE AVE TR, LOS ANGELES,    CA 90042",,,,exempt,Los Angeles,Los Angeles County,34.014752,-118.358645,
LAUSD,ASCOT ELEMENTARY,"1447 E 45TH ST, LOS ANGELES,    CA 90011",,,,exempt,LA,Los Angeles County,34.003074,-118.248177,
LAUSD,ASPIRE FIRESTONE ACADEMY   - includes Aspire Gateway Academy housed at the same location  AZALEA ACADEMIES (FMR: SRES #4),"8929 KAUFFMAN AVE, SOUTH GATE, CA 90280",,,,exempt,South Gate,Los Angeles County,33.951685,-118.189167,
LAUSD,ASPIRE INSKEEP ACADEMY @ JUANITA TATE ES (FMR: SRES #6),"123 W 59TH STREET, LOS ANGELES, CA 90003",,,,exempt,LA,Los Angeles County,33.987027000000005,-118.2745,
LAUSD,ASPIRE JUANITA TATE ACADEMY @ JUANITA TATE ES (FMR: SRES #6),"123 W 59TH STREET, LOS ANGELES, CA 90003",,,,exempt,LA,Los Angeles County,33.987027000000005,-118.2745,
LAUSD,ASPIRE LA SECONDARY,"2079 SATURN AVENUE, HUNTINGTON PARK,CA 90255",,,,exempt,,Los Angeles County,33.977002,-118.23373899999999,
LAUSD,ASPIRE SLAUSON @ JUANITA TATE ES (FMR: SRES #6),"123 W 59TH STREET, LOS ANGELES, CA 90003",,,,exempt,LA,Los Angeles County,33.987027000000005,-118.2745,
LAUSD,ASPIRE SLAUSON ACADEMY @  JUANITA TATE ES (FMR: SRES #6),"123 W 59TH STREET, LOS ANGELES, CA 90003",,,,exempt,LA,Los Angeles County,33.987027000000005,-118.2745,
LAUSD,ATWATER ELEMENTARY,"3271 SILVER LAKE BLVD, LOS ANGELES,    CA 90039",,,,exempt,LA,Los Angeles County,34.11497,-118.25440900000001,
LAUSD,AUDUBON MIDDLE SCHOOL,"4120 11TH AVE, LOS ANGELES,    CA 90008",,,,exempt,LA,Los Angeles County,34.009640000000005,-118.32948700000001,
LAUSD,AVALON GARDENS ELEMENTARY,"13940 S SAN PEDRO ST, LOS ANGELES,    CA 90061",,,,exempt,,Los Angeles County,33.905530999999996,-118.26955500000001,
LAUSD,BALBOA GIFTED / HIGH ABILITY MAGNET SCHOOL,"17020 LABRADOR ST, NORTHRIDGE, CA 91325",,,,exempt,LA,Los Angeles County,34.24907,-118.50318,
LAUSD,BALDWIN HILLS ELEMENTARY,"5421 RODEO RD, LOS ANGELES,    CA 90016",,,,exempt,LA,Los Angeles County,34.02154,-118.35768300000001,
LAUSD,BANCROFT MIDDLE SCHOOL,"929 N LAS PALMAS AVE, LOS ANGELES,    CA 90038",,,,exempt,LA,Los Angeles County,34.08811,-118.336367,
LAUSD,BANDINI ELEMENTARY,"425 N BANDINI ST, SAN PEDRO,      CA 90731",,,,exempt,LA,Los Angeles County,33.746497,-118.298998,
LAUSD,BANNEKER SPECIAL EDUCATION CENTER,"14024 S SAN PEDRO ST, LOS ANGELES,    CA 90061",,,,exempt,,Los Angeles County,33.903988,-118.26933400000001,
LAUSD,BANNING SENIOR HIGH,"1527 LAKME AVE, WILMINGTON,     CA 90744",,,,exempt,LA,Los Angeles County,33.794058,-118.26083500000001,
LAUSD,BARACK OBAMA GLOBAL PREPARATION ACADEMY (FMR: SRMS #6),"1700 W 46TH ST, LOS ANGELES, CA 90062",,,,exempt,LA,Los Angeles County,34.00182,-118.30906499999999,
LAUSD,BARRETT ELEMENTARY,"419 W 98TH ST, LOS ANGELES,    CA 90003",,,,exempt,LA,Los Angeles County,33.947284,-118.280727,
LAUSD,BARRETT STATE PRESCHOOL,"419 W 98TH ST, LOS ANGELES,    CA 90003",,,,exempt,LA,Los Angeles County,33.947284,-118.280727,
LAUSD,BARTON HILL ELEMENTARY,"423 N PACIFIC AVE, SAN PEDRO,      CA 90731",,,,exempt,LA,Los Angeles County,33.746284,-118.28796299999999,
LAUSD,BASSETT ELEMENTARY,"15756 BASSETT ST, LAKE BALBOA, CA 91406",,,,exempt,Los Angeles,Los Angeles County,34.195503,-118.476702,
LAUSD,BEACHY AVENUE ELEMENTARY,"9757 BEACHY AVE, ARLETA, CA 91331",,,,exempt,LA,Los Angeles County,34.247735,-118.43801699999999,
LAUSD,BECKFORD ELEMENTARY,"19130 TULSA ST, NORTHRIDGE, CA 91326",,,,exempt,Los Angeles,Los Angeles County,34.267732,-118.548831,
LAUSD,BEETHOVEN EARLY EDUCATION CENTER,"12939 LUCILLE AVE, LOS ANGELES,    CA 90066",,,,exempt,LA,Los Angeles County,34.001191,-118.443595,
LAUSD,BEETHOVEN ELEMENTARY,"3711 BEETHOVEN ST, LOS ANGELES,    CA 90066",,,,exempt,LA,Los Angeles County,34.002232,-118.44318999999999,
LAUSD,BELL SENIOR HIGH,"4328 BELL AVE, BELL,           CA 90201",,,,exempt,,Los Angeles County,33.974655,-118.190497,
LAUSD,BELLEVUE AVE.  PRIMARY CENTER,"610 N MICHELTORENA ST, LOS ANGELES, CA 90026",,,,exempt,Los Angeles,Los Angeles County,34.079291999999995,-118.280732,
LAUSD,BELLINGHAM PRIMARY CENTER,"6728 BELLINGHAM AVENUE, N HOLLYWOOD, CA 91606",,,,exempt,LA,Los Angeles County,34.192817,-118.398127,
LAUSD,BELMONT ALTERNATIVE EDUCATION WORK CENTER,"1510 CAMBRIA ST, LOS ANGELES, CA 90017",,,,exempt,LA,Los Angeles County,34.05235,-118.270219,
LAUSD,BELMONT COMMUNITY ADULT SCHOOL,"1575 W 2ND ST, LOS ANGELES,    CA 90026",,,,exempt,LA,Los Angeles County,34.061339000000004,-118.263384,
LAUSD,BELMONT SENIOR HIGH SCHOOL,"1575 W 2ND ST, LOS ANGELES,    CA 90026",,,,exempt,LA,Los Angeles County,34.061339000000004,-118.263384,
LAUSD,BELVEDERE EARLY EDUCATION CENTER,"221 S EASTMAN AVE, LOS ANGELES, CA 90063",,,,exempt,,Los Angeles County,34.033239,-118.18578799999999,
LAUSD,BELVEDERE ELEMENTARY SCHOOL,"3724 E FIRST ST, LOS ANGELES, CA 90063",,,,exempt,Los Angeles,Los Angeles County,34.035759000000006,-118.186273,
LAUSD,BELVEDERE MIDDLE SCHOOL,"312 N RECORD AVE, LOS ANGELES, CA 90063",,,,exempt,,Los Angeles County,34.039471999999996,-118.182162,
LAUSD,BERENDO MIDDLE SCHOOL,"1157 S BERENDO ST, LOS ANGELES,    CA 90006",,,,exempt,LA,Los Angeles County,34.049886,-118.293798,
LAUSD,BERTRAND ELEMENTARY,"7021 BERTRAND AVE, RESEDA, CA 91335",,,,exempt,LA,Los Angeles County,34.197935,-118.52444799999999,
LAUSD,BETHUNE MIDDLE SCHOOL,"155 W 69TH ST, LOS ANGELES,    CA 90003",,,,exempt,LA,Los Angeles County,33.977453000000004,-118.27518899999998,
LAUSD,BILL CRUZ EARLY EDUCATION CENTER,"1020 S. VALENCIA ST., LOS ANGELES, CA 90015",,,,exempt,Alhambra,Los Angeles County,34.084001,-118.113064,
LAUSD,BIRMINGHAM CHARTER HS,"17000 HAYNES ST, LAKE BALBOA, CA 91406",,,,exempt,Los Angeles,Los Angeles County,34.188159000000006,-118.504225,
LAUSD,BIRMINGHAM/CLEVELAND/RESEDA CLUSTER OFF,"6621 BALBOA BLVD, VAN NUYS, CA 91406",,,,exempt,Los Angeles,Los Angeles County,34.189814,-118.501354,
LAUSD,BLEND SPECIAL EDUCATION SCHOOL (Closed),"5210 CLINTON ST, LOS ANGELES,    CA 90004",,,,exempt,LA,Los Angeles County,34.081579,-118.315975,
LAUSD,BLYTHE ELEMENTARY,"18730 BLYTHE ST, RESEDA, CA 91335",,,,exempt,LA,Los Angeles County,34.214636,-118.54114799999999,
LAUSD,BONITA ELEMENTARY,"21929 BONITA ST, CARSON,         CA 90745",,,,exempt,Carson,Los Angeles County,33.828912,-118.259405,
LAUSD,BOYLE HEIGHTS CONTINUATION HIGH,"544 S MATHEWS ST, LOS ANGELES,    CA 90033",,,,exempt,LA,Los Angeles County,34.037855,-118.212006,
LAUSD,BRADDOCK ELEMENTARY,"4711 INGLEWOOD BLVD, CULVER CITY,    CA 90230",,,,exempt,,Los Angeles County,33.997679,-118.422109,
LAUSD,BRADLEY EARLY EDUCATION CENTER,"10925 S CENTRAL AVE, LOS ANGELES,    CA 90059",,,,exempt,LA,Los Angeles County,33.936355999999996,-118.25428799999999,
LAUSD,BRAINARD ELEMENTARY,"11407 BRAINARD AVE, LAKEVIEWTERRACE CA 91342",,,,exempt,Los Angeles,Los Angeles County,34.277390000000004,-118.36462,
LAUSD,BREED ST. ELEMENTARY SCHOOL,"2226 E THIRD ST, LOS ANGELES,    CA 90033",,,,exempt,Los Angeles,Los Angeles County,34.04262,-118.21301899999999,
LAUSD,BRENTWOOD SCIENCE MAGNET,"740 GRETNA GREEN WAY, LOS ANGELES,    CA 90049",,,,exempt,LA,Los Angeles County,34.050683,-118.475031,
LAUSD,BRIDGE ELEMENTARY,"605 N BOYLE AVE, LOS ANGELES,    CA 90033",,,,exempt,LA,Los Angeles County,34.052333000000004,-118.21700000000001,
LAUSD,BRIDGE STREET EARLY EDUC CENTER,"648 ECHANDIA ST, LOS ANGELES,    CA 90033",,,,exempt,LA,Los Angeles County,34.053938,-118.218372,
LAUSD,BRIDGES SPAN SCHOOL(SR SPAN K-8 #1),"1235 BROAD AVE, WILMINGTON, CA 90744",,,,exempt,LA,Los Angeles County,33.787562,-118.261471,
LAUSD,BRIGHT ELEMENTARY,"1771 W 36TH ST, LOS ANGELES,    CA 90018",,,,exempt,LA,Los Angeles County,34.022895,-118.310976,
LAUSD,BROAD AVE ELEMENTARY,"24815 BROAD AVE, WILMINGTON,     CA 90744",,,,exempt,LA,Los Angeles County,33.781312,-118.26089099999999,
LAUSD,BROADACRES ELEMENTARY,"19424 S BROADACRES AVE, CARSON,         CA 90746",,,,exempt,Carson,Los Angeles County,33.854504999999996,-118.240187,
LAUSD,BROADOUS EARLY EDUCATION CENTER,"11736 BROMONT AVE, PACOIMA,        CA 91331",,,,exempt,LA,Los Angeles County,34.282052,-118.405868,
LAUSD,BROADWAY ELEMENTARY,"1015 LINCOLN BLVD, VENICE,         CA 90291",,,,exempt,LA,Los Angeles County,33.998129999999996,-118.46139099999999,
LAUSD,BROCKTON AVE ELEMENTARY SCHOOL,"1309 ARMACOST AVE, LOS ANGELES,    CA 90025",,,,exempt,LA,Los Angeles County,34.044683,-118.462737,
LAUSD,BROOKLYN AVE. ELEMENTARY SCHOOL,"4620 CESAR E CHAVEZ AVE, LOS ANGELES, CA 90022",,,,exempt,,Los Angeles County,34.040506,-118.166473,
LAUSD,BROOKLYN EARLY EDUCATION CENTER,"329 N ARIZONA AVE, LOS ANGELES, CA 90022",,,,exempt,,Los Angeles County,34.032575,-118.163981,
LAUSD,BRYSON ELEMENTARY,"4470 MISSOURI AVE, SOUTH GATE,     CA 90280",,,,exempt,South Gate,Los Angeles County,33.944275,-118.19276200000002,
LAUSD,BSD-OPER-YALE,"936 YALE ST, LOS ANGELES, CA 90012",,,,exempt,LA,Los Angeles County,34.065704,-118.23941299999998,
LAUSD,BSD-SEPULVEDA BUS GARAGE,"8920 SEPULVEDA, SEPULVEDA, CA 91343",,,,exempt,,Segovia,41.29958,-3.750132,
LAUSD,BUCHANAN ELEMENTARY,"5024 BUCHANAN ST, LOS ANGELES,    CA 90042",,,,exempt,LA,Los Angeles County,34.119515,-118.206801,
LAUSD,BUDLONG ELEMENTARY,"5940 S BUDLONG AVE, LOS ANGELES,    CA 90044",,,,exempt,LA,Los Angeles County,33.987161,-118.29574199999999,
LAUSD,BUDLONG STATE PRESCHOOL,"5940 S BUDLONG AVE, LOS ANGELES,    CA 90044",,,,exempt,LA,Los Angeles County,33.987161,-118.29574199999999,
LAUSD,BURBANK BLVD ELEMENTARY SCHOOL,"12215 ALBERS ST, N HOLLYWOOD,   CA 91607",,,,exempt,LA,Los Angeles County,34.170496,-118.38224,
LAUSD,BURBANK MIDDLE SCHOOL,"6460 N FIGUEROA ST, LOS ANGELES,    CA 90042",,,,exempt,LA,Los Angeles County,34.119698,-118.183269,
LAUSD,BURBANK STATE PRESCHOOL,"12215 ALBERS STREET, NO HOLLYWOOD, CA 91607",,,,exempt,Los Angeles,Los Angeles County,34.170582,-118.399172,
LAUSD,BURROUGHS MIDDLE SCHOOL,"600 S MC CADDEN PL, LOS ANGELES,    CA 90005",,,,exempt,Los Angeles,Los Angeles County,34.063694,-118.33633200000001,
LAUSD,BURTON ELEMENTARY,"8141 CALHOUN AVE, PANORAMA CITY,  CA 91402",,,,exempt,LA,Los Angeles County,34.219285,-118.44103799999999,
LAUSD,BUSHENELL ELEMENTARY,"5507 BUSHNELL WAY, LOS ANGELES,    CA 90042",,,,exempt,LA,Los Angeles County,34.102331,-118.18888700000001,
LAUSD,BYRD MIDDLE SCHOOL (NEW SITE),"8501 ARLETA AVENUE, SUN VALLEY,     CA 91352",,,,exempt,Los Angeles,Los Angeles County,34.223918,-118.407918,
LAUSD,CABRILLO EARLY EDUCATION CENTER,"741 W EIGHTH ST, SAN PEDRO,      CA 90731",,,,exempt,Los Angeles,Los Angeles County,33.736723,-118.293148,
LAUSD,CABRILLO ELEMENTARY,"732 S CABRILLO AVE, SAN PEDRO,      CA 90731",,,,exempt,LA,Los Angeles County,33.737532,-118.29443700000002,
LAUSD,CAHUENGA ELEMENTARY SCHOOL,"220 S HOBART BLVD, LOS ANGELES,    CA 90004",,,,exempt,LA,Los Angeles County,34.070644,-118.30539099999999,
LAUSD,CAL BURKE HIGH SCHOOL,"14630 LANARK STREET, PANORAMA CITY, CA 91402",,,,exempt,LA,Los Angeles County,34.217851,-118.451858,
LAUSD,CALABASH ELEMENTARY,"23055 EUGENE ST, WOODLAND HILLS, CA 91364",,,,exempt,LA,Los Angeles County,34.157982000000004,-118.629052,
LAUSD,CALAHAN ELEMENTARY,"18722 KNAPP ST, NORTHRIDGE,     CA 91324",,,,exempt,LA,Los Angeles County,34.238075,-118.540993,
LAUSD,CALVERT ELEMENTARY,"19850 DELANO ST, WOODLAND HILLS, CA 91367",,,,exempt,Los Angeles,Los Angeles County,34.181774,-118.565165,
LAUSD,CALVERT ES SPS,"19850 DELANO ST, WOODLAND HILLS, CA 91367",,,,exempt,Los Angeles,Los Angeles County,34.181774,-118.565165,
LAUSD,CAMELLIA ELEMENTARY,"7451 CAMELLIA AVE, N HOLLYWOOD,   CA 91605",,,,exempt,LA,Los Angeles County,34.205749,-118.382423,
LAUSD,CAMINO NUEVO ACADEMY #4 @ SANDRA CISNEROS LEARNING ACADEMY (FMR: CRES #14),"1018 MOHAWK STREET, LOS ANGELES, CA 90026",,,,exempt,LA,Los Angeles County,34.07658,-118.265345,
LAUSD,CAMINO NUEVO CHARTER ACADEMY @ ADAMS MS,"697 S BURLINGTON AVE, LOS ANGELES, CA 90057",,,,exempt,LA,Los Angeles County,34.055141,-118.27343700000002,
LAUSD,CAMINO NUEVO ES #3 (FMR: JOSE A. CASTELLANOS ES (FRM: CRES #15)),"1723 CORDOVA STREET, LOS ANGELES, CA 90007",,,,exempt,LA,Los Angeles County,34.039123,-118.295869,
LAUSD,CAMINO NUEVO SENIOR HIGH (FRM: CENTRAL LA HS #12 @ CONTRERAS SH)),"1215 W. MIRAMAR ST., LOS ANGELES, CA  90026",,,,exempt,Los Angeles,Los Angeles County,34.058059,-118.257824,
LAUSD,CANFIELD ELEMENTARY,"9233 AIRDROME ST, LOS ANGELES,    CA 90035",,,,exempt,LA,Los Angeles County,34.049839,-118.39043500000001,
LAUSD,CANOGA PARK EARLY EDUCATION CENTER,"7355 VASSAR AVE, CANOGA PARK, CA 91303",,,,exempt,LA,Los Angeles County,34.203825,-118.604502,
LAUSD,CANOGA PARK ELEMENTARY,"7438 TOPANGA CANYON BLVD, CANOGA PARK, CA 91303",,,,exempt,LA,Los Angeles County,34.20575,-118.606128,
LAUSD,CANOGA PARK SENIOR HIGH,"6850 TOPANGA CANYON BLVD, CANOGA PARK, CA 91303",,,,exempt,LA,Los Angeles County,34.194654,-118.60609699999999,
LAUSD,CANTARA ELEMENTARY,"17950 CANTARA ST, RESEDA, CA 91335",,,,exempt,LA,Los Angeles County,34.219171,-118.524652,
LAUSD,CANTERBURY ELEMENTARY,"13670 MONTAGUE ST, ARLETA, CA 91331",,,,exempt,LA,Los Angeles County,34.234025,-118.42971999999999,
LAUSD,CANYON ELEMENTARY SCHOOL,"421 ENTRADA DR, SANTA MONICA,   CA 90402",,,,exempt,Santa Monica,Los Angeles County,34.033663,-118.508908,
LAUSD,CAPISTRANO ELEMENTARY,"8118 CAPISTRANO AVE, WEST HILLS, CA 91304",,,,exempt,LA,Los Angeles County,34.217192,-118.616961,
LAUSD,CARLOS SANTANA ELEMENTARY (FRM: VRES #12),"9301 N COLUMBUS AVE, NORTH HILLS, CA 91343",,,,exempt,LA,Los Angeles County,34.239259000000004,-118.46484299999999,
LAUSD,CARLSON HOSPITAL HOME SCHOOL,"10952 WHIPPLE ST, N HOLLYWOOD,   CA 91602",,,,exempt,LA,Los Angeles County,34.147985999999996,-118.36883,
LAUSD,CARNEGIE MIDDLE SCHOOL,"21820 BONITA ST, CARSON,         CA 90745",,,,exempt,Carson,Los Angeles County,33.83048,-118.259222,
LAUSD,CAROLDALE LEARNING COMMUNITY,"22424 CAROLDALE AVE, CARSON,         CA 90745",,,,exempt,Carson,Los Angeles County,33.822232,-118.283818,
LAUSD,CARPENTER ELEMENTARY,"3909 CARPENTER AVE, STUDIO CITY,    CA 91604",,,,exempt,LA,Los Angeles County,34.140764000000004,-118.392177,
LAUSD,CARSON ELEMENTARY,"161 E CARSON ST, CARSON,         CA 90745",,,,exempt,Carson,Los Angeles County,33.831738,-118.21594499999999,
LAUSD,CARSON GORE ACADEMY OF ENVIRONMENTAL STUDIES (FRM:CRES #13),"3200 W WASHINGTON BLVD, LOS ANGELES, CA 90018",,,,exempt,LA,Los Angeles County,34.039825,-118.319034,
LAUSD,CARSON SENIOR HIGH,"22328 S MAIN ST, CARSON,         CA 90745",,,,exempt,Carson,Los Angeles County,33.857968,-118.276641,
LAUSD,CARTHAY CENTER ELEMENTARY SCHOOL,"6351 W OLYMPIC BLVD, LOS ANGELES,    CA 90048",,,,exempt,LA,Los Angeles County,34.058892,-118.36931499999999,
LAUSD,CARVER MIDDLE SCHOOL,"4410 MC KINLEY AVE, LOS ANGELES,    CA 90011",,,,exempt,Los Angeles,Los Angeles County,34.003133,-118.2621,
LAUSD,CASTELAR EARLY EDUCATION CENTER,"840 YALE ST, LOS ANGELES,    CA 90012",,,,exempt,LA,Los Angeles County,34.063869,-118.240352,
LAUSD,CASTELAR ELEMENTARY,"840 YALE ST, LOS ANGELES,    CA 90012",,,,exempt,LA,Los Angeles County,34.063869,-118.240352,
LAUSD,CASTLE HEIGHTS ELEMENTARY,"9755 CATTARAUGUS AVE, LOS ANGELES,    CA 90034",,,,exempt,LA,Los Angeles County,34.037245,-118.39767900000001,
LAUSD,CASTLEBAY LANE ELEMENTARY,"19010 CASTLEBAY LN, NORTHRIDGE, CA 91326",,,,exempt,Los Angeles,Los Angeles County,34.293679,-118.54751499999999,
LAUSD,CATSKILL ELEMENTARY,"23536 CATSKILL AVE, CARSON,         CA 90745",,,,exempt,Carson,Los Angeles County,33.812408000000005,-118.27118,
LAUSD,CELERITY CARDINAL ES @ SUN VALLEY MS,"7330 BAKMAN AVE, SUN VALLEY,     CA 91352",,,,exempt,LA,Los Angeles County,34.203613,-118.377792,
LAUSD,CELERITY OCTAVIA @ IRVING MS,"3010 ESTARA AVE, LOS ANGELES,    CA 90065",,,,exempt,LA,Los Angeles County,34.116863,-118.23988899999999,
LAUSD,CELERITY PALMATI @ ROMER ES,"6501 LAUREL CANYON BLVD, N HOLLYWOOD, CA 91606",,,,exempt,LA,Los Angeles County,34.188612,-118.39661000000001,
LAUSD,CELERITY TROIKA @ BURBANK MS,"6460 N FIGUEROA ST, LOS ANGELES,    CA 90042",,,,exempt,LA,Los Angeles County,34.119698,-118.183269,
LAUSD,CENTRAL ALTERNATIVE EDUCATION WORK CENTER,"211 W 17TH ST, LOS ANGELES,    CA 90015",,,,exempt,LA,Los Angeles County,34.034162,-118.265253,
LAUSD,CENTRAL CONTINUATION HIGH - CENTRAL OFFICE,"716 E 14TH ST 2ND FL, LOS ANGELES,    CA 90021",,,,exempt,Los Angeles,Los Angeles County,34.031813,-118.25393600000001,
LAUSD,CENTRAL REGION ES #21,"1041 E 46TH STREET, LOS ANGELES, CA 90011",,,,exempt,LA,Los Angeles County,34.001903999999996,-118.25730300000001,
LAUSD,CENTURY PARK ELEMENTARY,"10935 S SPINNING AVE, INGLEWOOD,      CA 90303",,,,exempt,Inglewood,Los Angeles County,33.937277,-118.318933,
LAUSD,CESAR CHAVEZ ELEMENTARY SCHOOL,"5243 OAKLAND ST, LOS ANGELES, CA 90032",,,,exempt,LA,Los Angeles County,34.088555,-118.167608,
LAUSD,CESAR E. CHAVEZ LEARNING ACADEMY (FRM: VRHS #5),"1001 ARROYO AVE, SAN FERNANDO, CA 91340",,,,exempt,San Fernando,Los Angeles County,34.288514,-118.42101100000001,
LAUSD,CHANDLER ELEMENTARY,"14030 WEDDINGTON ST, VAN NUYS,       CA 91401",,,,exempt,LA,Los Angeles County,34.166594,-118.438424,
LAUSD,CHAPMAN ELEMENTARY,"1947 MARINE AVE, GARDENA,        CA 90249",,,,exempt,Gardena,Los Angeles County,33.894765,-118.31238799999998,
LAUSD,CHARLES H KIM ELEMENTARY SCHOOL,"225 S OXFORD AVE, LOS ANGELES, CA 90004",,,,exempt,LA,Los Angeles County,34.070549,-118.308006,
LAUSD,CHARLES WHITE ELEMENTARY SCHOOL,"2401 WILSHIRE BLVD, LOS ANGELES,    CA 90057",,,,exempt,LA,Los Angeles County,34.060253,-118.279393,
LAUSD,CHARNOCK ELEMENTARY,"11133 CHARNOCK RD, LOS ANGELES,    CA 90034",,,,exempt,LA,Los Angeles County,34.017169,-118.41986999999999,
LAUSD,CHARTER HIGH SCHOOL OF ARTS-MULTIMEDIA & PERFORMING,"6952 VAN NUYS BLVD, VAN NUYS, CA 91405",,,,exempt,LA,Los Angeles County,34.196788,-118.448623,
LAUSD,CHASE EARLY EDUCTION CENTER,"8635 N COLBATH AVE, PANORAMA CITY, CA 91402",,,,exempt,LA,Los Angeles County,34.228142,-118.439609,
LAUSD,CHASE ELEMENTARY,"14041 CHASE ST, PANORAMA CITY,  CA 91402",,,,exempt,LA,Los Angeles County,34.226366,-118.439678,
LAUSD,CHATSWORTH PARK ELEMENTARY,"22005 DEVONSHIRE ST, CHATSWORTH, CA 91311",,,,exempt,LA,Los Angeles County,34.257249,-118.58928700000001,
LAUSD,CHATSWORTH SENIOR HIGH,"10027 LURLINE AVE, CHATSWORTH, CA 91311",,,,exempt,LA,Los Angeles County,34.252346,-118.58428400000001,
LAUSD,CHEREMOYA ELEMENTARY,"6017 FRANKLIN AVE, LOS ANGELES,    CA 90028",,,,exempt,LA,Los Angeles County,34.105333,-118.320748,
LAUSD,CHEREMOYA STATE PRESCHOOL,"6017 FRANKLIN AVE, LOS ANGELES, CA 90028",,,,exempt,LA,Los Angeles County,34.105333,-118.320748,
LAUSD,CHIME CHARTER MIDDLE SCHOOL,"19722 COLLIER ST, WOODLAND HILLS, CA 91364",,,,exempt,Los Angeles,Los Angeles County,34.165538,-118.56299399999999,
LAUSD,CHIME CHARTER SCHOOL,"19722 COLLIER STREET, WOODLAND HILLS, CA 91364",,,,exempt,Los Angeles,Los Angeles County,34.165538,-118.56299399999999,
LAUSD,CHIME CHARTER SCHOOL (MAXIIMO LOC 3185),"19722 COLLIER STREET, WOODLAND HILLS, CA 91364",,,,exempt,Los Angeles,Los Angeles County,34.165538,-118.56299399999999,
LAUSD,CIENEGA ELEMENTARY,"5611 S ORANGE DR, LOS ANGELES,    CA 90016",,,,exempt,LA,Los Angeles County,34.032990999999996,-118.352791,
LAUSD,CIMARRON ELEMENTARY,"11559 CIMARRON AVE, HAWTHORNE,      CA 90250",,,,exempt,Hawthorne,Los Angeles County,33.928894,-118.31521299999999,
LAUSD,CITIZENS OF THE WORLD ES 2 @ MICHELTORENA ES,"1511 MICHELTORENA ST, LOS ANGELES,    CA 90026",,,,exempt,LA,Los Angeles County,34.088718,-118.27519099999999,
LAUSD,CITIZENS OF THE WORLD ES HOLLYWOOD @ LE CONTE MS,"1316 N BRONSON AVE, LOS ANGELES, CA 90028",,,,exempt,LA,Los Angeles County,34.094722999999995,-118.317842,
LAUSD,CITY OF ANGELS INDEPENDENT STUDIES,"1449 S. SAN PEDRO ST., LOS ANGELES, CA 90015",,,,exempt,LA,Los Angeles County,33.97354,-118.269549,
LAUSD,CITY TERRACE ELEMENTARY,"4350 CITY TERRACE DR, LOS ANGELES, CA 90063",,,,exempt,,Los Angeles County,34.057633,-118.17251599999999,
LAUSD,CIVITAS SCHOOL OF LEADERSHIP,"1201 W COLTON STREET, LOS ANGELES, CA 90026",,,,exempt,Los Angeles,Los Angeles County,34.062273,-118.25436200000001,
LAUSD,CLEAR CREEK OUTDOOR EDUCATION CENTER,"5607 CAPISTRANO AVE, WOODLAND HILLS, CA 91367",,,,exempt,LA,Los Angeles County,34.172098999999996,-118.616867,
LAUSD,CLEVELAND EARLY EDUCATION CENTER,"19031 W. STRATHERN ST, RESEDA, CA 91335",,,,exempt,LA,Los Angeles County,34.215713,-118.54699099999999,
LAUSD,CLEVELAND SENIOR HIGH,"8140 VANALDEN AVE, RESEDA, CA 91335",,,,exempt,LA,Los Angeles County,34.218206,-118.549077,
LAUSD,CLEVELAND SENIOR HIGH EARLY EDUCATION CENTER,"19031 W. STRATHERN ST, RESEDA, CA 91335",,,,exempt,LA,Los Angeles County,34.215713,-118.54699099999999,
LAUSD,CLIFFORD ELEMENTARY,"2150 DUANE ST, LOS ANGELES,    CA 90039",,,,exempt,LA,Los Angeles County,34.089259000000006,-118.25781599999999,
LAUSD,CLOVER ELEMENTARY,"11020 CLOVER AVE, LOS ANGELES,    CA 90034",,,,exempt,LA,Los Angeles County,34.027133,-118.42601100000002,
LAUSD,COEUR D'ALENE ELEMENTARY,"810 COEUR D'ALENE AVE, VENICE,         CA 90291",,,,exempt,Los Angeles,Los Angeles County,33.989393,-118.453406,
LAUSD,COHASSET ELEMENTARY ELEMENTARY,"15810 SATICOY ST, LAKE BALBOA, CA 91406",,,,exempt,Los Angeles,Los Angeles County,34.207947999999995,-118.47809,
LAUSD,COLDWATER CANYON ELEMENTARY,"6850 COLDWATER CANYON AVE, N HOLLYWOOD,   CA 91605",,,,exempt,LA,Los Angeles County,34.19488,-118.41368999999999,
LAUSD,COLFAX ELEMENTARY,"11724 ADDISON ST, N HOLLYWOOD,   CA 91607",,,,exempt,LA,Los Angeles County,34.161257,-118.38337299999999,
LAUSD,COLLINS ST ELEMENTARY SCHOOL - CLOSED SITE,"5717 RUDNICK AVE, WOODLAND HILLS, CA 91367",,,,exempt,LA,Los Angeles County,34.174558000000005,-118.612205,
LAUSD,COLUMBUS AVENUE ELEMENTARY,"6700 COLUMBUS AVENUE, VAN NUYS, CA 91405",,,,exempt,LA,Los Angeles County,34.192227,-118.463903,
LAUSD,COLUMBUS MIDDLE SCHOOL,"22250 ELKWOOD ST, CANOGA PARK,    CA 91304",,,,exempt,LA,Los Angeles County,34.212720000000004,-118.612039,
LAUSD,COMMONWEALTH ELEMENTARY,"215 S COMMONWEALTH AVE, LOS ANGELES,    CA 90004",,,,exempt,LA,Los Angeles County,34.07014,-118.28581799999999,
LAUSD,COMMUNITY CHARTER EARLY COLLEGE HIGH SCHOOL,"11500 ELDRIDGE AVENUE, LAKEVIEW TERR, CA 91342",,,,exempt,Los Angeles,Los Angeles County,34.280097,-118.382379,
LAUSD,COMMUNITY CHARTER MIDDLE SCHOOL,"11500 ELDRIDGE AVENUE, LAKEVIEW TERR, CA 91342",,,,exempt,Los Angeles,Los Angeles County,34.280097,-118.382379,
LAUSD,COMMUNITY HARVEST CHARTER,"5300 SEPULVEDA BLVD, VAN NUYS, CA 91411",,,,exempt,LA,Los Angeles County,34.167411,-118.46603,
LAUSD,COMMUNITY MAGNET SCHOOL,"11301 BELLAGIO ROAD, LOS ANGELES, CA 90049",,,,exempt,LA,Los Angeles County,34.081646,-118.46238400000001,
LAUSD,COMPTON EARLY EDUCATION CENTER,"1512 E 104TH ST, LOS ANGELES,    CA 90002",,,,exempt,LA,Los Angeles County,33.94142,-118.24839399999999,
LAUSD,COMPTON ELEMENTARY,"1515 E 104TH ST, LOS ANGELES,    CA 90002",,,,exempt,LA,Los Angeles County,33.941201,-118.24704299999999,
LAUSD,CORONA AVE.  ELEMENTARY SCHOOL,"3825 BELL AVE, BELL,           CA 90201",,,,exempt,,Los Angeles County,33.97562,-118.197934,
LAUSD,COUGHLIN ES STATE PRE-SCHOOL,"11035 BORDEN AVENUE, PACOIMA, CA 91331",,,,exempt,LA,Los Angeles County,34.270368,-118.40248700000001,
LAUSD,COWAN ELEMENTARY,"7615 COWAN AVE, LOS ANGELES,    CA 90045",,,,exempt,LA,Los Angeles County,33.972959,-118.40493899999998,
LAUSD,CRENSHAW ARTS - TECHNOLOGY HIGH SCHOOL @ AUDUBON MS,"4120 11TH AVENUE, LOS ANGELES, CA 90008",,,,exempt,LA,Los Angeles County,34.009640000000005,-118.32948700000001,
LAUSD,CRENSHAW SENIOR HIGH SCHOOL,"5010 11TH AVE, LOS ANGELES,    CA 90043",,,,exempt,LA,Los Angeles County,33.998016,-118.32926499999999,
LAUSD,CRENSHAW-WASHINGTON AEWC,"3741 STOCKER ST, ROOM 110, LOS ANGELES, CA 90008",,,,exempt,Los Angeles,Los Angeles County,34.006499,-118.33866200000001,
LAUSD,CRESCENT HEIGHTS EARLY EDUCATION CENTER,"1700 S ALVIRA ST, LOS ANGELES,    CA 90035",,,,exempt,Los Angeles,Los Angeles County,34.046828000000005,-118.3749,
LAUSD,CRESCENT HEIGHTS ES LANGUAGE ARTS/SOCIAL JUSTICE MAG,"1661 S CRESCENT HTS BLVD, LOS ANGELES,    CA 90035",,,,exempt,LA,Los Angeles County,34.047328,-118.37365700000001,
LAUSD,CRESTWOOD ELEMENTARY,"1946 W CRESTWOOD ST, RANCHO PALOS V, CA 90275",,,,exempt,Rancho Palos Verdes,Los Angeles County,33.749528000000005,-118.31264499999999,
LAUSD,CROWN PREP ACADEMY MS @ 24TH ST ES,"2055 W 24TH ST, LOS ANGELES,    CA 90018",,,,exempt,LA,Los Angeles County,34.034639,-118.310758,
LAUSD,CURTISS MIDDLE SCHOOL,"1254 E HELMICK ST, CARSON,         CA 90746",,,,exempt,Carson,Los Angeles County,33.851583000000005,-118.24934099999999,
LAUSD,DACOTAH EARLY EDUCATION CENTER,"3142 LYDIA DR, LOS ANGELES,    CA 90023",,,,exempt,LA,Los Angeles County,34.022883,-118.21021699999999,
LAUSD,DAHLIA HEIGHTS ELEMENTARY,"5063 FLORISTAN AVE, LOS ANGELES,    CA 90041",,,,exempt,LA,Los Angeles County,34.138638,-118.198877,
LAUSD,DANA MIDDLE SCHOOL,"1501 S CABRILLO AVE, SAN PEDRO,      CA 90731",,,,exempt,LA,Los Angeles County,33.730493,-118.294669,
LAUSD,DANIEL PEARL JOURNALISM/COMMUNICATIONS MAGNET,"6649 BALBOA BLVD, LAKE BALBOA, CA 91406",,,,exempt,Los Angeles,Los Angeles County,34.191306,-118.50188200000001,
LAUSD,DANNY J BAKEWELL SR PRIMARY CENTER,"8261 S BARING CROSS ST, LOS ANGELES, CA 90044",,,,exempt,Los Angeles,Los Angeles County,33.959995,-118.28935600000001,
LAUSD,DANUBE ELEMENTARY,"11220 DANUBE AVE, GRANADA HILLS,  CA 91344",,,,exempt,LA,Los Angeles County,34.274378000000006,-118.474814,
LAUSD,DARBY ELEMENTARY,"10818 DARBY AVE, NORTHRIDGE,     CA 91326",,,,exempt,LA,Los Angeles County,34.242430999999996,-118.53378700000002,
LAUSD,DAYTON EARLY EDUCATION CENTER,"3919 CLINTON ST, LOS ANGELES,    CA 90004",,,,exempt,LA,Los Angeles County,34.081857,-118.287127,
LAUSD,DAYTON HEIGHTS ELEMENTARY SCHOOL,"607 N WESTMORELAND AVE, LOS ANGELES,    CA 90004",,,,exempt,LA,Los Angeles County,34.081994,-118.288104,
LAUSD,DEARBORN ELEMENTARY,"9240 WISH AVE, NORTHRIDGE,     CA 91325",,,,exempt,LA,Los Angeles County,34.238706,-118.508315,
LAUSD,DEL AMO ELEMENTARY,"21228 WATER ST, CARSON,         CA 90745",,,,exempt,Carson,Los Angeles County,33.836493,-118.24083200000001,
LAUSD,DEL REY TRI-C CONTINUATION HIGH,"5701 PARK HILL DR, LOS ANGELES,    CA 90045",,,,exempt,LA,Los Angeles County,33.959339,-118.426377,
LAUSD,DELEVAN ELEMENTARY SCHOOL,"4168 W AVE 42, LOS ANGELES,    CA 90065",,,,exempt,LA,Los Angeles County,34.126928,-118.22711699999999,
LAUSD,DENA ELEMENTARY,"1314 DACOTAH ST, LOS ANGELES,    CA 90023",,,,exempt,Los Angeles,Los Angeles County,34.022107,-118.211225,
LAUSD,DENKER ELEMENTARY,"1620 W 162ND ST, GARDENA,        CA 90247",,,,exempt,Gardena,Los Angeles County,33.883695,-118.304775,
LAUSD,DEVONSHIRE ES (ADMIN SITE),"10045 JUMILLA AVENUE, CHATSWORTH, CA 91311",,,,exempt,LA,Los Angeles County,34.253137,-118.56345300000001,
LAUSD,DIXIE CANYON ELEMENTARY,"4220 DIXIE CANYON AVE, SHERMAN OAKS,   CA 91423",,,,exempt,LA,Los Angeles County,34.147143,-118.424776,
LAUSD,DODSON MIDDLE SCHOOL,"28014 MONTEREINA DR, RANCHO PALOS V, CA 90275",,,,exempt,Rancho Palos Verdes,Los Angeles County,33.766016,-118.315592,
LAUSD,DOLORES EARLY EDUCATION CENTR,"22309 CATSKILL AVE, CARSON,         CA 90745",,,,exempt,Carson,Los Angeles County,33.824112,-118.27131100000001,
LAUSD,DOLORES ELEMENTARY,"22526 DOLORES ST, CARSON,         CA 90745",,,,exempt,Carson,Los Angeles County,33.821769,-118.272251,
LAUSD,DOLORES HUERTA ELEMENTARY (FRM: CRES #18),"260 E 31ST ST, LOS ANGELES, CA 90011",,,,exempt,LA,Los Angeles County,34.020167,-118.269443,
LAUSD,DOMINGUEZ ELEMENTARY,"21250 SANTA FE AVE, CARSON, CA 90810",,,,exempt,Torrance,Los Angeles County,33.820213,-118.31173999999999,
LAUSD,DORRIS PLACE ELEMENTARY,"2225 DORRIS PL, LOS ANGELES,    CA 90031",,,,exempt,LA,Los Angeles County,34.090744,-118.23787800000001,
LAUSD,DORSEY HIGH SCHOOL,"3537 FARMDALE AVE, LOS ANGELES,    CA 90016",,,,exempt,LA,Los Angeles County,34.022925,-118.34593500000001,
LAUSD,DOWNTOWN BUSINESS HIGH SCHOOL,"1081 W TEMPLE ST, LOS ANGELES,    CA 90012",,,,exempt,LA,Los Angeles County,34.062907,-118.25098899999999,
LAUSD,DOYLE CAREER & TRANSITION CENTER (FRM: SELLERY SPECIAL EDUCATION CENTER),"15805 S BUDLONG AVE, GARDENA,        CA 90247",,,,exempt,Gardena,Los Angeles County,33.887673,-118.295979,
LAUSD,DR. JAMES EDWARD JONES PRIMARY CENTER,"1017 W 47TH STREET, LOS ANGELES, CA 90037",,,,exempt,LA,Los Angeles County,34.000716,-118.291894,
LAUSD,DR.. MAYA ANGELOU COMMUNITY HS :  GLOBAL ISSUES ACADEMY (FRM: SOCIAL JUSTICE SCHOOLS - CRHS #16A),"300 E 53RD ST, LOS ANGELES, CA 90011",,,,exempt,LA,Los Angeles County,33.994167,-118.269976,
LAUSD,DR.. MAYA ANGELOU COMMUNITY HS : FINE ARTS ACADEMY (FRM: SOCIAL JUSTICE SCHOOLS - CRHS #16B)),"300 E 53RD ST, LOS ANGELES, CA 90011",,,,exempt,LA,Los Angeles County,33.994167,-118.269976,
LAUSD,DREW MIDDLE SCHOOL,"8511 COMPTON AVE, LOS ANGELES,    CA 90001",,,,exempt,,Los Angeles County,33.961063,-118.247754,
LAUSD,DYER ELEMENTARY,"14500 DYER ST, SYLMAR,         CA 91342",,,,exempt,LA,Los Angeles County,34.300231,-118.44808700000002,
LAUSD,EAGLE ROCK ELEMENTARY,"2057 FAIR PARK AVE, LOS ANGELES,    CA 90041",,,,exempt,LA,Los Angeles County,34.135627,-118.212124,
LAUSD,EAGLE ROCK SENIOR HIGH,"1750 YOSEMITE DR, LOS ANGELES,    CA 90041",,,,exempt,LA,Los Angeles County,34.133305,-118.20604499999999,
LAUSD,EARLY COLLEGE ACADEMY OF LEADERS & SCHOLARS (eCALS) @ SANDRA SOTOMAYOR LEARNING ACADEMY (FMR:CRHS #13D),"2050 NORTH SAN FERNANDO RD, LOS ANGELES, CA 90065",,,,exempt,Los Angeles,Los Angeles County,34.10226,-118.237398,
LAUSD,"EAST LA COMM COLLEGE,","1301 BROOKLYN AVE, MONTEREY PARK,  CA 91754",,,,exempt,Monterey Park,Los Angeles County,34.041426,-118.15001399999998,
LAUSD,EAST LA REGIONAL SCIENCE CENTER,"961 S EUCLID AVE, LOS ANGELES,    CA 90023",,,,exempt,Pasadena,Los Angeles County,34.129092,-118.142859,
LAUSD,EAST LOS ANGELES OCCUPATIONAL ALTERNATIVE EDUC WOR,"2100 MARENGO ST, LOS ANGELES,    CA 90033",,,,exempt,LA,Los Angeles County,34.0559,-118.20596200000001,
LAUSD,EAST LOS ANGELES OCCUPATIONAL CENTER,"2100 MARENGO ST, LOS ANGELES,    CA 90033",,,,exempt,LA,Los Angeles County,34.0559,-118.20596200000001,
LAUSD,EAST LOS ANGELES SKILL CENTER  (SOTO ANNEX),"3921 SELIG PL, LOS ANGELES,    CA 90031",,,,exempt,LA,Los Angeles County,34.068337,-118.19965800000001,
LAUSD,EAST LOS ANGELES SKILLS CENTER ALTERNATIVE EDUCATION,"3921 SELIG PL, LOS ANGELES,    CA 90033",,,,exempt,LA,Los Angeles County,34.068337,-118.19965800000001,
LAUSD,EAST VALLEY SENIOR HIGH,"5525 VINELAND AVE, N HOLLYWOOD, CA 91601",,,,exempt,LA,Los Angeles County,34.170584000000005,-118.37038100000001,
LAUSD,EASTMAN EARLY EDUCATION CENTER,"1266 S GAGE AVE, LOS ANGELES, CA 90023",,,,exempt,,Los Angeles County,34.017365000000005,-118.184874,
LAUSD,EASTMAN ELEMENTARY,"4112 E OLYMPIC BL, LOS ANGELES, CA 90023",,,,exempt,Los Angeles,Los Angeles County,34.017241,-118.184719,
LAUSD,ED SUPP CNTR-REG D/H,"15530 HESBY, ENCINO, CA 91436",,,,exempt,LA,Los Angeles County,34.162038,-118.47316599999999,
LAUSD,ED SUPP CNTR-REG E/F,"6520 NEWCASTLE AVE, RESEDA, CA  91335",,,,exempt,LA,Los Angeles County,34.18919,-118.52519099999999,
LAUSD,EDISON MIDDLE SCHOOL,"6500 HOOPER AVE, LOS ANGELES,    CA 90001",,,,exempt,,Los Angeles County,33.980688,-118.251939,
LAUSD,EDWARD R. ROYBAL LEARNING CENTER,"1200 W COLTON STREET, LOS ANGELES, CA 90026",,,,exempt,LA,Los Angeles County,34.061997999999996,-118.254678,
LAUSD,EL CAMINO REAL CHARTER SENIOR HIGH,"5440 VALLEY CIRCLE BLVD, WOODLAND HILLS, CA 91367",,,,exempt,LA,Los Angeles County,34.169763,-118.643704,
LAUSD,EL CAMINO REAL COMMUNITY ADULT SCHOOL @ COLUMBUS MS,"21213 VANOWEN ST, CANOGA PARK, CA 91303-2354",,,,exempt,LA,Los Angeles County,34.193849,-118.594509,
LAUSD,EL DORADO ELEMENTARY,"12749 EL DORADO AVE, SYLMAR,         CA 91342",,,,exempt,LA,Los Angeles County,34.301590999999995,-118.46587,
LAUSD,EL ORO ELEMENTARY,"12230 EL ORO WAY, GRANADA HILLS,  CA 91344",,,,exempt,LA,Los Angeles County,34.292877000000004,-118.505192,
LAUSD,EL SERENO EARLY EDUCATION CENTER,"3802 PUEBLO AVE, LOS ANGELES,    CA 90032",,,,exempt,LA,Los Angeles County,34.089708,-118.17603899999999,
LAUSD,EL SERENO ELEMENTARY,"3838 ROSEMEAD AVE, LOS ANGELES,    CA 90032",,,,exempt,LA,Los Angeles County,34.089744,-118.17738500000002,
LAUSD,EL SERENO MIDDLE SCHOOL,"2839 N EASTERN AVE, LOS ANGELES,    CA 90032",,,,exempt,LA,Los Angeles County,34.079395,-118.178126,
LAUSD,EL SERENO STATE PRESCHOOL,"3838 ROSEMEAD AVE, LOS ANGELES,    CA 90032",,,,exempt,LA,Los Angeles County,34.089744,-118.17738500000002,
LAUSD,ELEMENTARY CDS - BERKELEY,"1814 BERKELEY AVE, LOS ANGELES, CA 90026",,,,exempt,LA,Los Angeles County,34.08206,-118.257268,
LAUSD,ELIZABETH LEARNING CENTER,"4811 ELIZABETH ST, CUDAHY,         CA 90201",,,,exempt,,Los Angeles County,33.963043,-118.183725,
LAUSD,ELIZABETH LEARNING CENTER SPS,"4811 ELIZABETH STREET, CUDAHY,  CA 90201",,,,exempt,,Los Angeles County,33.963043,-118.183725,
LAUSD,ELLEN OCHOA L.C SPS,"7326 SO. WILCOX AVE., CUDAHY, CA 90201",,,,exempt,Cudahy,Los Angeles County,33.96821,-118.177973,
LAUSD,ELLEN OCHOA LEARNING CENTER (FRM: BELL NEW ES #3),"5027 LIVE OAK STREET, CUDAHY, CA 90201",,,,exempt,,Los Angeles County,33.967024,-118.17795,
LAUSD,ELYSIAN HEIGHTS ELEMENTARY SCHOOL,"1562 BAXTER ST, LOS ANGELES,    CA 90026",,,,exempt,LA,Los Angeles County,34.089083,-118.24954299999999,
LAUSD,EMELITA ELEMENTARY,"17931 HATTERAS ST, ENCINO,         CA 91316",,,,exempt,LA,Los Angeles County,34.176605,-118.52306899999999,
LAUSD,EMERSON ADULT SCHOOL / WESTCHESTER WASH. CAS,"8810 EMERSON AVE, LOS ANGELES,    CA 90045",,,,exempt,LA,Los Angeles County,33.956754,-118.40383999999999,
LAUSD,EMERSON MIDDLE SCHOOL,"1650 SELBY AVE, LOS ANGELES,    CA 90024",,,,exempt,LA,Los Angeles County,34.053578,-118.436447,
LAUSD,ENADIA ELEMENTARY,"22944 ENADIA WAY, WEST HILLS, CA 91307",,,,exempt,LA,Los Angeles County,34.199974,-118.62646200000002,
LAUSD,ENCINO ELEMENTARY,"16941 ADDISON ST, ENCINO, CA 91316",,,,exempt,LA,Los Angeles County,34.161786,-118.501552,
LAUSD,ENDEAVOR COLLEGE PREP @ ALBION ES,"322 S AVE 18, LOS ANGELES,    CA 90031",,,,exempt,LA,Los Angeles County,34.069340000000004,-118.22086599999999,
LAUSD,ERWIN ELEMENTARY,"13400 ERWIN ST, VAN NUYS,       CA 91401",,,,exempt,LA,Los Angeles County,34.182959999999994,-118.423878,
LAUSD,ESHELMAN AVE. ELEMENTARY SCHOOL,"25902 ESHELMAN AVE, LOMITA,         CA 90717",,,,exempt,Lomita,Los Angeles County,33.787616,-118.31443,
LAUSD,ESPERANZA ELEMENTARY,"680 LITTLE ST, LOS ANGELES,  CA 90017",,,,exempt,LA,Los Angeles County,34.054926,-118.27283500000001,
LAUSD,ESTEBAN E. TORRES HS #1 - EAST LOS ANGELES PERFORMING ARTS ACADEMY (FRM:ELAHS #2),"4211 DOZIER ST, LOS ANGELES, CA 90063",,,,exempt,,Los Angeles County,34.041716,-118.17554299999999,
LAUSD,ESTEBAN E. TORRES HS #2 - EAST LOS ANGELES RENAISSANCE ACADEMY (FRM:ELAHS #2),"4211 DOZIER ST, LOS ANGELES, CA 90063",,,,exempt,,Los Angeles County,34.041716,-118.17554299999999,
LAUSD,ESTEBAN E. TORRES HS #3 - ENGINEERING AND TECHNOLOGY ACADEMY (FRM:ELAHS #2),"4211 DOZIER ST, LOS ANGELES, CA 90063",,,,exempt,,Los Angeles County,34.041716,-118.17554299999999,
LAUSD,ESTEBAN E. TORRES HS #4 - HUMANITAS VISUAL ARTS AND TECHNOLOGY ACADEMY (FRM:ELAHS #2),"4211 DOZIER ST, LOS ANGELES, CA 90063",,,,exempt,,Los Angeles County,34.041716,-118.17554299999999,
LAUSD,ESTEBAN E. TORRES HS #5 - SOCIAL JUSTICE LEADERSHIP ACADEMY (FRM:ELAHS #2),"4211 DOZIER ST, LOS ANGELES, CA 90063",,,,exempt,,Los Angeles County,34.041716,-118.17554299999999,
LAUSD,ESTRELLA ES (FMR: CENTRAL REGION ELEMENTARY SCHOOL #16 ),"120 E 57TH ST, LOS ANGELES, CA 90011",,,,exempt,LA,Los Angeles County,33.990583,-118.27343,
LAUSD,EUCLID ELEMENTARY,"806 EUCLID AVE, LOS ANGELES,    CA 90023",,,,exempt,LA,Los Angeles County,34.031306,-118.206828,
LAUSD,EVANS COMMUNITY ADULT SCHOOL,"717 N FIGUEROA ST, LOS ANGELES,    CA 90012",,,,exempt,LA,Los Angeles County,34.063641,-118.24561000000001,
LAUSD,EVERGREEN AVE ES,"2730 GANAHL ST, LOS ANGELES,    CA 90033",,,,exempt,LA,Los Angeles County,34.052578999999994,-118.19803300000001,
LAUSD,EVERGREEN EARLY EDUCATION CENTER,"1027 N EVERGREEN AVE, LOS ANGELES,    CA 90033",,,,exempt,LA,Los Angeles County,34.051127,-118.196448,
LAUSD,EXTERA PUBLIC ES (2ND SITE) @ 2ND ST ES,"1942 E SECOND ST, LOS ANGELES,    CA 90033",,,,exempt,Los Angeles,Los Angeles County,34.044846,-118.216706,
LAUSD,EXTERA PUBLIC ES @ BREED ES,"2226 E THIRD ST, LOS ANGELES,    CA 90033",,,,exempt,Los Angeles,Los Angeles County,34.04262,-118.21301899999999,
LAUSD,F&G MENDEZ LEARNING CENTER-1A SCHOOL OF MATH & SCIENCE (FRMR: ELASH #1),"1200 PLAZA DEL SOL, LOS ANGELES, CA 90033",,,,exempt,LA,Los Angeles County,34.048716,-118.22541299999999,
LAUSD,F&G MENDEZ LEARNING CENTER-1B SCHOOL OF ENGINEERING & TECHNOLOGY (FRMR: EAST LA NEW SH #1),"1200 PLAZA DEL SOL, LOS ANGELES, CA 90033",,,,exempt,LA,Los Angeles County,34.048716,-118.22541299999999,
LAUSD,FAIR EARLY EDUCATION CENTER,"11300 KITTRIDGE ST, N HOLLYWOOD,    CA 91606",,,,exempt,LA,Los Angeles County,34.19023,-118.37701299999999,
LAUSD,FAIR ELEMENTARY,"6501 FAIR AVE, N HOLLYWOOD,   CA 91606",,,,exempt,LA,Los Angeles County,34.188516,-118.374779,
LAUSD,FAIRBURN ELEMENTARY,"1403 FAIRBURN AVE, LOS ANGELES,    CA 90024",,,,exempt,LA,Los Angeles County,34.059519,-118.431114,
LAUSD,FAIRFAX SENIOR HIGH,"7850 MELROSE AVE, LOS ANGELES,    CA 90046",,,,exempt,LA,Los Angeles County,34.083719,-118.36096200000001,
LAUSD,FARMDALE ELEMENTARY,"2660 RUTH SWIGGETT DRIVE, LOS ANGELES, CA 90032",,,,exempt,LA,Los Angeles County,34.077166999999996,-118.179794,
LAUSD,FERNANGELES ELEMENTARY,"12001 ART ST, SUN VALLEY,     CA 91352",,,,exempt,Los Angeles,Los Angeles County,34.231732,-118.39503,
LAUSD,FERNANGELES STATE PRE-SCHOOL,"12001 ART ST, SUN VALLEY,     CA 91352",,,,exempt,Los Angeles,Los Angeles County,34.231732,-118.39503,
LAUSD,FIGUEROA STREET ELEMENTARY SCHOOL,"510 W 111TH ST, LOS ANGELES,    CA 90044",,,,exempt,LA,Los Angeles County,33.934669,-118.28293500000001,
LAUSD,FISHBURN ELEMENTARY,"5701 FISHBURN AVE, MAYWOOD,        CA 90270",,,,exempt,,Los Angeles County,33.989409,-118.18981299999999,
LAUSD,FLEMING MIDDLE SCHOOL,"25425 WALNUT ST, LOMITA,         CA 90717",,,,exempt,Lomita,Los Angeles County,33.793161,-118.31193700000001,
LAUSD,FLETCHER DRIVE ELEMENTARY SCHOOL,"3350 FLETCHER DR, LOS ANGELES,    CA 90065",,,,exempt,LA,Los Angeles County,34.118278000000004,-118.240756,
LAUSD,FLORENCE ELEMENTARY,"7211 BELL AVE, LOS ANGELES,    CA 90001",,,,exempt,,Los Angeles County,33.974610999999996,-118.238153,
LAUSD,FLORENCE GRIFFITH JOYNER ELEMENTARY,"1963 E 103RD ST, LOS ANGELES,    CA 90002",,,,exempt,LA,Los Angeles County,33.943219,-118.237321,
LAUSD,FLOURNOY ELEMENTARY,"1630 E 111TH ST, LOS ANGELES,    CA 90059",,,,exempt,LA,Los Angeles County,33.934732000000004,-118.24505900000001,
LAUSD,FORT MAC ARTHUR CENTER SITE,"920 W 36TH ST, SAN PEDRO, CA 90731",,,,exempt,LA,Los Angeles County,33.714063,-118.29916200000001,
LAUSD,FOSHAY LEARNING CENTER,"3751 S HARVARD BLVD, LOS ANGELES,    CA 90018",,,,exempt,LA,Los Angeles County,34.019174,-118.30626799999999,
LAUSD,FRANCIS POLYTECHNIC SENIOR HIGH,"12431 ROSCOE BLVD, SUN VALLEY,     CA 91352",,,,exempt,LA,Los Angeles County,34.221613,-118.38991499999999,
LAUSD,FRANCISCO BRAVO MEDICAL MAGNET,"1200 N CORNWELL ST, LOS ANGELES,    CA 90033",,,,exempt,Los Angeles,Los Angeles County,34.057609,-118.203226,
LAUSD,FRANK DEL OLMO ELEMENTARY SCHOOL,"100 N NEW HAMPSHIRE AVE, LOS ANGELES, CA 90004",,,,exempt,LA,Los Angeles County,34.072852000000005,-118.292847,
LAUSD,FRANKLIN COMMUNITY ADULT SCHOOL,"820 N AVE 54, LOS ANGELES,    CA 90042",,,,exempt,LA,Los Angeles County,34.115592,-118.199027,
LAUSD,FRANKLIN COMMUNITY ADULT SCHOOL-AEWC,"820 NORTH AVENUE 54, LOS ANGELES, CA 90042",,,,exempt,LA,Los Angeles County,34.115592,-118.199027,
LAUSD,FRANKLIN ELEMENTARY,"1910 N COMMONWEALTH AVE, LOS ANGELES,    CA 90027",,,,exempt,LA,Los Angeles County,34.105798,-118.28513500000001,
LAUSD,FRANKLIN SENIOR HIGH,"820 N AVE 54, LOS ANGELES,    CA 90042",,,,exempt,LA,Los Angeles County,34.115592,-118.199027,
LAUSD,FREMONT ALTERNATIVE EDUCATION WORK CENTER,"501 E 66TH ST, LOS ANGELES, CA 90003",,,,exempt,LA,Los Angeles County,33.979787,-118.265869,
LAUSD,FREMONT COMMUNITY ADULT SCHOOL,"7676 S SAN PEDRO ST, LOS ANGELES,    CA 90003",,,,exempt,LA,Los Angeles County,33.970033,-118.26943100000001,
LAUSD,FREMONT SENIOR HIGH,"7676 S SAN PEDRO ST, LOS ANGELES,    CA 90003",,,,exempt,LA,Los Angeles County,33.970033,-118.26943100000001,
LAUSD,FRIDA KAHLO HIGH SCHOOL,"1924 SOUTH LOS ANGELES ST, LOS ANGELES, CA 90011",,,,exempt,LA,Los Angeles County,34.029725,-118.26397,
LAUSD,FRIEDMAN OCCUPATIONAL CENTER,"1646 S OLIVE ST, LOS ANGELES,    CA 90015",,,,exempt,LA,Los Angeles County,34.034804,-118.26558200000001,
LAUSD,FRIES AVE ELEMENTARY SCHOOL,"1301 FRIES AVE, WILMINGTON,     CA 90744",,,,exempt,Carson,Los Angeles County,33.802523,-118.26590300000001,
LAUSD,FROST MIDDLE SCHOOL,"12314 BRADFORD PL, GRANADA HILLS, CA 91344",,,,exempt,LA,Los Angeles County,34.294213,-118.51212199999999,
LAUSD,FT MACARTHUR AUTO SHOP,"920 W 36TH ST, SAN PEDRO, CA 90731",,,,exempt,LA,Los Angeles County,33.714063,-118.29916200000001,
LAUSD,FULLBRIGHT ELEMENTARY,"6940 FULLBRIGHT AVE, CANOGA PARK, CA 91306",,,,exempt,LA,Los Angeles County,34.222121,-118.576333,
LAUSD,FUTURO COLLEGE PREP ES @ DENA ES,"1314 DACOTAH ST, LOS ANGELES,    CA 90023",,,,exempt,Los Angeles,Los Angeles County,34.022107,-118.211225,
LAUSD,GABRIELLA CHARTER SCHOOL,"1435 LOGAN ST, LOS ANGELES, CA 90026",,,,exempt,LA,Los Angeles County,34.07912,-118.257328,
LAUSD,GAGE MIDDLE SCHOOL,"2880 E GAGE AVE, HUNTINGTON PARK,CA 90255",,,,exempt,,Los Angeles County,33.981665,-118.21885900000001,
LAUSD,GARDEN GROVE ELEMENTARY,"18141 VALERIO ST, RESEDA, CA 91335",,,,exempt,LA,Los Angeles County,34.204846999999994,-118.52891299999999,
LAUSD,GARDENA BUS GAR,"18421 S HOOVER ST, GARDENA,        CA 90428",,,,exempt,Gardena,Los Angeles County,33.866285999999995,-118.28618999999999,
LAUSD,GARDENA EARLY EDUCATION CENTER,"1350 WEST 177TH STREET, GARDENA, CA 90248",,,,exempt,Gardena,Los Angeles County,33.870461,-118.294799,
LAUSD,GARDENA ELEMENTARY,"647 W GARDENA BLVD, GARDENA,        CA 90247",,,,exempt,Gardena,Los Angeles County,33.881969,-118.309164,
LAUSD,GARDENA SENIOR HIGH,"1301 W 182ND ST, GARDENA,        CA 90248",,,,exempt,Gardena,Los Angeles County,33.866285999999995,-118.296903,
LAUSD,GARDNER ELEMENTARY,"7450 HAWTHORN AVE, LOS ANGELES,    CA 90046",,,,exempt,LA,Los Angeles County,34.099748,-118.35236599999999,
LAUSD,"GARFIELD COMMUNITY ADULT SATELLITE @ 5137 MARIANNA ES, IN PARKING LOT","4343 NEW YORK STREET, LOS ANGELES, CA 90022",,,,exempt,,Los Angeles County,34.039727,-118.173033,
LAUSD,GARFIELD COMMUNITY ADULT SATELLITE @ ACROSS FROM BELVEDERE ES,"4343 NEW YORK STREET, LOS ANGELES, CA 90022",,,,exempt,,Los Angeles County,34.039727,-118.173033,
LAUSD,GARFIELD SENIOR HIGH,"5101 E 6TH ST, LOS ANGELES, CA 90022",,,,exempt,,Los Angeles County,34.025343,-118.157743,
LAUSD,GARVANZA ELEMENTARY,"317 N AVE 62, LOS ANGELES,    CA 90042",,,,exempt,LA,Los Angeles County,34.116708,-118.18333,
LAUSD,GARZA PRIMARY CENTER,"2750 E HOSTETTER ST, LOS ANGELES, CA 90023",,,,exempt,Los Angeles,Los Angeles County,34.024462,-118.21816799999999,
LAUSD,GASPAR DE PORTOLA MIDDLE SCHOOL,"18720 LINNET ST, TARZANA, CA 91356",,,,exempt,LA,Los Angeles County,34.167204,-118.54141299999999,
LAUSD,GATES EARLY EDUCATION CENTER,"2306 THOMAS ST, LOS ANGELES,    CA 90031",,,,exempt,LA,Los Angeles County,34.072277,-118.205077,
LAUSD,GATES ELEMENTARY,"3333 MANITOU AVE, LOS ANGELES,    CA 90031",,,,exempt,LA,Los Angeles County,34.072071,-118.205991,
LAUSD,GATES STATE PRESCHOOL,"3333 MANITOU AVE, LOS ANGELES,    CA 90031",,,,exempt,LA,Los Angeles County,34.072071,-118.205991,
LAUSD,GAULT ELEMENTARY,"17000 GAULT ST, LAKE BALBOA, CA 91406",,,,exempt,Los Angeles,Los Angeles County,34.19907,-118.50416399999999,
LAUSD,GEORGE DE LA TORRE JR.  ELEMENTARY (FMR: ISLAND AVE. ES (FMR: BANNING ES #1)),"500 N ISLAND AVE, WILMINGTON, CA 90744",,,,exempt,LA,Los Angeles County,33.77554,-118.265905,
LAUSD,GEORGE KIRIYAMA CAS (FRM: GARDENA-CARSON CAS),"18120 S NORMANDIE AVE, GARDENA, CA 90248",,,,exempt,Gardena,Los Angeles County,33.873037,-118.29889399999999,
LAUSD,GERMAIN ELEMENTARY,"20730 GERMAIN ST, CHATSWORTH,     CA 91311",,,,exempt,LA,Los Angeles County,34.262609000000005,-118.58492700000001,
LAUSD,GLASSELL PARK EARLY EDUCATION CENTER,"3303 N CARLYLE ST, LOS ANGELES, CA  90065",,,,exempt,Los Angeles,Los Angeles County,34.109652000000004,-118.234016,
LAUSD,GLASSELL PARK ELEMENTARY,"2211 W AVE 30, LOS ANGELES,    CA 90065",,,,exempt,LA,Los Angeles County,34.104085,-118.23659099999999,
LAUSD,GLEDHILL EARLY EDUCTION CENTER,"16058 GLEDHILL ST, NORTH HILLS, CA 91343",,,,exempt,LA,Los Angeles County,34.241842,-118.481628,
LAUSD,GLEDHILL ELEMENTARY,"16030 GLEDHILL ST, NORTH HILLS, CA 91343",,,,exempt,LA,Los Angeles County,34.240652000000004,-118.48156399999999,
LAUSD,GLEDHILL STATE PRESCHOOL,"16030 GLEDHILL ST, NORTH HILLS, CA 91343",,,,exempt,LA,Los Angeles County,34.240652000000004,-118.48156399999999,
LAUSD,GLEN ALTA ELEMENTARY,"3410 SIERRA ST, LOS ANGELES,    CA 90031",,,,exempt,LA,Los Angeles County,34.084748,-118.200043,
LAUSD,GLENFELIZ EARLY EDUCATION CENTER,"3745 DOVER PL, LOS ANGELES,    CA 90039",,,,exempt,LA,Los Angeles County,34.12292,-118.265951,
LAUSD,GLENWOOD ELEMENTARY,"8001 LEDGE AVE, SUN VALLEY,     CA 91352",,,,exempt,LA,Los Angeles County,34.216477000000005,-118.357658,
LAUSD,GLUCK (MACLAY) EARLY EDUCATION CENTER,"12501 GAIN ST, PACOIMA,        CA 91331",,,,exempt,LA,Los Angeles County,34.270171000000005,-118.40574699999999,
LAUSD,GLUCK (MAXWELL) EARLY EDUCATION CENTER,"11387 SHARP ST, MISSION HILLS,  CA 91345",,,,exempt,Los Angeles,Los Angeles County,34.277276,-118.45703400000001,
LAUSD,GOETHE ES @ MARINA DEL REY MS,"12500 BRADDOCK DR, LOS ANGELES,    CA 90066",,,,exempt,LA,Los Angeles County,33.987227000000004,-118.422324,
LAUSD,GOMPERS MIDDLE SCHOOL,"234 E 112TH ST, LOS ANGELES,    CA 90061",,,,exempt,LA,Los Angeles County,33.93289,-118.270977,
LAUSD,GRAHAM EARLY EDUCATION CENTER,"8332 S ELM ST, LOS ANGELES,    CA 90001",,,,exempt,Pomona,Los Angeles County,34.053839,-117.746743,
LAUSD,GRAHAM ELEMENTARY,"8407 S FIR AVE, LOS ANGELES,    CA 90001",,,,exempt,,Los Angeles County,33.961965,-118.237475,
LAUSD,GRANADA ELEMENTARY,"17170 TRIBUNE ST, GRANADA HILLS,  CA 91344",,,,exempt,LA,Los Angeles County,34.267161,-118.50774299999999,
LAUSD,GRANADA HILLS CHARTER HIGH SCHOOL,"10535 ZELZAH AVE, GRANADA HILLS, CA 91344",,,,exempt,LA,Los Angeles County,34.261811,-118.52346100000001,
LAUSD,GRANADA STATE PRESCHOOL,"17170 TRIBUNE ST, GRANADA HILLS,  CA 91344",,,,exempt,LA,Los Angeles County,34.267161,-118.50774299999999,
LAUSD,GRAND VIEW ELEMENTARY,"3951 GRAND VIEW BLVD, LOS ANGELES,    CA 90066",,,,exempt,,Los Angeles County,34.002116,-118.429194,
LAUSD,GRANT EARLY EDUCATION CENTER,"1559 N ST ANDREWS PL, LOS ANGELES,    CA 90028",,,,exempt,LA,Los Angeles County,34.099596999999996,-118.31155,
LAUSD,GRANT ELEMENTARY,"1530 N WILTON PL, LOS ANGELES,    CA 90028",,,,exempt,LA,Los Angeles County,34.099452,-118.313521,
LAUSD,GRANT SENIOR HIGH,"13000 OXNARD ST, VAN NUYS,       CA 91401",,,,exempt,LA,Los Angeles County,34.179411,-118.423731,
LAUSD,GRAPE ELEMENTARY,"1940 E 111TH ST, LOS ANGELES,    CA 90059",,,,exempt,LA,Los Angeles County,33.934217,-118.23788700000001,
LAUSD,GRATTS EARLY EDUCATION CENTER,"309 LUCAS AVE, LOS ANGELES,    CA 90017",,,,exempt,LA,Los Angeles County,34.058171,-118.26178200000001,
LAUSD,GRATTS ELEMENTARY SCHOOL,"309 LUCAS AVE, LOS ANGELES,    CA 90017",,,,exempt,LA,Los Angeles County,34.058171,-118.26178200000001,
LAUSD,GRATTS NEW PC,"474 S HARTFORD, LOS ANGELES, CA 90017",,,,exempt,Los Angeles,Los Angeles County,34.056218,-118.26392,
LAUSD,GRIDLEY ELEMENTARY,"1907 EIGHTH ST, SAN FERNANDO,   CA 91340",,,,exempt,San Fernando,Los Angeles County,34.302597,-118.429123,
LAUSD,GRIFFIN ELEMENTARY,"2025 GRIFFIN AVE, LOS ANGELES,    CA 90031",,,,exempt,LA,Los Angeles County,34.068121000000005,-118.211703,
LAUSD,GRIFFITH MIDDLE SCHOOL,"4765 E 4TH ST, LOS ANGELES, CA 90022",,,,exempt,,Los Angeles County,34.031479,-118.163877,
LAUSD,GULF ELEMENTARY SCHOOL,"828 W ""L"" ST, WILMINGTON,     CA 90744",,,,exempt,LA,Los Angeles County,33.786608,-118.27275300000001,
LAUSD,HADDON EARLY EDUCATION CENTER,"10085 HADDON AVE, PACOIMA,        CA 91331",,,,exempt,LA,Los Angeles County,34.253417999999996,-118.420758,
LAUSD,HADDON ELEMENTARY,"10115 HADDON AVE, PACOIMA,        CA 91331",,,,exempt,LA,Los Angeles County,34.254321000000004,-118.421714,
LAUSD,HALE MIDDLE SCHOOL,"23830 CALIFA ST, WOODLAND HILLS, CA 91367",,,,exempt,LA,Los Angeles County,34.177229,-118.632985,
LAUSD,HALLDALE ELEMENTARY,"21514 HALLDALE AVE, TORRANCE,       CA 90501",,,,exempt,Torrance,Los Angeles County,33.832969,-118.30130700000001,
LAUSD,HAMASAKI ELEMENTARY,"4865 E FIRST ST, LOS ANGELES, CA 90022",,,,exempt,East Los Angeles,Los Angeles County,34.037356,-118.16018400000002,
LAUSD,HAMILTON SENIOR HIGH,"2955 ROBERTSON BLVD, LOS ANGELES,    CA 90034",,,,exempt,LA,Los Angeles County,34.03344,-118.389669,
LAUSD,HAMLIN ELEMENTARY,"22627 HAMLIN ST, WEST HILLS, CA 91307",,,,exempt,LA,Los Angeles County,34.189075,-118.619596,
LAUSD,HANCOCK PARK ELEMENTARY,"408 S FAIRFAX AVE, LOS ANGELES,    CA 90036",,,,exempt,LA,Los Angeles County,34.045613,-118.36811399999999,
LAUSD,HARBOR CITY ELEMENTARY,"1508 W 254TH ST, HARBOR CITY,    CA 90710",,,,exempt,Lomita,Los Angeles County,33.793699,-118.30296200000001,
LAUSD,HARBOR COMMUNITY ADULT SCHOOL,"950 WEST SANTA CRUZ STREET, SAN PEDRO,      CA 90731",,,,exempt,LA,Los Angeles County,33.744724,-118.298254,
LAUSD,HARBOR MATH/SCIENCE GIFTED MAGNET,"1214 PARK WESTERN PL, SAN PEDRO,      CA 90732",,,,exempt,LA,Los Angeles County,33.753104,-118.304581,
LAUSD,HARBOR OCC CNTR,"740 N PACIFIC AVE, SAN PEDRO,      CA 90731",,,,exempt,LA,Los Angeles County,33.751413,-118.287714,
LAUSD,HARBOR OCCUPATIONAL CENTER AEWC,"740 N PACIFIC, SAN PEDRO,      CA 90731",,,,exempt,Los Angeles,Los Angeles County,33.74982,-118.286781,
LAUSD,HARDING ELEMENTARY,"13060 HARDING ST, SYLMAR,         CA 91342",,,,exempt,LA,Los Angeles County,34.312103,-118.40481000000001,
LAUSD,HARMONY ELEMENTARY SCHOOL,"899 E 42ND PLACE, LOS ANGELES, CA 90011",,,,exempt,LA,Los Angeles County,34.006727000000005,-118.25891399999999,
LAUSD,HARMONY ELEMENTARY STATE PRESCHOOL,"898 E 42ND STREET, LOS ANGELES, CA 90011",,,,exempt,LA,Los Angeles County,34.00745,-118.25908500000001,
LAUSD,HARRISON SCHOOL,"3529 CITY TERRACE DR, LOS ANGELES, CA 90063",,,,exempt,,Los Angeles County,34.053765999999996,-118.18831999999999,
LAUSD,HART ELEMENTARY,"21040 HART ST, CANOGA PARK, CA 91303",,,,exempt,LA,Los Angeles County,34.197317,-118.591844,
LAUSD,HART HLTH CTR,"21006 HART ST, CANOGA PARK, CA 91303",,,,exempt,LA,Los Angeles County,34.197319,-118.590877,
LAUSD,HARTE MIDDLE SCHOOL,"9301 S HOOVER ST, LOS ANGELES,    CA 90044",,,,exempt,LA,Los Angeles County,33.951894,-118.287048,
LAUSD,HARVARD ELEMENTARY SCHOOL,"330 NORTH HARVARD BOULEVARD, LOS ANGELES, CA 90004",,,,exempt,LA,Los Angeles County,34.076735,-118.30436,
LAUSD,HASKELL ELEMENTARY,"15850 TULSA ST, GRANADA HILLS,  CA 91344",,,,exempt,LA,Los Angeles County,34.268161,-118.47769199999999,
LAUSD,HAWAIIAN EARLY EDUCATION CENTER,"501 HAWAIIAN AVE, WILMINGTON,     CA 90744",,,,exempt,LA,Los Angeles County,33.774962,-118.276513,
LAUSD,HAWAIIAN ELEMENTARY,"540 HAWAIIAN AVE, WILMINGTON,     CA 90744",,,,exempt,LA,Los Angeles County,33.775463,-118.276354,
LAUSD,HAYNES ELEMENTARY,"6624 LOCKHURST DRIVE, WEST HILLS,  CA 91307",,,,exempt,LA,Los Angeles County,34.190575,-118.648924,
LAUSD,HAZELTINE ELEMENTARY,"7150 HAZELTINE AVE, VAN NUYS,       CA 91405",,,,exempt,LA,Los Angeles County,34.200288,-118.43989199999999,
LAUSD,HEALTH SERVICES ACADEMY @ CLAY MIDDLE SCHOOL,"12226 S WESTERN AVENUE, LOS ANGELES, CA 90047",,,,exempt,,Los Angeles County,33.921797,-118.308897,
LAUSD,HELEN BERNSTEIN SENIOR HIGH,"1309 N WILTON PLACE, HOLLYWOOD, CA 90028",,,,exempt,LA,Los Angeles County,34.07611,-118.313594,
LAUSD,HELIOTROPE ELEMENTARY,"5911 WOODLAWN AVE, MAYWOOD,        CA 90270",,,,exempt,,Los Angeles County,33.985842,-118.176658,
LAUSD,HENRY MIDDLE SCHOOL,"17340 SAN JOSE ST, GRANADA HILLS,  CA 91344",,,,exempt,LA,Los Angeles County,34.261122,-118.51195600000001,
LAUSD,HERRICK ELEMENTARY,"13350 HERRICK AVE, SYLMAR,         CA 91342",,,,exempt,LA,Los Angeles County,34.313928000000004,-118.46419399999999,
LAUSD,HESBY OAKS SPAN SCHOOL,"15530 HESBY ST, ENCINO, CA 91436",,,,exempt,LA,Los Angeles County,34.162038,-118.47316599999999,
LAUSD,HIGHLAND PARK CONTINUATION HS,"928 N AVE 53, LOS ANGELES,    CA 90042",,,,exempt,LA,Los Angeles County,34.11623,-118.201521,
LAUSD,HIGHLANDER ROAD ELEMENTARY SCHOOL - CLOSED SITE,"23834 HIGHLANDER ROAD, WEST HILLS, 91307",,,,exempt,LA,Los Angeles County,34.196084,-118.644888,
LAUSD,HIGHTECH LA (FRMR: HIGH TECH SH),"17111 VICTORY BLVD., VAN NUYS, CA 91406",,,,exempt,LA,Los Angeles County,34.186633,-118.477418,
LAUSD,HILDA L. SOLIS LEARNING ACADEMY (FRM: ELA STAR HS ACADEMY),"319 N HUMPHREYS AVE, LOS ANGELES, CA 90022",,,,exempt,,Los Angeles County,34.039419,-118.171849,
LAUSD,HILLCREST ELEMENTARY,"4041 HILLCREST DR, LOS ANGELES,    CA 90008",,,,exempt,LA,Los Angeles County,34.012966999999996,-118.347546,
LAUSD,HILLERY T BROADOUS ELEMENTARY,"12561 FILMORE ST, PACOIMA,        CA 91331",,,,exempt,LA,Los Angeles County,34.282514,-118.40696299999999,
LAUSD,HILLSIDE ELEMENTARY,"120 E AVE 35, LOS ANGELES,    CA 90031",,,,exempt,LA,Los Angeles County,34.085466,-118.21266499999999,
LAUSD,HOBART EARLY EDUCATION CENTER,"982 S SERRANO AVE, LOS ANGELES,    CA 90066",,,,exempt,LA,Los Angeles County,34.053196,-118.306221,
LAUSD,HOBART ELEMENTARY,"980 S HOBART BLVD, LOS ANGELES,    CA 90006",,,,exempt,LA,Los Angeles County,34.070475,-118.30551200000001,
LAUSD,HOLLENBECK MIDDLE SCHOOL (MEDIA ARTS),"2510 E SIXTH ST, LOS ANGELES,    CA 90023",,,,exempt,Burbank,Los Angeles County,34.188749,-118.308225,
LAUSD,HOLLYWOOD ALTERNATIVE EDUCATION WORK CENTER,"5936 W SANTA MONICA BLVD, LOS ANGELES, CA 90038",,,,exempt,LA,Los Angeles County,34.090671,-118.31926200000001,
LAUSD,HOLLYWOOD COMMUNITY ADULT SCHOOL,"1521 N HIGHLAND AVE, LOS ANGELES,    CA 90028",,,,exempt,LA,Los Angeles County,34.098399,-118.338761,
LAUSD,HOLLYWOOD PRIMARY CENTER,"1115 TAMARIND AVENUE, LOS ANGELES, CA 90038",,,,exempt,LA,Los Angeles County,34.091103000000004,-118.319128,
LAUSD,HOLLYWOOD SENIOR HIGH,"1521 N HIGHLAND AVE, LOS ANGELES,    CA 90028",,,,exempt,LA,Los Angeles County,34.098399,-118.338761,
LAUSD,HOLMES EARLY EDUCATION CENTER,"1810 E 52ND ST, LOS ANGELES,    CA 90058",,,,exempt,LA,Los Angeles County,33.995515999999995,-118.24078600000001,
LAUSD,HOLMES ELEMENTARY,"5108 HOLMES AVE, LOS ANGELES,    CA 90058",,,,exempt,LA,Los Angeles County,33.99605,-118.241003,
LAUSD,HOLMES MIDDLE SCHOOL,"9351 PASO ROBLES AVE, NORTHRIDGE, CA 91325",,,,exempt,LA,Los Angeles County,34.240342999999996,-118.50443500000002,
LAUSD,HOOPER EARLY EDUCATION CENTER,"1224 E 52ND ST, LOS ANGELES,    CA 90011",,,,exempt,LA,Los Angeles County,33.995876,-118.25376899999999,
LAUSD,HOOPER ELEMENTARY,"1225 E 52ND ST, LOS ANGELES,    CA 90011",,,,exempt,LA,Los Angeles County,33.99604,-118.25376899999999,
LAUSD,HOOPER NEW PRIMARY CENTER,"1280 E 52ND ST, LOS ANGELES, CA 90011",,,,exempt,LA,Los Angeles County,33.995876,-118.252624,
LAUSD,HOOVER ELEMENTARY,"2726 FRANCIS AVE, LOS ANGELES,    CA 90005",,,,exempt,LA,Los Angeles County,34.056748999999996,-118.284971,
LAUSD,HOPE CONTINUATION HIGH,"7840 TOWNE AVE, LOS ANGELES,    CA 90003",,,,exempt,LA,Los Angeles County,33.968198,-118.267227,
LAUSD,HOPE STREET ELEMENTARY SCHOOL,"7560 STATE ST, HUNTINGTON PRK, CA 90255",,,,exempt,Huntington Park,Los Angeles County,33.969159999999995,-118.209395,
LAUSD,HORACE MANN MIDDLE SCHOOL,"7001 S ST ANDREWS PL, LOS ANGELES,    CA 90047",,,,exempt,LA,Los Angeles County,33.976062,-118.311264,
LAUSD,HUBBARD ELEMENTARY SCHOOL,"13325 HUBBARD ST, SYLMAR,         CA 91342",,,,exempt,LA,Los Angeles County,34.313655,-118.42343600000001,
LAUSD,HUBBARD STREET EARLY EDUCATION CENTER,"13410 BEAVER ST, SYLMAR,         CA 91342",,,,exempt,LA,Los Angeles County,34.315159,-118.424742,
LAUSD,HUMPHREYS ELEMENTARY,"500 S HUMPHREYS AVE, LOS ANGELES, CA 90022",,,,exempt,,Los Angeles County,34.028915000000005,-118.17096000000001,
LAUSD,HUNTINGTON DRIVE ELEMENTARY,"4435 N HUNTINGTON DR, LOS ANGELES,    CA 90032",,,,exempt,Los Angeles,Los Angeles County,34.082693,-118.19183400000001,
LAUSD,HUNTINGTON PARK ALTERNATIVE EDUCATION WORK CENTER,"6020 MILES AVE, HUNTINGTON PARK CA 90255",,,,exempt,,Los Angeles County,33.988012,-118.219199,
LAUSD,HUNTINGTON PARK COLLEGE-READY ACADEMY CHARTER HIGH SCHOOL,"2071 SATURN AVE., HUNTINGTON PARK,CA 90255",,,,exempt,,Los Angeles County,33.977001,-118.233832,
LAUSD,HUNTINGTON PARK ELEMENTARY SCHOOL,"6055 CORONA AVE, HUNTINGTON PRK, CA 90255",,,,exempt,Huntington Park,Los Angeles County,33.98488,-118.195075,
LAUSD,HUNTINGTON PARK SENIOR HIGH,"6020 MILES AVE, HUNTINGTON PARK,CA 90255",,,,exempt,,Los Angeles County,33.988012,-118.219199,
LAUSD,HYDE PARK EARLY EDUCATION CENTER,"6428 11TH AVE, LOS ANGELES,    CA 90043",,,,exempt,LA,Los Angeles County,33.981477000000005,-118.32927,
LAUSD,INDEPENDENCE CONTINUATION HIGH,"6501 BALBOA BLVD, LAKE BALBOA, CA 91406",,,,exempt,Los Angeles,Los Angeles County,34.189853,-118.50223500000001,
LAUSD,INDEPENDENCE ELEMENTARY,"8435 VICTORIA AVE, SOUTH GATE,     CA 90280",,,,exempt,South Gate,Los Angeles County,33.959495000000004,-118.20921399999999,
LAUSD,IRVING MIDDLE SCHOOL,"3010 ESTARA AVE, LOS ANGELES,    CA 90065",,,,exempt,LA,Los Angeles County,34.116863,-118.23988899999999,
LAUSD,IVANHOE ELEMENTARY SCHOOL,"2828 HERKIMER ST, LOS ANGELES,    CA 90039",,,,exempt,LA,Los Angeles County,34.108849,-118.267423,
LAUSD,IVY ACADEMIA @ SUNNY BRAE ES,"6051 DE SOTO AVENUE, WOODLAND HILLS, CA 91387",,,,exempt,LA,Los Angeles County,34.172665,-118.58818899999999,
LAUSD,JAIME ESCALANTE EARLY EDUCATION CENTER,"4443 LIVE OAK STREET, CUDAHY, CA 90201",,,,exempt,,Los Angeles County,33.968153,-118.18859599999999,
LAUSD,JAIME ESCALANTE ES (FRM: SRES #3),"4443 LIVE OAK STREET, CUDAHY, CA 90201",,,,exempt,,Los Angeles County,33.968153,-118.18859599999999,
LAUSD,JAMES JORDAN MIDDLE SCHOOL,"20040 PARTHENIA ST, NORTHRIDGE, CA 91324",,,,exempt,LA,Los Angeles County,34.228248,-118.551375,
LAUSD,JAMES MONROE SENIOR HIGH,"9229 HASKELL AVE, NORTH HILLS, CA 91343",,,,exempt,LA,Los Angeles County,34.237895,-118.476403,
LAUSD,JEFFERSON ALTERNATIVE EDUCATION WORK CENTER,"2830 S. CENTRAL AVE., LOS ANGELES,    CA 90011",,,,exempt,LA,Los Angeles County,33.92528,-118.254327,
LAUSD,JEFFERSON COMMUNITY ADULT SCHOOL,"1319 E. 41ST STREET, LOS ANGELES, CA 90011",,,,exempt,LA,Los Angeles County,34.009298,-118.25173899999999,
LAUSD,JOAN ELAM EEC,"15950 TUPPER ST, NORTH HILLS, CA 91343",,,,exempt,LA,Los Angeles County,34.239152000000004,-118.479525,
LAUSD,JOHN ADAMS MIDDLE SCHOOL,"151 W 30TH ST, LOS ANGELES,    CA 90007",,,,exempt,LA,Los Angeles County,34.022578,-118.272259,
LAUSD,JOHN FRANCIS POLY FRESHMAN CENTER (FRM: VRMS #3 @ BYRD MS),"8501 ARLETA AVE, SUN VALLEY, CA 91352",,,,exempt,Los Angeles,Los Angeles County,34.223918,-118.407918,
LAUSD,JOHN H. LIECHTY MIDDLE SCHOOL,"650 S UNION AVE, LOS ANGELES, CA 90017",,,,exempt,LA,Los Angeles County,34.056523,-118.269278,
LAUSD,JOHN R WOODEN HIGH SCHOOL,"18741 ELKWOOD ST, RESEDA, CA 91335",,,,exempt,LA,Los Angeles County,34.212998999999996,-118.54088999999999,
LAUSD,JOHN W MACK ELEMENTARY,"3020 S CATALINA ST, LOS ANGELES, CA 90007",,,,exempt,LA,Los Angeles County,34.02673,-118.293622,
LAUSD,JOHNNIE L COCHRAN JR. MS,"4066 W JOHNNIE COCHRAN VISTA, LOS ANGELES, CA 90019",,,,exempt,Los Angeles,Los Angeles County,34.041746,-118.326835,
LAUSD,JOHNSON OPPORTUNITY HS @ MARKHAM MS (FRM: ORG 8670)),"1650 E 104TH ST, LOS ANGELES, CA 90002",,,,exempt,LA,Los Angeles County,33.941404,-118.24489799999999,
LAUSD,JOHNSTON COMMUNITY DAY SCHOOL (FRM:COOPER CDS),"2210 TAPER AVE., SAN PEDRO, CA 90731",,,,exempt,Los Angeles,Los Angeles County,33.765376,-118.29940500000001,
LAUSD,JORDAN SENIOR HIGH (GREEN DOT),"2265 E 103RD ST, LOS ANGELES,    CA 90002",,,,exempt,LA,Los Angeles County,33.943026,-118.231326,
LAUSD,JORDAN-LOCKE ALTERNATIVE EDUC WORK CTR,"325 E 111TH ST, LOS ANGELES,    CA 90061",,,,exempt,LA,Los Angeles County,33.934878999999995,-118.26890700000001,
LAUSD,JORDAN-LOCKE COMM ADULT SCHOOL (@ FLOURNOY),"325 E 111TH ST, LOS ANGELES,    CA 90061",,,,exempt,LA,Los Angeles County,33.934878999999995,-118.26890700000001,
LAUSD,JUDITH F BACA ARTS ACADEMY (FRM: SRES #7),"1536 EAST 89TH ST, LOS ANGELES, CA, 90002",,,,exempt,,Los Angeles County,33.956226,-118.246606,
LAUSD,JULIE KORENSTEIN ELEMENTARY (FMR: VRES #7),"7650 BEN AVE, N HOLLYWOOD, CA 91605",,,,exempt,LA,Los Angeles County,34.20939,-118.39423400000001,
LAUSD,JUSTICE ELEMENTARY,"23350 JUSTICE ST, WEST HILLS, CA 91304",,,,exempt,LA,Los Angeles County,34.215989,-118.634992,
LAUSD,KENNEDY ELEMENTARY,"4010 E RAMBOZ DR, LOS ANGELES, CA 90063",,,,exempt,,Los Angeles County,34.053971000000004,-118.17783899999999,
LAUSD,KENNEDY SENIOR HIGH,"11254 GOTHIC AVE, GRANADA HILLS,  CA 91344",,,,exempt,LA,Los Angeles County,34.275090999999996,-118.48836299999999,
LAUSD,KENNEDY-SAN FERNANDO COMMUNITY ADULT SCHOOL (RINALDI ADULT CENTER),"17450 RINALDI STREET, GRANANDA HILLS, CA 91344",,,,exempt,Los Angeles,Los Angeles County,34.279090999999994,-118.51491499999999,
LAUSD,KENTER CANYON ELEMENTARY,"645 N KENTER AVE, LOS ANGELES,    CA 90049",,,,exempt,LA,Los Angeles County,34.070128000000004,-118.488519,
LAUSD,KENTWOOD ELEMENTARY,"8401 EMERSON AVE, LOS ANGELES,    CA 90045",,,,exempt,LA,Los Angeles County,33.962627000000005,-118.40422,
LAUSD,KENTWOOD STATE PRE-SCHOOL,"8401 EMERSON AVENUE, LOS ANGELES, CA 90045",,,,exempt,LA,Los Angeles County,33.962627000000005,-118.40422,
LAUSD,KESTER ELEMENTARY,"5353 KESTER AVE, VAN NUYS,       CA 91411",,,,exempt,LA,Los Angeles County,34.167621000000004,-118.457531,
LAUSD,KING ELEMENTARY,"3989 S HOBART BLVD, LOS ANGELES,    CA 90062",,,,exempt,LA,Los Angeles County,34.011153,-118.30788999999999,
LAUSD,KING MIDDLE SCHOOL,"4201 FOUNTAIN AVE, LOS ANGELES,    CA 90029",,,,exempt,LA,Los Angeles County,34.095881,-118.28147,
LAUSD,KING-DREW MEDICAL MAGNET,"1656 E 118TH ST, LOS ANGELES,    CA 90059",,,,exempt,,Los Angeles County,33.926015,-118.24493000000001,
LAUSD,KINGSLEY ELEMENTARY SCHOOL,"5200 W VIRGINIA AVE, LOS ANGELES, CA 90029",,,,exempt,Glendora,Los Angeles County,34.145159,-117.868926,
LAUSD,KIPP EMPOWER ACADEMY @ RAYMOND ES,"7511 RAYMOND AVE, LOS ANGELES,    CA 90044",,,,exempt,LA,Los Angeles County,33.972249,-118.29820600000001,
LAUSD,KIRK DOUGLAS HIGH SCHOOL @ GRANADA HILLS CHARTER SH,"10500 LINDLEY AVE, GRANANDA HILLS, CA 91344",,,,exempt,Los Angeles,Los Angeles County,34.260918,-118.52723700000001,
LAUSD,KITTRIDGE STREET ELEMENTARY,"13619 KITTRIDGE ST, VAN NUYS,       CA 91401",,,,exempt,LA,Los Angeles County,34.190389,-118.429363,
LAUSD,KNOLLWOOD ELEMENTARY,"11822 GERALD AE, GRANADA HILLS,  CA 91344",,,,exempt,LA,Los Angeles County,34.284866,-118.49376299999999,
LAUSD,KNOLLWOOD STATE PRESCHOOL,"11822 GERALD AVE., GRANADA HILLS, CA 91344",,,,exempt,LA,Los Angeles County,34.284866,-118.49376299999999,
LAUSD,LA ArtLAB @ SANDRA SOTOMAYOR LEARNING ACADEMY (FMR:CRHS #13C),"2050 NORTH SAN FERNANDO RD, LOS ANGELES, CA 90065",,,,exempt,Los Angeles,Los Angeles County,34.10226,-118.237398,
LAUSD,LA SALLE ELEMENTARY,"8715 LA SALLE AVE, LOS ANGELES,    CA 90047",,,,exempt,LA,Los Angeles County,33.958521999999995,-118.30583500000002,
LAUSD,LAFAYETTE PARK PRIMARY CENTER,"310 S LA FAYETTE PARK PL, LOS ANGELES, CA 90057",,,,exempt,LA,Los Angeles County,34.066784999999996,-118.28068400000001,
LAUSD,LAKE STREET PRIMARY SCHOOL,"135 N LAKE ST, LOS ANGELES, CA 90026",,,,exempt,LA,Los Angeles County,34.067679,-118.27108500000001,
LAUSD,LANAI ROAD ELEMENTARY SCHOOL,"4241 LANAI RD, ENCINO, CA 91436",,,,exempt,LA,Los Angeles County,34.148632,-118.492065,
LAUSD,LANGDON ELEMENTARY,"8817 LANGDON AVE, NORTH HILLS, CA 91343",,,,exempt,LA,Los Angeles County,34.230391999999995,-118.469923,
LAUSD,LANKERSHIM ELEMENTARY,"5250 BAKMAN AVE, N HOLLYWOOD,   CA 91601",,,,exempt,LA,Los Angeles County,34.166482,-118.377297,
LAUSD,LANTERMAN HIGH SCHOOL - TMR,"2328 ST JAMES PL, LOS ANGELES,    CA 90007",,,,exempt,LA,Los Angeles County,34.032492,-118.278618,
LAUSD,LARCHMONT CHARTER ES (WEST HOLLYWOOD 2ND SITE) @SELMA ES,"815 N EL CENTRO AVENUE, LOS ANGELES, CA 90038",,,,exempt,LA,Los Angeles County,34.086428000000005,-118.324527,
LAUSD,LASSEN ELEMENTARY,"15017 SUPERIOR ST, NORTH HILLS, CA 91343",,,,exempt,LA,Los Angeles County,34.247029,-118.459845,
LAUSD,LASSEN STATE PRESCHOOL,"15017 SUPERIOR ST, NORTH HILLS, CA 91343",,,,exempt,LA,Los Angeles County,34.247029,-118.459845,
LAUSD,LATONA ELEMENTARY,"4312 BERENICE AVE, LOS ANGELES,    CA 90031",,,,exempt,LA,Los Angeles County,34.091651,-118.20298500000001,
LAUSD,LAUREL EARLY EDUCATION CENTER,"8023 WILLOUGHBY AVE, LOS ANGELES,    CA 90046",,,,exempt,West Hollywood,Los Angeles County,34.087253000000004,-118.364094,
LAUSD,LAUREL ELEMENTARY,"925 N HAYWORTH AVE, LOS ANGELES,    CA 90046",,,,exempt,West Hollywood,Los Angeles County,34.087644,-118.362803,
LAUSD,LAUSD HEADQUARTERS - BEAUDRY BUILDING,"333 S BEAUDRY AVE, LOS ANGELES,    CA 90017",,,,exempt,LA,Los Angeles County,34.056482,-118.25761499999999,
LAUSD,LAWRENCE MIDDLE SCHOOL,"10100 VARIEL AVE, CHATSWORTH, CA 91311",,,,exempt,LA,Los Angeles County,34.252765999999994,-118.59283300000001,
LAUSD,LAWRENCE MOORE EL  (FMR: SRES #12),"1321 E 61ST STREET, LOS ANGELES, CA 90001",,,,exempt,Long Beach,Los Angeles County,33.865628,-118.176046,
LAUSD,LE CONTE MIDDLE SCHOOL,"1316 N BRONSON AVE, HOLLYWOOD,      CA 90028",,,,exempt,LA,Los Angeles County,34.094722999999995,-118.317842,
LAUSD,LEADERSHIP IN ENTERTAINMENT & MEDIA ARTS (LEMA) @ LINCOLN SH,"3501 NORTH BROADWAY, LOS ANGELES, CA 90031",,,,exempt,LA,Los Angeles County,34.072302,-118.2209,
LAUSD,LEAPWOOD ELEMENTARY,"19302 LEAPWOOD AVE, CARSON,         CA 90746",,,,exempt,Carson,Los Angeles County,33.856075,-118.26165800000001,
LAUSD,LEE MEDICAL HEALTH MAGNET @ VIRGIL MS,"3600 W. COUNCIL ST., LOS ANGELES, CA  90004",,,,exempt,LA,Los Angeles County,34.074394,-118.28939799999999,
LAUSD,LEE MEDICAL MAGNET (FRM: CRES #20 @ VIRGIL MS),"3600 W. COUNCIL ST., LOS ANGELES, CA  90004",,,,exempt,LA,Los Angeles County,34.074394,-118.28939799999999,
LAUSD,LEGACY SENIOR HIGH TECH ENGINEERING ARTS MATH (STEAM) incudes LEGACY SENIOR HIGH VISUAL PERFORMING ARTS AND INTERNATIONAL STUDIES LEARNING CENTER (LEGACY COMPLEX) (FRM: SOUTH REGION HS #8 @ SRHS #9),"5225 TWEEDY BLVD, SOUTH GATE, CA 90280",,,,exempt,South Gate,Los Angeles County,33.94117,-118.179428,
LAUSD,LEICHMAN HIGH SCHOOL SPECIAL EDUCATION CENTER,"19034 GAULT ST, RESEDA, CA 91335",,,,exempt,LA,Los Angeles County,34.1992,-118.54791399999999,
LAUSD,LELAND ELEMENTARY,"2120 S LELAND ST, SAN PEDRO,      CA 90731",,,,exempt,LA,Los Angeles County,33.724937,-118.301115,
LAUSD,LEMAY EARLY EDUCATION CENTER,"17553 LEMAY ST, LAKE BALBOA, CA 91406",,,,exempt,Los Angeles,Los Angeles County,34.192586,-118.515225,
LAUSD,LEMAY ELEMENTARY,"17520 VANOWEN ST, LAKE BALBOA, CA 91406",,,,exempt,Los Angeles,Los Angeles County,34.192639,-118.51506699999999,
LAUSD,LEONIS CONTINUATION HIGH,"5445 MANTON AVE, WOODLAND HILLS, CA 91367",,,,exempt,LA,Los Angeles County,34.169401,-118.64080200000001,
LAUSD,LEWIS CONTINUATION HIGH,"12508 WICKS ST, SUN VALLEY,     CA 91352",,,,exempt,Los Angeles,Los Angeles County,34.226157,-118.404227,
LAUSD,LEXINGTON AVENUE PRIMARY CENTER,"4564 W LEXINGTON AVE, LOS ANGELES, CA 90029",,,,exempt,Pomona,Los Angeles County,34.036767,-117.75644399999999,
LAUSD,LIBERTY ELEMENTARY,"2728 LIBERTY BLVD, SOUTH GATE,  CA 90280",,,,exempt,South Gate,Los Angeles County,33.961929999999995,-118.22218000000001,
LAUSD,LIGGETT ELEMENTARY,"9373 MOONBEAM AVE, PANORAMA CITY,  CA 91402",,,,exempt,LA,Los Angeles County,34.240544,-118.44568600000001,
LAUSD,LILLIAN ELEMENTARY,"5909 LILLIAN ST, LOS ANGELES,    CA 90001",,,,exempt,,Los Angeles County,33.986578,-118.23996000000001,
LAUSD,LIMERICK ELEMENTARY,"8530 LIMERICK AVE, CANOGA PARK,    CA 91306",,,,exempt,LA,Los Angeles County,34.225569,-118.583022,
LAUSD,LIZARRAGA ELEMENTARY SCHOOL,"401 E 40TH PL, LOS ANGELES, CA 90011",,,,exempt,LA,Los Angeles County,34.010287,-118.268404,
LAUSD,LOCAL DISTRICT - 1 ADMINISTRATIVE OFFICES,"6621 BALBOA BLVD., LAKE BALBOA, CA 91406",,,,exempt,Los Angeles,Los Angeles County,34.189814,-118.501354,
LAUSD,LOCKE EARLY EDUCATION CENTER,"320 E 11TH ST, LOS ANGELES,    CA 90061",,,,exempt,LA,Los Angeles County,34.037541999999995,-118.25591100000001,
LAUSD,"LOCKE INFANT CENTER @ LOCKE EEC, 1 st Floor LEASED","320 E 111TH ST, LOS ANGELES,    CA 90061",,,,exempt,LA,Los Angeles County,33.934715000000004,-118.268983,
LAUSD,LOCKE SENIOR HIGH (GREEN DOT),"325 E 111TH ST, LOS ANGELES,    CA 90061",,,,exempt,LA,Los Angeles County,33.934878999999995,-118.26890700000001,
LAUSD,LOCKHURST ELEMENTARY,"6170 LOCKHURST DR, WOODLAND HILLS, CA 91367",,,,exempt,LA,Los Angeles County,34.16622,-118.64936000000002,
LAUSD,LOCKWOOD ELEMENTARY,"4345 LOCKWOOD AVE, LOS ANGELES,    CA 90029",,,,exempt,LA,Los Angeles County,34.089438,-118.288397,
LAUSD,LOGAN EARLY EDUCATION CENTER,"1438 LEMOYNE ST, LOS ANGELES,    CA 90026",,,,exempt,LA,Los Angeles County,34.079608,-118.25806399999999,
LAUSD,LOGAN ELEMENTARY,"1711 W MONTANA ST, LOS ANGELES,    CA 90026",,,,exempt,Pasadena,Los Angeles County,34.180826,-118.16298700000002,
LAUSD,LOKRANTZ SPECIAL EDUCATION CENTER,"19451 WYANDOTTE ST, RESEDA, CA 91335",,,,exempt,LA,Los Angeles County,34.203004,-118.55684199999999,
LAUSD,LOKRANTZ STATE PRESCHOOL,"19451 WYANDOTTE ST., RESEDA, CA 91335",,,,exempt,LA,Los Angeles County,34.203004,-118.55684199999999,
LAUSD,LOMA VISTA AVE. ELEMENTARY SCHOOL,"3629 E 58TH ST, MAYWOOD,        CA 90270",,,,exempt,,Los Angeles County,33.989672,-118.20003799999999,
LAUSD,LOMITA MATH/SCIENCE MAGNET,"2211 W 247TH ST, LOMITA,         CA 90717",,,,exempt,Lomita,Los Angeles County,33.800762,-118.32171299999999,
LAUSD,LONDON CONTINUATION HIGH,"12924 OXNARD ST, VAN NUYS,       CA 91401",,,,exempt,LA,Los Angeles County,34.179411,-118.423731,
LAUSD,LORENA ELEMENTARY,"1015 S LORENA ST, LOS ANGELES,    CA 90023",,,,exempt,LA,Los Angeles County,34.025521999999995,-118.202514,
LAUSD,LORETO STREET  ELEMENTARY,"3408 ARROYO SECO AVE, LOS ANGELES,    CA 90065",,,,exempt,LA,Los Angeles County,34.086852,-118.216699,
LAUSD,LORNE ELEMENTARY,"17440 LORNE ST, NORTHRIDGE, CA 91325",,,,exempt,Los Angeles,Los Angeles County,34.216713,-118.513131,
LAUSD,LOS ANGELES ACADEMY MIDDLE SCHOOL,"644 E 56TH ST, LOS ANGELES,    CA 90011",,,,exempt,LA,Los Angeles County,33.990473,-118.263608,
LAUSD,LOS ANGELES CENTER FOR ENRICHED STUDIES,"5931 W 18TH ST, LOS ANGELES,    CA 90035",,,,exempt,LA,Los Angeles County,34.043646,-118.371665,
LAUSD,LOS ANGELES COMMUNITY ADULT SCHOOL,"4650 W OLYMPIC BLVD, LOS ANGELES,    CA 90019",,,,exempt,LA,Los Angeles County,34.056659,-118.33316599999999,
LAUSD,LOS ANGELES ELEMENTARY,"1211 S HOBART BLVD, LOS ANGELES,    CA 90006",,,,exempt,LA,Los Angeles County,34.048751,-118.30532099999999,
LAUSD,LOS ANGELES RIVER SCHOOL @ SANDRA SOTOMAYOR LEARNING ACADEMY (FMR:CRHS #13A),"2050 NORTH SAN FERNANDO RD, LOS ANGELES, CA 90065",,,,exempt,Los Angeles,Los Angeles County,34.10226,-118.237398,
LAUSD,LOS ANGELES SCHOOL OF GLOBAL STUDIES,"322 LUCAS AVE, LOS ANGELES, CA 90017",,,,exempt,LA,Los Angeles County,34.058003,-118.261661,
LAUSD,LOS ANGELES SENIOR HIGH,"4650 W OLYMPIC BLVD, LOS ANGELES,    CA 90019",,,,exempt,LA,Los Angeles County,34.056659,-118.33316599999999,
LAUSD,LOS ANGELES TECH CENTER AEWC,"3721 WEST WASHINGTON BLVD., LOS ANGELES 90018",,,,exempt,LA,Los Angeles County,34.039969,-118.325158,
LAUSD,LOS ANGELES TECHNOLOGY CENTER,"3721 W. WASHINGTON BLVD., LOS ANGELES,  CA 90018",,,,exempt,LA,Los Angeles County,34.039969,-118.325158,
LAUSD,LOS FELIZ ELEMENTARY,"1740 N NEW HAMPSHIRE AVE, LOS ANGELES,    CA 90027",,,,exempt,LA,Los Angeles County,34.102583,-118.293209,
LAUSD,LOU DANTZLER PREP ES @ BUDLONG ES,"5940 S BUDLONG AVE, LOS ANGELES,    CA 90044",,,,exempt,LA,Los Angeles County,33.987161,-118.29574199999999,
LAUSD,LOU DANTZLER PREP HS @ WESTCHESTER HS,"7400 W MANCHESTER AVE, LOS ANGELES,    CA 90045",,,,exempt,LA,Los Angeles County,33.959919,-118.393417,
LAUSD,LOWMAN MATH/SCIENCE/TECHNOLOGY CENTER (FRMR: MONLUX SCI CTR),"12827 SATICOY STREET, N HOLLYWOOD, CA 91605",,,,exempt,LA,Los Angeles County,34.208475,-118.398049,
LAUSD,LOWMAN SPECIAL EDUCATION CENTER,"12827 SATICOY ST, N HOLLYWOOD,   CA 91605",,,,exempt,LA,Los Angeles County,34.208475,-118.398049,
LAUSD,LOYOLA VILLAGE ELEMENTARY,"8821 VILLANOVA AVE, LOS ANGELES,    CA 90045",,,,exempt,Los Angeles,Los Angeles County,33.957623,-118.42126699999999,
LAUSD,LOYOLA VILLAGE PERFORMING ARTS MAGNET,"8821 VILLANOVA AVE, LOS ANGELES,    CA 90045",,,,exempt,Los Angeles,Los Angeles County,33.957623,-118.42126699999999,
LAUSD,LULL SPECIAL EDUCATION CENTER,"17551 MIRANDA ST, ENCINO, CA 91316",,,,exempt,LA,Los Angeles County,34.174616,-118.51526000000001,
LAUSD,MACARTHUR PARK ES FOR THE VISUAL & PERFORMING ARTS (FMR: MACARTHUR PARK PRIMARY CENTER),"2300 W. SEVENTH ST., LOS ANGELES, CA 90057",,,,exempt,Los Angeles,Los Angeles County,34.057543,-118.27952900000001,
LAUSD,MACLAY MIDDLE SCHOOL,"12540 PIERCE AVE, PACOIMA,        CA 91331",,,,exempt,LA,Los Angeles County,34.272534,-118.406421,
LAUSD,MADISON AVE. ELEMENTARY SCHOOL,"9820 MADISON AVE, SOUTH GATE, CA 90280",,,,exempt,South Gate,Los Angeles County,33.946463,-118.21455,
LAUSD,MADISON MIDDLE SCHOOL,"13000 HART ST, N HOLLYWOOD,   CA 91605",,,,exempt,LA,Los Angeles County,34.197484,-118.41543300000001,
LAUSD,MAGNOLIA ELEMENTARY,"1626 S ORCHARD AVE, LOS ANGELES,    CA 90006",,,,exempt,LA,Los Angeles County,33.890037,-118.28771499999999,
LAUSD,MAGNOLIA SCIENCE ACADEMY 3 @ CURTISS MS,"1254 E HELMICK ST, CARSON,         CA 90746",,,,exempt,Carson,Los Angeles County,33.851583000000005,-118.24934099999999,
LAUSD,MAGNOLIA SCIENCE ACADEMY 4 @ WEBSTER MS,"11330 W GRAHAM PL, LOS ANGELES,    CA 90064",,,,exempt,Los Angeles,Los Angeles County,34.029868,-118.43476000000001,
LAUSD,MAGNOLIA SCIENCE ACADEMY 5 @ BANCROFT MS,"929 N LAS PALMAS AVE, LOS ANGELES,    CA 90038",,,,exempt,LA,Los Angeles County,34.08811,-118.336367,
LAUSD,MAGNOLIA SCIENCE ACADEMY @ SRMS #2A,"6411 ORCHARD AVENUE, BELL, CA 90201",,,,exempt,,Los Angeles County,33.979159,-118.19945700000001,
LAUSD,MAIN STREET ELEMENTARY,"129 E 53RD ST, LOS ANGELES,    CA 90011",,,,exempt,LA,Los Angeles County,33.994308000000004,-118.273299,
LAUSD,MALABAR ELEMENTARY,"3200 E MALABAR ST, LOS ANGELES,    CA 90063",,,,exempt,LA,Los Angeles County,34.044731,-118.19418700000001,
LAUSD,MANCHESTER ELEMENTARY,"661 W 87TH ST, LOS ANGELES,    CA 90044",,,,exempt,LA,Los Angeles County,33.958791999999995,-118.286061,
LAUSD,MANHATTAN ELEMENTARY,"1850 W 96TH ST, LOS ANGELES,    CA 90047",,,,exempt,LA,Los Angeles County,33.949005,-118.31393600000001,
LAUSD,MANUAL ARTS COMMUNITY ADULT SCHOOL,"4131 S VERMONT AVE, LOS ANGELES,    CA 90037",,,,exempt,LA,Los Angeles County,33.977253000000005,-118.291735,
LAUSD,MANUAL ARTS SENIOR HIGH,"4131 S VERMONT AVE, LOS ANGELES,    CA 90037",,,,exempt,LA,Los Angeles County,33.977253000000005,-118.291735,
LAUSD,MAPLE PRIMARY CENTER (FRMR:JEFFERSON NEW PC #6),"3601 SOUTH MAPLE AVENUE, LOS ANGELES, CA 90011",,,,exempt,Montebello,Los Angeles County,34.00845,-118.117636,
LAUSD,MAPLE STATE PRE-SCHOOL,"3601 S MAPLE AVENUE, LOS ANGELES, CA 90011",,,,exempt,Montebello,Los Angeles County,34.00845,-118.117636,
LAUSD,MAR VISTA ELEMENTARY,"3330 GRANVILLE AVE, LOS ANGELES,    CA 90066",,,,exempt,LA,Los Angeles County,34.016205,-118.43513100000001,
LAUSD,MARIANNA ELEMENTARY,"4215 E GLEASON ST, LOS ANGELES, CA 90063",,,,exempt,Monterey Park,Los Angeles County,34.035129,-118.12267800000001,
LAUSD,MARINA DEL REY MIDDLE SCHOOL,"12500 BRADDOCK DR, LOS ANGELES,    CA 90066",,,,exempt,LA,Los Angeles County,33.987227000000004,-118.422324,
LAUSD,MARINA EARLY EDUCATION CENTER,"4908 WESTLAWN AVE, LOS ANGELES,    CA 90066",,,,exempt,LA,Los Angeles County,33.987336,-118.418834,
LAUSD,MARINE ANIMAL CARE,"3601 S GAFFEY ST, SAN PEDRO,      CA 90731",,,,exempt,LA,Los Angeles County,33.737466,-118.29233700000002,
LAUSD,"MARINE AVENUE ADULT SCHOOL, @ BANNING HS","1468 N MARINE AVE, WILMINGTON, CA 90744",,,,exempt,LA,Los Angeles County,33.792531,-118.26462099999999,
LAUSD,MARIPOSA-NABI PRIMARY CENTER,"987 S MARIPOSA AVE, LOS ANGELES, CA 90006",,,,exempt,LA,Los Angeles County,34.053086,-118.299034,
LAUSD,MARK TWAIN MIDDLE SCHOOL,"2224 WALGROVE AVE, LOS ANGELES,    CA 90066",,,,exempt,LA,Los Angeles County,33.999735,-118.44814699999999,
LAUSD,MARKHAM MIDDLE SCHOOL,"1650 E 104TH ST, LOS ANGELES,    CA 90002",,,,exempt,LA,Los Angeles County,33.941404,-118.24489799999999,
LAUSD,MARLTON SCHOOL,"4000 SANTO TOMAS DR, LOS ANGELES,    CA 90008",,,,exempt,LA,Los Angeles County,34.009289,-118.34389399999999,
LAUSD,MARQUEZ ELEMENTARY,"16821 MARQUEZ AVE, PACIFIC PALISADES 90272",,,,exempt,LA,Los Angeles County,34.045983,-118.547712,
LAUSD,MARQUEZ HS (SRHS #7),"6361 COTTAGE ST, HUNTINGTON PRK, CA 90255",,,,exempt,Huntington Park,Los Angeles County,33.98195,-118.233876,
LAUSD,MARSHALL SENIOR HIGH,"3939 TRACY ST, LOS ANGELES,    CA 90027",,,,exempt,LA,Los Angeles County,34.107675,-118.27743400000001,
LAUSD,MARTHA ESCUTIA PRIMARY CENTER,"6401 BEAR AVE, BELL, CA 90201",,,,exempt,,Los Angeles County,33.978583,-118.197934,
LAUSD,MARVIN EARLY EDUCATION CENTER,"2341 S CURSON AVE, LOS ANGELES,    CA 90016",,,,exempt,LA,Los Angeles County,34.036551,-118.36459099999999,
LAUSD,MARVIN ELEMENTARY,"2411 MARVIN AVE, LOS ANGELES,    CA 90016",,,,exempt,,Los Angeles County,34.445979,-118.65879199999999,
LAUSD,MATH & SCIENCE SCHOOL - COLLEGE READY,"5151 STATE UNIVERSITY DR LOT 7, LOS ANGELES, CA 90032",,,,exempt,Los Angeles,Los Angeles County,34.062039,-118.17365900000001,
LAUSD,MAURICE SENDAK ELEMENTARY SCHOOL,"11414 W TIARA ST, N HOLLYWOOD, CA 91601",,,,exempt,Los Angeles,Los Angeles County,34.178419,-118.379826,
LAUSD,MAXINE WATERS ALTERNATIVE EDUCATION WORK CENTER,"840 E 111TH PL, LOS ANGELES,    CA",,,,exempt,LA,Los Angeles County,33.934182,-118.263589,
LAUSD,MAXINE WATERS EMPLOYMENT CENTER,"10925 S CENTRAL, LOS ANGELES,    CA 90059",,,,exempt,Los Angeles,Los Angeles County,33.937355,-118.254627,
LAUSD,MAYALL ELEMENTARY,"16701 MAYALL ST, NORTH HILLS, CA 91343",,,,exempt,LA,Los Angeles County,34.25393,-118.495972,
LAUSD,MAYWOOD ACADEMY SENIOR HIGH,"6125 PINE AVE, MAYWOOD, CA 90270",,,,exempt,,Los Angeles County,33.983115000000005,-118.18851599999999,
LAUSD,MAYWOOD ELEMENTARY SCHOOL,"5200 CUDAHY AVE, MAYWOOD, CA 90270",,,,exempt,,Los Angeles County,33.993677000000005,-118.184468,
LAUSD,MC ALISTER HIGH SCHOOL - CENTRAL OFFICES / CARONDELET,"611 S CARONDELET ST, LOS ANGELES, CA 90057",,,,exempt,LA,Los Angeles County,34.061289,-118.27988300000001,
LAUSD,MC ALISTER HS (RESEDA BRANCH),"19451 WYANDOTTE ST, RESEDA, CA 91335",,,,exempt,LA,Los Angeles County,34.203004,-118.55684199999999,
LAUSD,MC ALISTER HS (SAN FERNANDO BRANCH),"11133 O'MELVENY AVE, SAN FERNANDO,   CA 91340",,,,exempt,,Los Angeles County,34.271566,-118.44126200000001,
LAUSD,MC KINLEY ELEMENTARY,"7812 MC KINLEY AVE, LOS ANGELES,    CA 90001",,,,exempt,Los Angeles,Los Angeles County,33.967977000000005,-118.26038899999999,
LAUSD,MCBRIDE SPECIAL EDUCATION CENTER,"3960 CENTINELA AVE, LOS ANGELES,    CA 90066",,,,exempt,LA,Los Angeles County,34.000554,-118.431296,
LAUSD,MELROSE ELEMENTARY,"731 N DETROIT ST, LOS ANGELES,    CA 90046",,,,exempt,LA,Los Angeles County,34.084055,-118.345249,
LAUSD,MELVIN ELEMENTARY,"7700 MELVIN AVE, RESEDA, CA 91335",,,,exempt,Los Angeles,Los Angeles County,34.209680999999996,-118.559851,
LAUSD,MENLO ELEMENTARY,"4156 MENLO AVE, LOS ANGELES,    CA 90037",,,,exempt,LA,Los Angeles County,34.008061,-118.289895,
LAUSD,MENT HLTH CTR-VAL BR,"6651 BALBOA BLVD, LAKE BALBOA, CA 91406",,,,exempt,Los Angeles,Los Angeles County,34.19175,-118.502261,
LAUSD,MERIDIAN EARLY EDUCATION CENTER,"6124 RUBY PL, LOS ANGELES,    CA 90016",,,,exempt,LA,Los Angeles County,34.121234,-118.184824,
LAUSD,METROPOLITAN ADULT SKILL CENTER,"2801 W 6TH ST, LOS ANGELES,    CA 90006",,,,exempt,LA,Los Angeles County,34.063632,-118.284457,
LAUSD,METROPOLITAN ALTERNATIVE EDUCATION WORK CENTER,"2801 W 6TH ST, LOS ANGELES, CA 90057",,,,exempt,LA,Los Angeles County,34.063632,-118.284457,
LAUSD,METROPOLITAN CONTINUATION HIGH,"727 S WILSON ST, LOS ANGELES,    CA 90021",,,,exempt,Los Angeles,Los Angeles County,34.033696,-118.234799,
LAUSD,MEYLER ELEMENTARY,"1123 W 223RD ST, TORRANCE,       CA 90502",,,,exempt,Torrance,Los Angeles County,33.825404,-118.29583899999999,
LAUSD,MICHELTORENA ELEMENTARY,"1511 MICHELTORENA ST, LOS ANGELES,    CA 90026",,,,exempt,LA,Los Angeles County,34.088718,-118.27519099999999,
LAUSD,MID-CITY MAGNET,"3150 W ADAMS BLVD, LOS ANGELES,    CA 90018",,,,exempt,LA,Los Angeles County,34.032558,-118.31822199999999,
LAUSD,MIDCITY ADULT BASIC EDUC CTR,"1510 CAMBRIA ST, LOS ANGELES,    CA 90017",,,,exempt,LA,Los Angeles County,34.05235,-118.270219,
LAUSD,MIDDLE COLLEGE HIGH SCHOOL (OLD SITE),"11750 S WESTERN AVE, LOS ANGELES, CA 90047",,,,exempt,,Los Angeles County,33.92737,-118.308939,
LAUSD,MIDDLE COLLEGE SH (FMR: SRHS #6),"1600 IMPERIAL HIGHWAY, LOS ANGELES, CA 90047",,,,exempt,,Los Angeles County,33.929218,-118.30569299999999,
LAUSD,MIDDLETON ELEMENTARY,"6537 MALABAR ST, HUNTINGTON PARK,CA 90255",,,,exempt,,Los Angeles County,33.979935,-118.22782,
LAUSD,MIDDLETON PRIMARY CENTER,"2410 ZOE AVE, HUNTINGTON PRK, CA 90255",,,,exempt,Huntington Park,Los Angeles County,33.978906,-118.22918,
LAUSD,MIGUEL CONTRERAS LEARNING COMPLEX,"322 S LUCAS AVE, LOS ANGELES, CA 90017",,,,exempt,Los Angeles,Los Angeles County,34.057798999999996,-118.261113,
LAUSD,MIKES EARLY EDUCATION CENTER,"7720 S VERMONT AVE, LOS ANGELES,    CA 90044",,,,exempt,LA,Los Angeles County,33.96925,-118.291448,
LAUSD,MILES EARLY EDUCATION CENTER,"2855 SATURN AVE, HUNTINGTON PARK,CA 90255",,,,exempt,,Los Angeles County,33.976819,-118.218375,
LAUSD,MILES ELEMENTARY,"6720 MILES AVE, HUNTINGTON PARK,CA 90255",,,,exempt,,Los Angeles County,33.978283000000005,-118.21893100000001,
LAUSD,MILLER ELEMENTARY SCHOOL,"830 W 77TH ST, LOS ANGELES,    CA 90044",,,,exempt,LA,Los Angeles County,33.969685999999996,-118.287853,
LAUSD,MILLER HIGH SCHOOL,"8218 VANALDEN AVE, RESEDA, CA 91335",,,,exempt,LA,Los Angeles County,34.219496,-118.54908,
LAUSD,MILLIKAN MIDDLE SCHOOL,"5041 SUNNYSLOPE AVE, SHERMAN OAKS,   CA 91423",,,,exempt,LA,Los Angeles County,34.162957,-118.428477,
LAUSD,MIRAMONTE EARLY EDUCATION CENTER,"1341 E 70TH ST, LOS ANGELES,    CA 90001",,,,exempt,LA,Los Angeles County,33.976788,-118.25160100000001,
LAUSD,MIRAMONTE ELEMENTARY,"1400 E 68TH ST, LOS ANGELES,    CA 90001",,,,exempt,LA,Los Angeles County,33.978361,-118.24968799999999,
LAUSD,MONETA CONTINUATION HIGH,"1230 W 177TH ST, GARDENA,        CA 90248",,,,exempt,Gardena,Los Angeles County,33.87045,-118.294569,
LAUSD,MONLUX ELEMENTARY,"6051 BELLAIRE AVE, N HOLLYWOOD,   CA 91606",,,,exempt,LA,Los Angeles County,34.205626,-118.40943500000002,
LAUSD,MONLUX MATH/SCIENCE MAGNET,"6051 BELLAIRE AVE, N HOLLYWOOD,   CA 91606",,,,exempt,LA,Los Angeles County,34.205626,-118.40943500000002,
LAUSD,MONSENOR OSCAR ROMERO MS @ BERENDO MS,"1157 S BERENDO ST, LOS ANGELES,    CA 90006",,,,exempt,LA,Los Angeles County,34.049886,-118.293798,
LAUSD,MONTAGUE CHARTER ELEMENTARY,"13000 MONTAGUE ST, PACOIMA, CA 91331",,,,exempt,LA,Los Angeles County,34.244368,-118.41554099999999,
LAUSD,MONTARA ELEMENTARY,"10018 MONTARA AVE, SOUTH GATE,     CA 90280",,,,exempt,Lynwood,Los Angeles County,33.944684,-118.21783500000001,
LAUSD,MONTE VISTA EARLY EDUCATION CENTER,"5509 ASH ST, LOS ANGELES,    CA 90042",,,,exempt,LA,Los Angeles County,34.111446,-118.197501,
LAUSD,MONTE VISTA ELEMENTARY,"5423 MONTE VISTA ST, LOS ANGELES,    CA 90042",,,,exempt,LA,Los Angeles County,34.110062,-118.19810600000001,
LAUSD,MONTEREY CONTINUATION HIGH,"466 S FRASER AVE, LOS ANGELES, CA 90022",,,,exempt,Los Angeles,Los Angeles County,34.028341,-118.158883,
LAUSD,MORNINGSIDE ELEMENTARY,"576 N MACLAY AVE, SAN FERNANDO,   CA 91340",,,,exempt,San Fernando,Los Angeles County,34.288222,-118.43388,
LAUSD,MOUNT GLEASON MIDDLE SCHOOL,"10965 MT GLEASON AVE, SUNLAND,        CA 91040",,,,exempt,LA,Los Angeles County,34.268234,-118.30279099999998,
LAUSD,MOUNT LUKENS CONTINUATION HIGH,"7705 SUMMITROSE ST, TUJUNGA,        CA 91042",,,,exempt,LA,Los Angeles County,34.259533000000005,-118.287979,
LAUSD,MOUNT WASHINGTON ELEMENTARY,"3981 SAN RAFAEL AVE, LOS ANGELES,    CA 90065",,,,exempt,LA,Los Angeles County,34.104848,-118.21533799999999,
LAUSD,MOUNTAIN VIEW ELEMENTARY,"6410 OLCOTT ST, TUJUNGA,        CA 91042",,,,exempt,LA,Los Angeles County,34.249118,-118.27233400000001,
LAUSD,MOUNTAIN VIEW STATE PRE-SCHOOL,"6410 OLCOTT ST, TUJUNGA 91042",,,,exempt,LA,Los Angeles County,34.249118,-118.27233400000001,
LAUSD,MUIR MIDDLE SCHOOL,"5929 S VERMONT AVE, LOS ANGELES,    CA 90044",,,,exempt,LA,Los Angeles County,33.95988,-118.29161200000001,
LAUSD,MULHOLLAND MIDDLE SCHOOL,"17120 VANOWEN ST, LAKE BALBOA, CA 91406",,,,exempt,Los Angeles,Los Angeles County,34.193552000000004,-118.50532,
LAUSD,MULTICULTURAL LEARNING CENTER,"7510 DE SOTO AVE.,, CANOGA PARK, CA 91303",,,,exempt,LA,Los Angeles County,34.206778,-118.58837700000001,
LAUSD,MULTNOMAH ELEMENTARY,"2101 N INDIANA AVE, LOS ANGELES,    CA 90032",,,,exempt,LA,Los Angeles County,34.068185,-118.192798,
LAUSD,MURCHISON EARLY EDUCATION CENTER,"1537 MURCHISON ST, LOS ANGELES,    CA 90033",,,,exempt,LA,Los Angeles County,34.060016,-118.195535,
LAUSD,MURCHISON ELEMENTARY,"1501 MURCHISON ST, LOS ANGELES,    CA 90033",,,,exempt,LA,Los Angeles County,34.059505,-118.195853,
LAUSD,MURCHISON STATE PRESCHOOL,"1501 MURCHISON ST, LOS ANGELES,    CA 90033",,,,exempt,LA,Los Angeles County,34.059505,-118.195853,
LAUSD,N.E.W. CANOGA PARK ELEMENTARY SCHOOL,"21425 COHASSET STREET, CANOGA PARK, CA 91303",,,,exempt,LA,Los Angeles County,34.206562,-118.597963,
LAUSD,NAPA ELEMENTARY,"19010 NAPA ST, NORTHRIDGE,     CA 91324",,,,exempt,LA,Los Angeles County,34.226334,-118.54737800000001,
LAUSD,NARBONNE SENIOR HIGH,"24300 S WESTERN AVE, HARBOR CITY,    CA 90710",,,,exempt,LA,Los Angeles County,33.804829,-118.307296,
LAUSD,NAVA LA - SCHOOL OF ARTS & CULTURE (FRM: CRMS #7A),"1420 E ADAMS BLVD, LOS ANGELES, CA 90011",,,,exempt,LA,Los Angeles County,34.015519,-118.24823300000001,
LAUSD,NAVA LA - SCHOOL OF BUISNESS & TECHNOLOGY (FRM: CRMS #7B),"1420 E ADAMS BLVD, LOS ANGELES, CA 90011",,,,exempt,LA,Los Angeles County,34.015519,-118.24823300000001,
LAUSD,NESTLE ELEMENTARY,"5060 NESTLE AVE, TARZANA,        CA 91356",,,,exempt,LA,Los Angeles County,34.162413,-118.530809,
LAUSD,NESTLE STATE PRESCHOOL,"5060 NESTLE AVE, TARZANA,        CA 91356",,,,exempt,LA,Los Angeles County,34.162413,-118.530809,
LAUSD,NEVADA ELEMENTARY SCHOOL,"22120 CHASE ST, WEST HILLS, CA 91304",,,,exempt,LA,Los Angeles County,34.223765,-118.609324,
LAUSD,NEVIN ELEMENTARY,"1569 E 32ND ST, LOS ANGELES,    CA 90011",,,,exempt,LA,Los Angeles County,34.012451,-118.246835,
LAUSD,NEW HEIGHTS CH SCH @ KING JR MS,"4126 ARLINGTON AVE., LOS ANGELES, CA 90008",,,,exempt,LA,Los Angeles County,34.009885,-118.318124,
LAUSD,NEW OPEN WORLD ACADEMY @ CENTRAL LA NEW LEARNING CENTER #1,"3201 WEST 8TH STREET, LOS ANGELES, CA 90010",,,,exempt,LA,Los Angeles County,34.057794,-118.29885900000001,
LAUSD,NEW TECH HS - @JORDAN HS,"2265 E 103RD ST, LOS ANGELES,    CA 90002",,,,exempt,LA,Los Angeles County,33.943026,-118.231326,
LAUSD,NEW TECH HS @ ARLETA HS,"14200 VAN NUYS BLVD, ARLETA, CA 91331",,,,exempt,LA,Los Angeles County,34.251452,-118.44201299999999,
LAUSD,NEWCASTLE ELEMENTARY SCHOOL,"6520 NEWCASTLE AVE, RESEDA, CA 91335",,,,exempt,LA,Los Angeles County,34.18919,-118.52519099999999,
LAUSD,NEWMAN CH NUTR CTR,"2310 CHARLOTTE ST, LOS ANGELES,    CA 90033",,,,exempt,LA,Los Angeles County,34.056737,-118.202774,
LAUSD,NIGHTINGALE MS,"3311 N FIGUEROA ST, LOS ANGELES,    CA 90065",,,,exempt,LA,Los Angeles County,34.086662,-118.21888,
LAUSD,NIMITZ MIDDLE SCHOOL,"6021 CARMELITA AVE, HUNTINGTON PARK,CA 90255",,,,exempt,,Los Angeles County,33.98603,-118.196999,
LAUSD,NO HOLLYWOOD-POLY COMMUN ADULT SCHOOL-AEWC,"10952 WHIPPLE ST C, N HOLLYWOOD 91602",,,,exempt,LA,Los Angeles County,34.147985999999996,-118.36883,
LAUSD,NOBEL MIDDLE SCHOOL,"9950 TAMPA AVE, NORTHRIDGE,     CA 91324",,,,exempt,LA,Los Angeles County,34.241776,-118.553575,
LAUSD,NOBLE AVENUE ELEMENTARY SCHOOL,"8329 NOBLE AVE, SEPULVEDA,      CA 91343",,,,exempt,Los Angeles,Los Angeles County,34.223053,-118.46173999999999,
LAUSD,NOBLE EARLY EDUCATION CENTER,"8445 NOBLE AVE, NORTH HILLS, CA 91343",,,,exempt,LA,Los Angeles County,34.224089,-118.46122,
LAUSD,NORA STERRY ELEMENTARY,"1730 CORINTH AVE, LOS ANGELES,    CA 90025",,,,exempt,LA,Los Angeles County,34.044344,-118.44788999999999,
LAUSD,NORMANDIE EARLY EDUCATION CENTER,"4407 RAYMOND AVE, LOS ANGELES,    CA 90037",,,,exempt,LA,Los Angeles County,34.003522,-118.29811699999999,
LAUSD,NORMANDIE ELEMENTARY,"4505 S RAYMOND AVE, LOS ANGELES,    CA 90037",,,,exempt,LA,Los Angeles County,33.862728999999995,-118.29664,
LAUSD,NORMONT EARLY EDUCATION CENTER,"25028 PETROLEUM AVE, HARBOR CITY,    CA 90710",,,,exempt,LA,Los Angeles County,33.797384,-118.29361499999999,
LAUSD,NORMONT ELEMENTARY,"1001 W 253RD ST, HARBOR CITY,    CA 90710",,,,exempt,Lomita,Los Angeles County,33.794792,-118.292899,
LAUSD,NORTH HOLLYWOOD / GLUCK STATE PRE-SCHOOL,"10952 WHIPPLE ST C, N HOLLYWOOD 91602",,,,exempt,LA,Los Angeles County,34.147985999999996,-118.36883,
LAUSD,NORTH HOLLYWOOD COMMUNITY ADULT SCHOOL,"12431 ROSCOE BOULEVARD, SUN VALLEY, CA 91352",,,,exempt,LA,Los Angeles County,34.221613,-118.38991499999999,
LAUSD,NORTH HOLLYWOOD SENIOR HIGH,"5231 COLFAX AVE, N HOLLYWOOD,   CA 91601",,,,exempt,LA,Los Angeles County,34.166153,-118.387856,
LAUSD,NORTH HOLLYWOOD SENIOR HIGH ZOO/BIOLOGY MAGNET,"5336 CRYSTAL SPRINGS DR, LOS ANGELES,    CA 90027",,,,exempt,LA,Los Angeles County,34.118145,-118.27261899999999,
LAUSD,NORTH VALLEY OCCUPATIONAL CENTER,"11450 SHARP AVE, MISSION HILLS,  CA 91345",,,,exempt,Los Angeles,Los Angeles County,34.277994,-118.45655900000001,
LAUSD,NORTH VALLEY OCCUPATIONAL-AEWC,"11450 SHARP, MISSION HILLS,  CA",,,,exempt,Los Angeles,Los Angeles County,34.277994,-118.45655900000001,
LAUSD,NORTHRIDGE ACADEMY SENIOR HIGH,"9601 ZELZAH AVE., NORTHRIDGE, CA 91325",,,,exempt,LA,Los Angeles County,34.231141,-118.523073,
LAUSD,NORTHRIDGE MIDDLE SCHOOL,"17960 CHASE ST, NORTHRIDGE,     CA 91325",,,,exempt,LA,Los Angeles County,34.224523,-118.52533000000001,
LAUSD,NORTHRIDGE MS EARLY EDUCATION CENTER,"17960 CHASE ST, NORTHRIDGE, CA 91325",,,,exempt,LA,Los Angeles County,34.224523,-118.52533000000001,
LAUSD,NORWOOD EARLY EDUCATION CENTER,"855 W 21ST ST, LOS ANGELES,    CA 90007",,,,exempt,LA,Los Angeles County,34.034526,-118.278696,
LAUSD,NORWOOD ELEMENTARY,"2020 OAK ST, LOS ANGELES,    CA 90007",,,,exempt,LA,Los Angeles County,34.035247999999996,-118.278695,
LAUSD,NUEVA VISTA ELEMENTARY,"4412 RANDOLPH ST, BELL,           CA 90201",,,,exempt,,Los Angeles County,33.980862,-118.18873899999998,
LAUSD,NVOC AVIATION CTR (BR OF NVOC),"16550 SATICOY ST., VAN NUYS,  CA 91406",,,,exempt,LA,Los Angeles County,34.208345,-118.49395700000001,
LAUSD,O'MELVENY ELEMENTARY,"728 WOODWORTH ST, SAN FERNANDO,   CA 91340",,,,exempt,,Los Angeles County,34.275581,-118.444351,
LAUSD,OCEAN SCHOOL CHARTER @CRES #22,"12606 CULVER BLVD., LOS ANGELES, CA 90066",,,,exempt,LA,Los Angeles County,33.988562,-118.42241000000001,
LAUSD,ODYSSEY CONTINUATION HIGH,"8693 DEARBORN AVE, SOUTH GATE,   CA 90280",,,,exempt,South Gate,Los Angeles County,33.956821999999995,-118.210784,
LAUSD,OLIVE VISTA MIDDLE SCHOOL,"14600 TYLER ST, SYLMAR,         CA 91342",,,,exempt,LA,Los Angeles County,34.3128,-118.45026000000001,
LAUSD,OLYMPIC PRIMARY CENTER,"950 S ALBANY ST, LOS ANGELES, CA 90015",,,,exempt,LA,Los Angeles County,34.04857,-118.270517,
LAUSD,OPEN CHARTER MAGNET SCHOOL,"5540 W. 77TH ST, LOS ANGELES,    CA 90045",,,,exempt,LA,Los Angeles County,33.968468,-118.37748400000001,
LAUSD,OPPORTUNITIES UNLIMITED CHARTER HIGH SCHOOL,"10513 S VERMONT AVE, LOS ANGELES, CA 90044",,,,exempt,LA,Los Angeles County,33.940504,-118.29153600000001,
LAUSD,ORCHARD ACADEMIES 2B @ SRMS #2B (MSA #2A),"6411 ORCHARD AVE, BELL, CA 90201",,,,exempt,,Los Angeles County,33.979159,-118.19945700000001,
LAUSD,ORCHARD ACADEMIES 2C @ SRMS #2C (MSA #2A),"6411 ORCHARD AVE, BELL, CA 90201",,,,exempt,,Los Angeles County,33.979159,-118.19945700000001,
LAUSD,ORTHOPAEDIC HOSPITAL MEDICAL MAGNET HIGH SCHOOL,"300 WEST 23RD STREET, LOS ANGELES, CA 90007",,,,exempt,LA,Los Angeles County,34.029638,-118.272053,
LAUSD,OSCEOLA ELEMENTARY,"14940 OSCEOLA ST, SYLMAR,         CA 91342",,,,exempt,LA,Los Angeles County,34.290508,-118.45673500000001,
LAUSD,OSO ELEMENTARY - CLOSED SITE,"5724 OSO AVE, WOODLAND HILLS, CA 91367",,,,exempt,LA,Los Angeles County,34.174481,-118.577676,
LAUSD,OUR COMMUNITY CHARTER SCHOOL (FMR: DEVONSHIRE ES TRAINING CENTER),"10045 JUMILLA AVENUE, CHATSWORTH, CA 91311",,,,exempt,LA,Los Angeles County,34.253137,-118.56345300000001,
LAUSD,OVERLAND ELEMENTARY,"10650 ASHBY AVE, LOS ANGELES,    CA 90064",,,,exempt,LA,Los Angeles County,34.038528,-118.42093999999999,
LAUSD,OWENS (JESSIE) COMMUNITY DAY SCHOOL,"2400 W 54TH ST, LOS ANGELES, CA 90043",,,,exempt,LA,Los Angeles County,33.993119,-118.319404,
LAUSD,OWENSMOUTH CONTINUATION HIGH,"6921 JORDAN AVE, CANOGA PARK,    CA 91303",,,,exempt,LA,Los Angeles County,34.195721999999996,-118.60293999999999,
LAUSD,OXNARD SELEMENTARY SCHOOL,"10912 OXNARD ST, N HOLLYWOOD,   CA 91606",,,,exempt,LA,Los Angeles County,34.179409,-118.38995800000001,
LAUSD,PACIFIC BOULEVARD ELEMENTARY SCHOOL,"2660 E 57TH ST, HUNTINGTON PRK, CA 90255",,,,exempt,Huntington Park,Los Angeles County,33.990846000000005,-118.223697,
LAUSD,PACIFIC PALISADES ELEMENTARY,"800 VIA DE LA PAZ, PACIFIC PALISADES 90272",,,,exempt,LA,Los Angeles County,34.044863,-118.527575,
LAUSD,PACOIMA ADULT SKILL CENTER,"13545-B VAN NUYS BLVD, PACOIMA,        CA 91331",,,,exempt,LA,Los Angeles County,34.269956,-118.416825,
LAUSD,PACOIMA CHARTER ELEMENTARY,"11016 NORRIS AVE.,, PACOIMA, CA 91331",,,,exempt,LA,Los Angeles County,34.269884000000005,-118.415815,
LAUSD,PACOIMA EARLY EDUCATION CENTER,"11059 HERRICK AVE, PACOIMA,        CA 91331",,,,exempt,LA,Los Angeles County,34.270779,-118.41456299999999,
LAUSD,PACOIMA MIDDLE SCHOOL,"9919 LAUREL CANYON BLVD, PACOIMA,        CA 91331",,,,exempt,LA,Los Angeles County,34.250077000000005,-118.423042,
LAUSD,PACOIMA SKILLS CENTER AEWC,"13545-B VAN NUYS BLVD, PACOIMA,        CA 91331",,,,exempt,LA,Los Angeles County,34.269956,-118.416825,
LAUSD,PACOIMA STATE PRE-SCHOOL,"11016 NORRIS AVENUE, PACOIMA, CA 91331",,,,exempt,LA,Los Angeles County,34.269884000000005,-118.415815,
LAUSD,PALISADES CHARTER SENIOR HIGH SCHOOL,"15777 BOWDOIN ST, PAC PALISADES, CA 90272",,,,exempt,Los Angeles,Los Angeles County,34.047213,-118.530449,
LAUSD,PALMS ELEMENTARY,"3520 MOTOR AVE, LOS ANGELES,    CA 90034",,,,exempt,LA,Los Angeles County,34.026084999999995,-118.40815800000001,
LAUSD,PALMS MIDDLE SCHOOL,"10860 WOODBINE ST, LOS ANGELES,    CA 90034",,,,exempt,LA,Los Angeles County,34.024109,-118.41596299999999,
LAUSD,PANORAMA CITY ELEMENTARY SCHOOL (FMR: NOBLE ES #1),"8600 KESTER AVENUE, PANORAMA CITY, CA 91402",,,,exempt,LA,Los Angeles County,34.226397,-118.45737199999999,
LAUSD,PANORAMA SENIOR HIGH SCHOOL,"8015 VAN NUYS BLVD., PANORAMA CITY, CA 91402",,,,exempt,LA,Los Angeles County,34.220929999999996,-118.448857,
LAUSD,PARA LOS NINOS CHARTER @ GRATTS NEW PC,"474 S HARTFORD, LOS ANGELES, CA 90017",,,,exempt,Los Angeles,Los Angeles County,34.056218,-118.26392,
LAUSD,PARENT/COMMUNITY SERVICES BR,"1321 CORTEZ ST, LOS ANGELES,    CA 90026",,,,exempt,LA,Los Angeles County,34.065784,-118.256106,
LAUSD,PARK AVENUE ELEMENTARY,"8020 PARK AVENUE, CUDAHY, CA 90201",,,,exempt,,Los Angeles County,33.961179,-118.17380800000001,
LAUSD,PARK WESTERN EARLY EDUCATION CENTER,"1220 PARK WESTERN PL, SAN PEDRO,      CA 90732",,,,exempt,LA,Los Angeles County,33.753164,-118.304552,
LAUSD,PARK WESTERN ELEMENTARY,"1214 PARK WESTERN PL, SAN PEDRO,      CA 90732",,,,exempt,LA,Los Angeles County,33.753104,-118.304581,
LAUSD,PARK WESTERN STATE PRESCHOOL,"1214 PARK WESTERN PL, SAN PEDRO,      CA 90732",,,,exempt,LA,Los Angeles County,33.753104,-118.304581,
LAUSD,PARKS/HUERTA EARLY EDUCATION CENTER,"1020 WEST 58TH PLACE, LOS ANGELES, CA 90044",,,,exempt,LA,Los Angeles County,33.988261,-118.29201100000002,
LAUSD,PARMELEE ELEMENTARY,"1338 E 76TH PL, LOS ANGELES,    CA 90001",,,,exempt,LA,Los Angeles County,33.97068,-118.251139,
LAUSD,PARTHENIA STREET ELEMENTARY,"16825 NAPA ST, NORTH HILLS, CA 91343",,,,exempt,LA,Los Angeles County,34.226475,-118.469849,
LAUSD,PASEO DEL REY NATURAL SCIENCE MAGNET,"7751 PASEO DEL REY, PLAYA DEL REY,  CA 90293",,,,exempt,LA,Los Angeles County,33.956291,-118.43344599999999,
LAUSD,PATTON CONTINUATION HIGH,"24514 S WESTERN AVE, HARBOR CITY,    CA 90710",,,,exempt,LA,Los Angeles County,33.802813,-118.30731200000001,
LAUSD,PC-MIDCITIES CLS EMP @MILLER ES,"944 W 77TH, LOS ANGELES,    CA 90044",,,,exempt,Los Angeles,Los Angeles County,33.969664,-118.291524,
LAUSD,PEARY MIDDLE SCHOOL,"1415 W GARDENA BLVD, GARDENA,        CA 90247",,,,exempt,Gardena,Los Angeles County,33.881876,-118.300407,
LAUSD,PEREZ SPECIAL EDUCATION CENTER,"4540 MICHIGAN AVE, LOS ANGELES, CA 90022",,,,exempt,,Los Angeles County,34.038672,-118.16826999999999,
LAUSD,PEREZ STATE PRESCHOOL (Same Campus as Perez Special Education Center),"4540 MICHIGAN AVE, LOS ANGELES, CA 90022",,,,exempt,,Los Angeles County,34.038672,-118.16826999999999,
LAUSD,PINEWOOD EARLY EDUCATION CENTER,"7051 VALMONT ST, TUJUNGA,        CA 91042",,,,exempt,LA,Los Angeles County,34.252054,-118.28351699999999,
LAUSD,PINEWOOD ELEMENTARY,"10111 SILVERTON AVE, TUJUNGA,        CA 91042",,,,exempt,LA,Los Angeles County,34.253084,-118.28509199999999,
LAUSD,PINEWOOD STATE PRE-SCHOOL,"10111 SILVERTON AVE, TUJUNGA,        CA 91042",,,,exempt,LA,Los Angeles County,34.253084,-118.28509199999999,
LAUSD,PIO PICO SCHOOL,"1512 S ARLINGTON AVE, LOS ANGELES,    CA 90019",,,,exempt,Los Angeles,Los Angeles County,34.045097,-118.3172,
LAUSD,PLAINVIEW ELEMENTARY,"10819 PLAINVIEW AVE, TUJUNGA,        CA 91042",,,,exempt,LA,Los Angeles County,34.253429,-118.297941,
LAUSD,PLASENCIA ELEMENTARY,"1321 CORTEZ ST, LOS ANGELES,    CA 90026",,,,exempt,LA,Los Angeles County,34.065784,-118.256106,
LAUSD,PLATT RANCH ELEMENTARY - CLOSED SITE,"5324 WILHELMINA AVE, WOODLSND HILLS, CA 91367",,,,exempt,Los Angeles,Los Angeles County,34.166446,-118.642572,
LAUSD,PLAYA DEL REY ELEMENTARY,"12221 JUNIETTE ST, CULVER CITY,    CA 90230",,,,exempt,,Los Angeles County,33.985514,-118.404207,
LAUSD,PLAYA VISTA ELEMENTARY (FMR: CENTRAL REGION ES #22),"13150 W BLUFF CREEK DR, PLAYA VISTA, CA 90094",,,,exempt,LA,Los Angeles County,33.975644,-118.412659,
LAUSD,PLUMMER ELEMENTARY,"9340 NOBLE AVE, NORTH HILLS, CA 91343",,,,exempt,LA,Los Angeles County,34.240491999999996,-118.460893,
LAUSD,POINT FERMIN CAMP,"3200 ALMA STREET, SAN PEDRO, CA 90731",,,,exempt,Los Angeles,Los Angeles County,33.715790000000005,-118.29881,
LAUSD,POINT FERMIN MARINE SCIENCE MAGNET,"3333 KERCKHOFF AVE, SAN PEDRO,      CA 90731",,,,exempt,Los Angeles,Los Angeles County,33.71392,-118.290438,
LAUSD,POLITI ELEMENTARY,"2481 W 11TH ST, LOS ANGELES,    CA 90006",,,,exempt,LA,Los Angeles County,34.050876,-118.28668700000001,
LAUSD,POMELO ELEMENTARY,"7633 MARCH AVE, WEST HILLS, CA 91304",,,,exempt,LA,Los Angeles County,34.208873,-118.64197800000001,
LAUSD,PORT OF LOS ANGELES HIGH SCHOOL,"250 WEST 5TH STREET, SAN PEDRO, CA 90731",,,,exempt,LA,Los Angeles County,33.739934000000005,-118.282432,
LAUSD,PORTER MIDDLE SCHOOL,"15960 KINGSBURY ST, GRANADA HILLS,  CA 91344",,,,exempt,LA,Los Angeles County,34.263465999999994,-118.479681,
LAUSD,PORTER RANCH COMMUNITY SCHOOL (FRM: VR SPAN K-8 #2),"12450 MASON AVE, PORTER RANCH, CA 91326",,,,exempt,Los Angeles,Los Angeles County,34.293056,-118.58129699999999,
LAUSD,PRESIDENT ELEMENTARY,"1465 W 243RD ST, HARBOR CITY,    CA 90710",,,,exempt,LA,Los Angeles County,33.804092,-118.302596,
LAUSD,PRESIDENT STATE PRESCHOOL,"1465 W 243RD ST, HARBOR CITY,    CA 90710",,,,exempt,LA,Los Angeles County,33.804092,-118.302596,
LAUSD,PRIMARY ACADEMY FOR SUCCESS,"9075 WILLIS AVE, PANORAMA CITY,  CA 91402",,,,exempt,LA,Los Angeles County,34.234912,-118.455386,
LAUSD,PUBLIC SERVICE COMMUNITY SCHOOL (FMR: SRHS #2),"6100 S CENTRAL AVE, LOS ANGELES, CA 90001",,,,exempt,LA,Los Angeles County,33.92528,-118.254327,
LAUSD,PUEBLO DE LOS ANGELES CONTINUATION HIGH,"2506 ALTA ST, LOS ANGELES,    CA 90031",,,,exempt,LA,Los Angeles County,34.075755,-118.203864,
LAUSD,QUEEN ANNE EARLY EDUCATION CENTER,"1212 QUEEN ANN PLACE, LOS ANGELES,    CA 90019",,,,exempt,Los Angeles,Los Angeles County,34.052001000000004,-118.330945,
LAUSD,QUEEN ANNE ELEMENTARY,"1212 QUEEN ANNE PL, LOS ANGELES,    CA 90019",,,,exempt,LA,Los Angeles County,34.051091,-118.33146299999999,
LAUSD,QUINCY JONES ELEMENTARY (FRM:CRES #17A),"900 E 33RD ST, LOS ANGELES, CA 90011",,,,exempt,LA,Los Angeles County,34.014509999999994,-118.26075900000001,
LAUSD,RAMON C. CORTINES SCHOOL OF VISUAL AND PERFORMING ARTS (FMR: CENTRAL L.A. AREA NEW SH #9),"450 N GRAND AVE, LOS ANGELES, CA 90012",,,,exempt,LA,Los Angeles County,34.059569,-118.244869,
LAUSD,RAMONA ELEMENTARY,"1133 N MARIPOSA AVE, LOS ANGELES,    CA 90029",,,,exempt,LA,Los Angeles County,34.091628,-118.29951000000001,
LAUSD,RAMONA INFANT,"231 S ALMA AVE, LOS ANGELES,    CA 90063",,,,exempt,LA,Los Angeles County,34.033623999999996,-118.19116899999999,
LAUSD,RAMONA OPPORTUNITY HIGH SCHOOL (NEW CONSTRUCTION),"231 S ALMA AVE, LOS ANGELES, CA 90063",,,,exempt,LA,Los Angeles County,34.033623999999996,-118.19116899999999,
LAUSD,RANCHITO ELEMENTARY,"7940 RANCHITO AVE, PANORAMA CITY,  CA 91402",,,,exempt,LA,Los Angeles County,34.2151,-118.43451200000001,
LAUSD,RANCHO DOMINGUEZ PREP HS (FRM: SRHS #4),"4110 SANTA FE AVE, LONG BEACH, CA 90810",,,,exempt,Long Beach,Los Angeles County,33.817095,-118.215529,
LAUSD,RAYMOND ELEMENTARY,"7511 RAYMOND AVE, LOS ANGELES,    CA 90044",,,,exempt,LA,Los Angeles County,33.972249,-118.29820600000001,
LAUSD,REED MIDDLE SCHOOL,"4525 IRVINE AVE, N HOLLYWOOD,   CA 91602",,,,exempt,LA,Los Angeles County,34.152688,-118.385599,
LAUSD,RESEDA COMMUNITY ADULT SCHOOL,"18230 KITTRIDGE ST, RESEDA,         CA 91335",,,,exempt,LA,Los Angeles County,34.190148,-118.53029099999999,
LAUSD,RESEDA ELEMENTARY SCHOOL,"7265 AMIGO AVE, RESEDA,         CA 91335",,,,exempt,LA,Los Angeles County,34.202389000000004,-118.538696,
LAUSD,RESEDA SENIOR HIGH,"18230 KITTRIDGE ST, RESEDA,         CA 91335",,,,exempt,LA,Los Angeles County,34.190148,-118.53029099999999,
LAUSD,REVERE MIDDLE SCHOOL,"1450 ALLENFORD AVE, LOS ANGELES,    CA 90049",,,,exempt,Santa Monica,Los Angeles County,34.054741,-118.49495300000001,
LAUSD,RICHARD ALONZO COMMUNITY DAY SCHOOL (FRMR: JOHNSON CDS),"5755 FOUNTAIN AVENUE, LOS ANGELES, CA 90028",,,,exempt,LA,Los Angeles County,34.094807,-118.31490900000001,
LAUSD,RICHARD N. SLAWSON SOUTHEAST OCCUPATIONAL CENTER,"5500 RICKENBACKER RD., BELL, CA 90201",,,,exempt,,Los Angeles County,33.989115999999996,-118.16153999999999,
LAUSD,RICHARD RIORDAN PRIMARY CENTER,"5531 MONTE VISTA STREET, LOS ANGELES, CA 90042",,,,exempt,LA,Los Angeles County,34.11076,-118.196688,
LAUSD,RICHLAND ELEMENTARY,"11562 RICHLAND AVE, LOS ANGELES,    CA 90064",,,,exempt,LA,Los Angeles County,34.028509,-118.44035600000001,
LAUSD,RILEY HIGH SCHOOL - CYESIS,"1524 E 103RD ST, LOS ANGELES,    CA 90002",,,,exempt,LA,Los Angeles County,33.943183000000005,-118.247297,
LAUSD,RILEY HS (EAST BRANCH) @WILSON HS,"1524 E 103RD ST, LOS ANGELES,    CA 90002",,,,exempt,LA,Los Angeles County,33.943183000000005,-118.247297,
LAUSD,RILEY HS - GARDENA BRANCH (@ 186TH ST ES),"1524 E 103RD ST, LOS ANGELES,    CA 90002",,,,exempt,LA,Los Angeles County,33.943183000000005,-118.247297,
LAUSD,RIO VISTA ELEMENTARY,"4243 SATSUMA AVE, N HOLLYWOOD,   CA 91602",,,,exempt,LA,Los Angeles County,34.147328,-118.3674,
LAUSD,RITTER ELEMENTARY,"11108 WATTS AVE, LOS ANGELES,    CA 90059",,,,exempt,,Los Angeles County,33.934277,-118.22778799999999,
LAUSD,RIVERSIDE ELEMENTARY,"13061 RIVERSIDE DR, SHERMAN OAKS,   CA 91423",,,,exempt,LA,Los Angeles County,34.157612,-118.44404399999999,
LAUSD,ROBERT F. KENNEDY COMMUNITY OF SCHOOLS (FRM: CENTRAL LA NEW LEARNING CENTER #1),"701 S. CATALINA ST, LOS ANGELES, CA 90005",,,,exempt,LA,Los Angeles County,34.061869,-118.295367,
LAUSD,ROBERT FULTON COLLEGE PREPARATORY SCHOOL,"7477 KESTER AVE, VAN NUYS,       CA 91405",,,,exempt,LA,Los Angeles County,34.206367,-118.45756200000001,
LAUSD,ROBERT HILL LANE ELEMENTARY,"1500 CESAR CHAVEZ, MONTEREY PARK, CA 91754",,,,exempt,Monterey Park,Los Angeles County,34.039747,-118.152239,
LAUSD,ROBERTI EARLY EDUCATION CENTER,"1156 E VERNON AVE, LOS ANGELES,    CA 90011",,,,exempt,LA,Los Angeles County,34.003824,-118.25518500000001,
LAUSD,ROCKDALE ELEMENTARY SCHOOL,"1303 YOSEMITE DR, LOS ANGELES,    CA 90041",,,,exempt,LA,Los Angeles County,34.133296,-118.19372299999999,
LAUSD,RODIA CONTINUATION HIGH,"2315 E 103RD ST, LOS ANGELES,    CA 90002",,,,exempt,LA,Los Angeles County,33.943021,-118.230406,
LAUSD,ROGERS CONTINUATION HIGH @ VAN NUYS HS,"14711 GILMORE ST, VAN NUYS, CA 91411",,,,exempt,LA,Los Angeles County,34.187874,-118.45396399999998,
LAUSD,ROOSEVELT CAS ALTERNATIVE EDUCATION WORK CENTER,"1241 S. SOTO STREET, SUITE 118, LOS ANGELES, CA 90023",,,,exempt,Los Angeles,Los Angeles County,34.027525,-118.21985900000001,
LAUSD,ROOSEVELT COMMUNITY ADULT SCHOOL,"456 S MATHEWS ST, LOS ANGELES,    CA 90033",,,,exempt,LA,Los Angeles County,34.039148,-118.211171,
LAUSD,ROOSEVELT INFANT / EARLY EDUCATION CENTER,"456 S MATTHEWS ST, LOS ANGELES,    CA 90033",,,,exempt,Los Angeles,Los Angeles County,34.037521999999996,-118.212006,
LAUSD,ROOSEVELT SENIOR HIGH,"456 S MATHEWS ST, LOS ANGELES,    CA 90033",,,,exempt,LA,Los Angeles County,34.039148,-118.211171,
LAUSD,ROSA PARKS LEARNING CENTER,"8855 NOBLE AVE, NORTH HILLS, CA 91343",,,,exempt,LA,Los Angeles County,34.230955,-118.461699,
LAUSD,ROSCOE ELEMENTARY,"10765 STRATHERN ST, SUN VALLEY,     CA 91352",,,,exempt,LA,Los Angeles County,34.215771000000004,-118.366475,
LAUSD,ROSCOMARE ELEMENTARY,"2425 ROSCOMARE RD, LOS ANGELES,    CA 90077",,,,exempt,LA,Los Angeles County,34.120158,-118.464533,
LAUSD,ROSEMONT EARLY EDUCATION CENTER,"430 N ROSEMONT AVE, LOS ANGELES,    CA 90026",,,,exempt,LA,Los Angeles County,34.071808000000004,-118.269658,
LAUSD,ROSEMONT ELEMENTARY,"421 N ROSEMONT AVE, LOS ANGELES,    CA 90026",,,,exempt,LA,Los Angeles County,34.071371,-118.270122,
LAUSD,ROSEWOOD EARLY EDUCATION CENTER,"510 N ALFRED ST, LOS ANGELES,    CA 90048",,,,exempt,West Hollywood,Los Angeles County,34.080445000000005,-118.37515800000001,
LAUSD,ROSEWOOD ELEMENTARY,"503 N CROFT AVE, LOS ANGELES,    CA 90048",,,,exempt,West Hollywood,Los Angeles County,34.080318,-118.374307,
LAUSD,ROWAN ELEMENTARY,"600 S ROWAN AVE, LOS ANGELES, CA 90023",,,,exempt,,Los Angeles County,34.027186,-118.187317,
LAUSD,ROY ROMER MIDDLE SCHOOL,"6501 LAUREL CANYON BLVD, N HOLLYWOOD, CA 91606",,,,exempt,LA,Los Angeles County,34.188612,-118.39661000000001,
LAUSD,ROYBAL-ALLARD ES (FRM: SRES #5),"3232 SATURN AVE, HUNTINGTON PRK, CA 90255",,,,exempt,Huntington Park,Los Angeles County,33.975882,-118.209826,
LAUSD,RUSSELL ELEMENTARY,"1263 E FIRESTONE BLVD, LOS ANGELES,    CA 90001",,,,exempt,Los Angeles,Los Angeles County,33.96052,-118.251703,
LAUSD,SALVIN SPECIAL EDUCATION CENTER,"1925 BUDLONG AVE, LOS ANGELES,    CA 90007",,,,exempt,LA,Los Angeles County,34.039691,-118.296319,
LAUSD,SAN ANTONIO CONTINUATION HIGH,"2861 RANDOLPH ST, HUNTINGTON PARK,CA 90255",,,,exempt,,Los Angeles County,33.985075,-118.219577,
LAUSD,SAN ANTONIO ELEMENTARY,"6222 STATE ST, HUNTINGTON PARK,CA 90255",,,,exempt,,Los Angeles County,33.983606,-118.212498,
LAUSD,SAN FERNANDO EARLY EDUCATION CENTER,"1204 WOODWORTH ST, SAN FERNANDO,   CA 91340",,,,exempt,,Los Angeles County,34.279993,-118.449008,
LAUSD,SAN FERNANDO ELEMENTARY SCHOOL,"1130 MOTT ST, SAN FERNANDO,   CA 91340",,,,exempt,,Los Angeles County,34.279542,-118.44740300000001,
LAUSD,SAN FERNANDO MIDDLE SCHOOL,"130 N BRAND BLVD, SAN FERNANDO,   CA 91340",,,,exempt,,Los Angeles County,34.282533,-118.43853,
LAUSD,SAN FERNANDO SENIOR HIGH,"11133 O'MELVENY AVE, SAN FERNANDO,   CA 91340",,,,exempt,,Los Angeles County,34.271566,-118.44126200000001,
LAUSD,SAN GABRIEL ELEMENTARY,"8628 SAN GABRIEL AVE, SOUTH GATE,     CA 90280",,,,exempt,South Gate,Los Angeles County,33.956542999999996,-118.20202900000001,
LAUSD,SAN JOSE ELEMENTARY,"14928 CLYMER ST, MISSION HILLS,  CA 91345",,,,exempt,LA,Los Angeles County,34.262556,-118.457123,
LAUSD,SAN MIGUEL ELEMENTARY,"9801 SAN MIGUEL AVE, SOUTH GATE,     CA 90280",,,,exempt,South Gate,Los Angeles County,33.944705,-118.200782,
LAUSD,SAN PASCUAL ELEMENTARY,"815 SAN PASCUAL AVE, LOS ANGELES,    CA 90042",,,,exempt,LA,Los Angeles County,34.11865,-118.17199699999999,
LAUSD,SAN PEDRO / WILMINGTON EARLY EDUCATION CENTER,"3605 SOUTH GAFFEY ST, SAN PEDRO, CA 90731",,,,exempt,LA,Los Angeles County,33.737466,-118.29233700000002,
LAUSD,SAN PEDRO CAS EARLY EDUCATION CENTER,"950 W SANTA CRUZ ST, SAN PEDRO,      CA 90731",,,,exempt,LA,Los Angeles County,33.744724,-118.298254,
LAUSD,SAN PEDRO COMMUNITY ADULT SCHOOL AEWC,"1001 W 15TH ST, SAN PEDRO,      CA 90731",,,,exempt,LA,Los Angeles County,33.730548999999996,-118.299127,
LAUSD,SAN PEDRO ELEMENTARY,"1635 S SAN PEDRO ST, LOS ANGELES,    CA 90015",,,,exempt,LA,Los Angeles County,33.97354,-118.269549,
LAUSD,SAN PEDRO HLTH CNTR,"732 S CABRILLO AVE, SAN PEDRO,      CA 90731",,,,exempt,LA,Los Angeles County,33.737532,-118.29443700000002,
LAUSD,SAN PEDRO SCI CTR,"2201 BARRYWOOD, SAN PEDRO,      CA 90731",,,,exempt,LA,Los Angeles County,33.764265,-118.296299,
LAUSD,SAN PEDRO SENIOR HIGH,"1001 W 15TH ST, SAN PEDRO,      CA 90731",,,,exempt,LA,Los Angeles County,33.730548999999996,-118.299127,
LAUSD,SAN PEDRO STATE PRESCHOOL,"1635 SAN PEDRO ST, LOS ANGELES,    CA 90015",,,,exempt,LA,Los Angeles County,34.029249,-118.25648600000001,
LAUSD,SAN PEDRO/WILMINGTON ADULT SKL CTR,"920 W 36TH ST BLDG 950, SAN PEDRO, CA 90731",,,,exempt,Los Angeles,Los Angeles County,33.713573,-118.297723,
LAUSD,SANDRA CISNEROS LEARNING ACADEMY (FRM: CRES #14),"1018 MOHAWK STREET, LOS ANGELES, CA 90026",,,,exempt,LA,Los Angeles County,34.07658,-118.265345,
LAUSD,SANTA MONICA COMMUNITY CHARTER SCHOOL,"1022 N VAN NESS AVE, LOS ANGELES,    CA 90038",,,,exempt,LA,Los Angeles County,34.089339,-118.315628,
LAUSD,SANTEE EDUCATION COMPLEX,"1921 S MAPLE AVE, LOS ANGELES, CA 90011",,,,exempt,Montebello,Los Angeles County,34.00845,-118.117636,
LAUSD,SARA COUGHLIN ELEMENTARY SCHOOL,"11035 BORDEN AVENUE, PACOIMA, CA 91331",,,,exempt,LA,Los Angeles County,34.270368,-118.40248700000001,
LAUSD,SATICOY ELEMENTARY,"7850 ETHEL AVE, N HOLLYWOOD,   CA 91605",,,,exempt,LA,Los Angeles County,34.19155,-118.417852,
LAUSD,SATURN ELEMENTARY,"5360 SATURN ST, LOS ANGELES,    CA 90019",,,,exempt,LA,Los Angeles County,34.046618,-118.35576,
LAUSD,SCHOOL OF HISTORY & DRAMATIC ARTS @ SANDRA SOTOMAYOR LEARNING ACADEMY (FMR:CRHS #13B),"2050 NORTH SAN FERNANDO RD, LOS ANGELES, CA 90065",,,,exempt,Los Angeles,Los Angeles County,34.10226,-118.237398,
LAUSD,SCHOOL POLICE SUB-STATION @ BIRMINGHAM SITE,"1330 WEST PICO BLVD., LOS ANGELES, CA 90015",,,,exempt,LA,Los Angeles County,34.043015999999994,-118.27351999999999,
LAUSD,SECONDARY CDS - INDIAN SPRINGS @ UNIVERSITY SH,"1441 S BARRINGTON AVE , LOS ANGELES, CA 90025",,,,exempt,LA,Los Angeles County,34.04546,-118.457394,
LAUSD,SELMA ELEMENTARY,"6611 SELMA AVE, LOS ANGELES,    CA 90028",,,,exempt,LA,Los Angeles County,34.09984,-118.33319399999999,
LAUSD,SELMA STATE PRESCHOOL,"6611 SELMA AVENUE, LOS ANGELES,  CA 90028",,,,exempt,LA,Los Angeles County,34.09984,-118.33319399999999,
LAUSD,SEPULVEDA MIDDLE SCHOOL,"15330 PLUMMER ST, NORTH HILLS, CA 91343",,,,exempt,LA,Los Angeles County,34.24269,-118.46603400000001,
LAUSD,SERRANIA AVE. ELEMENTARY SCHOOL,"5014 SERRANIA AVE, WOODLAND HILLS, CA 91364",,,,exempt,LA,Los Angeles County,34.159931,-118.58825700000001,
LAUSD,SHARP AVENUE ELEMENTARY,"13800 PIERCE ST, ARLETA, CA 91331",,,,exempt,LA,Los Angeles County,34.253257,-118.43230700000001,
LAUSD,SHENANDOAH EARLY EDUCATION CENTER,"8861 BEVERLYWOOD ST, LOS ANGELES,    CA 90034",,,,exempt,LA,Los Angeles County,34.037797,-118.385296,
LAUSD,SHENANDOAH ELEMENTARY,"2450 SHENANDOAH ST, LOS ANGELES,    CA 90034",,,,exempt,Los Angeles,Los Angeles County,34.038507,-118.384125,
LAUSD,SHERIDAN ELEMENTARY,"416 N CORNWELL ST, LOS ANGELES,    CA 90033",,,,exempt,LA,Los Angeles County,34.049886,-118.20818700000001,
LAUSD,SHERMAN OAKS CENTER FOR ENRICHED STUDIES,"18605 ERWIN ST, RESEDA,         CA 91335",,,,exempt,LA,Los Angeles County,34.183953,-118.538909,
LAUSD,SHERMAN OAKS ELEMENTARY,"14755 GREENLEAF ST, SHERMAN OAKS,   CA 91403",,,,exempt,LA,Los Angeles County,34.149894,-118.455175,
LAUSD,SHIRLEY ELEMENTARY,"19452 HART ST, RESEDA,         CA 91335",,,,exempt,LA,Los Angeles County,34.19737,-118.557452,
LAUSD,SHORT ELEMENTARY,"12814 MAXELLA AVE, LOS ANGELES,    CA 90066",,,,exempt,,Los Angeles County,33.991071000000005,-118.432461,
LAUSD,SIERRA PARK ELEMENTARY,"3170 BUDAU AVE, LOS ANGELES,    CA 90032",,,,exempt,LA,Los Angeles County,34.081979,-118.169486,
LAUSD,SIERRA PARK STATE PRE-SCHOOL,"3170 BUDAU AVE, LOS ANGELES,    CA 90032",,,,exempt,LA,Los Angeles County,34.081979,-118.169486,
LAUSD,SIERRA VISTA ELEMENTARY,"4342 ALPHA ST, LOS ANGELES,    CA 90032",,,,exempt,,Los Angeles County,34.095329,-118.159268,
LAUSD,SIMON RODIA CONTINUATION HIGH SCHOOL,"2701 SEQUOIA DR, SOUTH GATE, CA 90280",,,,exempt,South Gate,Los Angeles County,33.942023,-118.22138400000001,
LAUSD,SOLANO ELEMENTARY,"615 SOLANO AVE, LOS ANGELES,    CA 90012",,,,exempt,LA,Los Angeles County,34.075936999999996,-118.232301,
LAUSD,SOTO EARLY EDUCATION CENTER,"2616 E 7TH ST, LOS ANGELES,    CA 90023",,,,exempt,LA,Los Angeles County,34.031369,-118.215116,
LAUSD,SOTO STREET ANNEX,"2151 N SOTO ST, LOS ANGELES,    CA 90032",,,,exempt,Los Angeles,Los Angeles County,34.069514,-118.196627,
LAUSD,SOUTH EAST SENIOR HIGH,"2720 TWEEDY BLVD, SOUTH GATE, CA 90280",,,,exempt,South Gate,Los Angeles County,33.945859000000006,-118.221575,
LAUSD,SOUTH GATE MIDDLE SCHOOL,"4100 FIRESTONE BLVD, SOUTH GATE,     CA 90280",,,,exempt,South Gate,Los Angeles County,33.95128,-118.19815,
LAUSD,SOUTH GATE SENIOR HIGH,"3351 FIRESTONE BLVD, SOUTH GATE,     CA 90280",,,,exempt,South Gate,Los Angeles County,33.952323,-118.186116,
LAUSD,SOUTH PARK ELEMENTARY,"8510 TOWNE AVE, LOS ANGELES,    CA 90003",,,,exempt,LA,Los Angeles County,33.960840999999995,-118.267401,
LAUSD,SOUTH REGION EARLY EDUCATION CENTER #2 @ SRES #4,"8914 HUNT AVENUE, SOUTH GATE, CA 90280",,,,exempt,South Gate,Los Angeles County,33.947243,-118.19179799999999,
LAUSD,SOUTH REGION ELEMENTARY SCHOOL #1 (DR. OWEN LLOYD KNOX ES),"8919 S MAIN ST, LOS ANGELES, CA 90003",,,,exempt,LA,Los Angeles County,33.955290999999995,-118.27396599999999,
LAUSD,SOUTH REGION ELEMENTARY SCHOOL #2,"1125 E 74TH ST, LOS ANGELES, CA 90001",,,,exempt,LA,Los Angeles County,33.9732,-118.25581100000001,
LAUSD,SOUTH REGION ELEMENTARY SCHOOL #5,"3232 SATURN AVE, HUNTINGTON PRK, CA 90255",,,,exempt,Huntington Park,Los Angeles County,33.975882,-118.209826,
LAUSD,SOUTH REGION ES #10,"4410 ORCHARD AVE, LOS ANGELES, CA 90037",,,,exempt,LA,Los Angeles County,34.003478,-118.288886,
LAUSD,SOUTH REGION ES #11,"929 W 69TH STREET, LOS ANGELES, CA 90044",,,,exempt,LA,Los Angeles County,33.977335,-118.289933,
LAUSD,SOUTH REGION HS #12,"8800 S SAN PEDRO ST, LOS ANGELES, CA 90003",,,,exempt,LA,Los Angeles County,33.974349,-118.269549,
LAUSD,SOUTH REGION HS #8 @ SRHS #9,"5225 TWEEDY BLVD, SOUTH GATE, CA 90280",,,,exempt,South Gate,Los Angeles County,33.94117,-118.179428,
LAUSD,SOUTH REGION MIDDLE SCHOOL #2 (SITE CONSTRUCTION ORG ONLY),"6411 ORCHARD AVE, BELL, CA 90201",,,,exempt,,Los Angeles County,33.979159,-118.19945700000001,
LAUSD,SOUTH REGION SH #15,"3210 S ALMA ST, SAN PEDRO, CA 90731",,,,exempt,LA,Los Angeles County,33.718044,-118.29934899999999,
LAUSD,SOUTH SHORES/CSUDH MAGNET,"2060 W 35TH ST, SAN PEDRO,      CA 90732",,,,exempt,LA,Los Angeles County,33.722069,-118.321947,
LAUSD,SOUTHEAST MIDDLE SCHOOL,"2560 TWEEDY BLVD., SOUTH GATE, CA 90280",,,,exempt,South Gate,Los Angeles County,33.94638,-118.226271,
LAUSD,STAGG ELEMENTARY,"7839 AMESTOY AVE, LAKE BALBOA, CA 91406",,,,exempt,Los Angeles,Los Angeles County,34.212952,-118.506579,
LAUSD,STAGG STATE PRESCHOOL,"7839 AMESTOY AVE., LAKE BALBOA, CA 91406",,,,exempt,Los Angeles,Los Angeles County,34.212952,-118.506579,
LAUSD,STANFORD ELEMENTARY,"2833 ILLINOIS AVE, SOUTH GATE,     CA 90280",,,,exempt,South Gate,Los Angeles County,33.951055,-118.22226,
LAUSD,STANFORD PRIMARY CENTER,"3020 KANSAS AVENUE, SOUTH GATE, CA 90280",,,,exempt,South Gate,Los Angeles County,33.948696000000005,-118.218303,
LAUSD,STANLEY MOSK ELEMENTARY (FMR: VRES #10),"7335 LUBAO AVENUE, WINNETKA,  CA 91306",,,,exempt,LA,Los Angeles County,34.203447,-118.56808000000001,
LAUSD,STATE EARLY EDUCATION CENTER,"3210 BROADWAY, HUNTINGTON PARK,CA 90255",,,,exempt,,Los Angeles County,33.965157,-118.21131100000001,
LAUSD,STATE ELEMENTARY,"3211 SANTA ANA ST, SOUTH GATE,     CA 90280",,,,exempt,,Los Angeles County,33.963515,-118.21168700000001,
LAUSD,STERRY EARLY EDUCATION CENTER,"1747 SAWTELLE BLVD, LOS ANGELES,    CA 90025",,,,exempt,LA,Los Angeles County,34.044616999999995,-118.446926,
LAUSD,STEVENSON MIDDLE SCHOOL,"725 S INDIANA ST, LOS ANGELES,    CA 90023",,,,exempt,,Los Angeles County,34.025985,-118.192412,
LAUSD,STONEHURST AVE. ES STATE PRE-SCHOOL,"9851 STONEHURST AVE, SUN VALLEY, CA 91352",,,,exempt,Los Angeles,Los Angeles County,34.249666,-118.36988899999999,
LAUSD,STONEHURST ELEMENTARY,"9851 STONEHURST AVE, SUN VALLEY,     CA 91352",,,,exempt,Los Angeles,Los Angeles County,34.249666,-118.36988899999999,
LAUSD,STONER ELEMENTARY,"11735 BRADDOCK DR, CULVER CITY,    CA 90230",,,,exempt,,Los Angeles County,34.009862,-118.401533,
LAUSD,STONEY POINT CONTINUATION HIGH,"10010 DE SOTO AVE, CHATSWORTH,     CA 91311",,,,exempt,LA,Los Angeles County,34.252089,-118.588457,
LAUSD,STRATHERN ELEMENTARY,"7939 ST CLAIR AVE, N HOLLYWOOD,   CA 91605",,,,exempt,LA,Los Angeles County,34.21465,-118.39990900000001,
LAUSD,STUDENT ASSESSMENT CENTER @ PLASENCIA ES,"359 N E EDGEWARE RD, LOS ANGELES,    CA 90026",,,,exempt,LA,Los Angeles County,34.065319,-118.255618,
LAUSD,STUDENT EMPOWERMENT ACADEMY @ JEFFERSON SH,"1319 E 41ST ST, LOS ANGELES, CA 90011",,,,exempt,LA,Los Angeles County,34.009298,-118.25173899999999,
LAUSD,SUN VAL BUS GARAGE,"11247 SHERMAN WAY, SUN VALLEY,     CA 91352",,,,exempt,LA,Los Angeles County,34.201279,-118.375874,
LAUSD,SUN VALLEY MIDDLE SCHOOL,"7330 BAKMAN AVE, SUN VALLEY,     CA 91352",,,,exempt,LA,Los Angeles County,34.203613,-118.377792,
LAUSD,SUN VALLEY SH (VALLEY REGION BYRD MS SITE RECONFIG),"9171 TELFAIR AVE, SUN VALLEY, CA 91352",,,,exempt,LA,Los Angeles County,34.236069,-118.396565,
LAUSD,SUNLAND ELEMENTARY,"8350 HILLROSE ST, SUNLAND,        CA 91040",,,,exempt,LA,Los Angeles County,34.263263,-118.31460700000001,
LAUSD,SUNLAND ES STATE PRE-SCHOOL,"8350 HILLROSE STREET, SUNLAND,  CA 91040",,,,exempt,LA,Los Angeles County,34.263263,-118.31460700000001,
LAUSD,SUNNY BRAE ELEMENTARY,"20620 ARMINTA ST, CANOGA PARK,    CA 91306",,,,exempt,LA,Los Angeles County,34.213599,-118.58961299999999,
LAUSD,SUNRISE ELEMENTARY,"2821 E 7TH ST, LOS ANGELES,    CA 90023",,,,exempt,LA,Los Angeles County,34.029681,-118.210926,
LAUSD,SUPERIOR ELEMENTARY,"9756 OSO AVE, CHATSWORTH,     CA 91311",,,,exempt,LA,Los Angeles County,34.247923,-118.575296,
LAUSD,SUPPORT UNIT-CENTRAL/WEST,"3741 S. LA BREA AVE., LOS ANGELES, CA 90016",,,,exempt,LA,Los Angeles County,34.064906,-118.34403700000001,
LAUSD,SUTTER MIDDLE SCHOOL,"7330 WINNETKA AVE, CANOGA PARK,    CA 91306",,,,exempt,LA,Los Angeles County,34.236134,-118.57106100000001,
LAUSD,SYLMAR ELEMENTARY,"13291 PHILLIPPI AVE, SYLMAR,         CA 91342",,,,exempt,LA,Los Angeles County,34.312589,-118.446707,
LAUSD,SYLMAR SENIOR HIGH,"13050 BORDEN AVE, SYLMAR,         CA 91342",,,,exempt,,Los Angeles County,34.307778000000006,-118.44175,
LAUSD,SYLVAN PARK EARLY EDUCATION CENTER,"15011 DELANO ST, VAN NUYS,       CA 91411",,,,exempt,LA,Los Angeles County,34.182654,-118.45997,
LAUSD,SYLVAN PARK ELEMENTARY,"6238 NOBLE AVE, VAN NUYS,       CA 91411",,,,exempt,LA,Los Angeles County,34.183809000000004,-118.46171299999999,
LAUSD,SYNERGY CHARTER ACADEMY @ QUINCY JONES ES (FMR: CRES #17B),"900 E 33RD STREET, LOS ANGELES, CA 90011",,,,exempt,LA,Los Angeles County,34.014509999999994,-118.26075900000001,
LAUSD,SYNERGY KINETIC ACADEMY (FRM: CRMS #7A),"104 W 47TH PLACE, LOS ANGELES, CA 90037",,,,exempt,LA,Los Angeles County,33.999992999999996,-118.274194,
LAUSD,SYNERGY QUANTUM ACADEMY @ DR.. MAYA ANGELOU COMMUNITY HS (FRM: CRHS #16C),"300 E. 53RD ST, LOS ANGELES, CA 90011",,,,exempt,LA,Los Angeles County,33.994167,-118.269976,
LAUSD,TAFT SENIOR HIGH,"5461 WINNETKA AVE, WOODLAND HILLS, CA 91364",,,,exempt,Los Angeles,Los Angeles County,34.169615,-118.57168200000001,
LAUSD,TAPER ELEMENTARY,"1824 TAPER AVE, SAN PEDRO,      CA 90731",,,,exempt,Los Angeles,Los Angeles County,33.76254,-118.29839299999999,
LAUSD,TARZANA ELEMENTARY SCHOOL,"5726 TOPEKA DR, TARZANA,        CA 91356",,,,exempt,LA,Los Angeles County,34.174937,-118.54603999999999,
LAUSD,TECH ANNEX / AREA-19 @SUNRISE EL (FRMR: ELA SKILL CENTER),"333 S. BEAUDRY AVE., 22ND FL, LOS ANGELES, CA 90017",,,,exempt,Los Angeles,Los Angeles County,34.056143,-118.257322,
LAUSD,TELFAIR EARLY EDUCATION CENTER,"10915 TELFAIR AVE, PACOIMA,        CA 91331",,,,exempt,LA,Los Angeles County,34.268464,-118.43086399999999,
LAUSD,TELFAIR ELEMENTARY,"10975 TELFAIR AVE, PACOIMA,        CA 91331",,,,exempt,LA,Los Angeles County,34.269153,-118.43159299999999,
LAUSD,TELFAIR HLTH CNTR,"10911 TELFAIR, PACOIMA,        CA 91331",,,,exempt,LA,Los Angeles County,34.268433,-118.43083100000001,
LAUSD,TEMPLE ST. ADMINISTRATIVE SITE (FRMR: CHLD DEV BR. BLDG),"1360 W TEMPLE STREET, LOS ANGELES, CA 90026",,,,exempt,LA,Los Angeles County,34.067026,-118.25580500000001,
LAUSD,TERESA P HUGHES ELEMENTARY,"4242 CLARA ST, CUDAHY,         CA 90201",,,,exempt,,Los Angeles County,33.966178,-118.19319899999999,
LAUSD,THOMAS BRADLEY ENVIRONMENTAL SCIENCE & HUMANITIES,"3875 DUBLIN AVE, LOS ANGELES,    CA 90008",,,,exempt,LA,Los Angeles County,34.015237,-118.322364,
LAUSD,THOMAS JEFFERSON SENIOR HIGH,"1319 E 41ST ST, LOS ANGELES,    CA 90011",,,,exempt,LA,Los Angeles County,34.009298,-118.25173899999999,
LAUSD,THOREAU CONTINUATION HIGH,"5429 QUAKERTOWN AVE, WOODLAND HILLS, CA 91364",,,,exempt,Los Angeles,Los Angeles County,34.169031,-118.56997199999999,
LAUSD,TOLAND WAY EARLY EDUCATION CENTER,"4505 TOLAND WAY, LOS ANGELES,    CA 90041",,,,exempt,LA,Los Angeles County,34.121928000000004,-118.218554,
LAUSD,TOLAND WAY ELEMENTARY,"4545 TOLAND WAY, LOS ANGELES,    CA 90041",,,,exempt,LA,Los Angeles County,34.121265,-118.21830200000001,
LAUSD,TOLUCA LAKE EARLY EDUCATION CENTER,"4915 STROHM AVE, N HOLLYWOOD,    CA 91601",,,,exempt,LA,Los Angeles County,34.15982,-118.359439,
LAUSD,TOLUCA LAKE ELEMENTARY,"4840 CAHUENGA BLVD, N HOLLYWOOD,   CA 91601",,,,exempt,LA,Los Angeles County,34.158421999999995,-118.36141599999999,
LAUSD,TOPANGA ELEMENTARY SCHOOL,"22075 TOPANGA SCHOOL ROAD, TOPANGA, CA 90290",,,,exempt,,Los Angeles County,34.091766,-118.60351200000001,
LAUSD,TOPEKA DR ELEMENTARY,"9815 TOPEKA DR, NORTHRIDGE,     CA 91324",,,,exempt,LA,Los Angeles County,34.247703,-118.54641799999999,
LAUSD,TOWNE ELEMENTARY,"18924 TOWNE AVE, CARSON,         CA 90746",,,,exempt,Carson,Los Angeles County,33.858753,-118.267876,
LAUSD,TRI-C COMMUNITY DAY SCHOOL (CDS) - CENTRAL OFFICE,"716 E 14TH ST 2ND FL, LOS ANGELES,    CA 90021",,,,exempt,Los Angeles,Los Angeles County,34.031813,-118.25393600000001,
LAUSD,TRINITY EARLY EDUCATION CENTER,"3816 TRINITY ST, LOS ANGELES,    CA 90011",,,,exempt,LA,Los Angeles County,34.011907,-118.269631,
LAUSD,TRINITY ELEMENTARY,"3736 TRINITY ST, LOS ANGELES,    CA 90011",,,,exempt,LA,Los Angeles County,34.012879999999996,-118.26901000000001,
LAUSD,TRIUMPH ACADEMY MS @ OLIVE VISTA MS,"14600 TYLER ST, SYLMAR,         CA 91342",,,,exempt,LA,Los Angeles County,34.3128,-118.45026000000001,
LAUSD,TRUTH CONTINUATION HIGH SCHOOL @ LOCKE CHARTER SH,"11015 S AVALON BLVD, LOS ANGELES, CA 90061",,,,exempt,LA,Los Angeles County,33.924014,-118.265204,
LAUSD,TULSA ELEMENTARY,"10900 HAYVENHURST AVE, GRANADA HILLS,  CA 91344",,,,exempt,LA,Los Angeles County,34.268468,-118.493394,
LAUSD,TWEEDY ELEMENTARY,"9724 PINEHURST AVE, SOUTH GATE,     CA 90280",,,,exempt,South Gate,Los Angeles County,33.944163,-118.18239299999999,
LAUSD,"UCLA COMMUNITY SCHOOL @ CENTRAL LA NEW LEARNING CENTER #1, PHASE 2","700 S MARIPOSA AVE, LOS ANGELES, CA 90005",,,,exempt,LA,Los Angeles County,34.05961,-118.298617,
LAUSD,UNION AVENUE ELEMENTARY,"150 S BURLINGTON AVE, LOS ANGELES,    CA 90057",,,,exempt,LA,Los Angeles County,34.063928999999995,-118.267381,
LAUSD,UNIVERSITY SENIOR HIGH,"11800 TEXAS AVE, LOS ANGELES,    CA 90025",,,,exempt,LA,Los Angeles County,34.045897,-118.460959,
LAUSD,UTAH STREET ELEMENTARY SCHOOL,"255 GABRIEL GARCIA MARQUEZ ST, LOS ANGELES, CA 90033",,,,exempt,LA,Los Angeles County,34.050082,-118.226611,
LAUSD,VALERIO ELEMENTARY,"15035 VALERIO ST, VAN NUYS,       CA 91405",,,,exempt,LA,Los Angeles County,34.204904,-118.460637,
LAUSD,VALLEY ACADEMY OF ARTS AND SCIENCES (FRM: VRHS #4),"10445 BALBOA BLVD, GRANADA HILLS, CA 91344",,,,exempt,LA,Los Angeles County,34.260189000000004,-118.50343600000001,
LAUSD,VALLEY ALTERNATIVE,"6701 BALBOA BLVD, LAKE BALBOA, CA 91406",,,,exempt,Los Angeles,Los Angeles County,34.192151,-118.501382,
LAUSD,VALLEY CHARTER MS @ MONROE HS,"9229 HASKELL AVE, NORTH HILLS, CA 91343",,,,exempt,LA,Los Angeles County,34.237895,-118.476403,
LAUSD,VALLEY REGION ES #13,"8150 CEDROS AVE, PANORAMA CITY, CA 91402",,,,exempt,LA,Los Angeles County,34.218846,-118.453448,
LAUSD,VALLEY REGION SPAN K-8 #1,"14550 BLEDSOE AVE, SYLMAR, CA 91342",,,,exempt,LA,Los Angeles County,34.326135,-118.44440900000001,
LAUSD,VALLEY VIEW ELEMENTARY,"6921 WOODROW WILSON DR, LOS ANGELES,    CA 90068",,,,exempt,LA,Los Angeles County,34.125043,-118.34523600000001,
LAUSD,VAN DEENE ELEMENTARY,"826 W JAVELIN ST, TORRANCE,       CA 90502",,,,exempt,Torrance,Los Angeles County,33.838662,-118.288428,
LAUSD,VAN GOGH ELEMENTARY SCHOOL,"17160 VAN GOGH ST, GRANADA HILLS,  CA 91344",,,,exempt,LA,Los Angeles County,34.305677,-118.50543300000001,
LAUSD,VAN NESS ELEMENTARY,"501 N VAN NESS AVE, LOS ANGELES,    CA 90004",,,,exempt,LA,Los Angeles County,34.105270000000004,-118.31583799999999,
LAUSD,VAN NUYS ALTERNATIVE EDUCATION WORK CENTER,"6535 CEDROS AVE, VAN NUYS,       CA 91411",,,,exempt,LA,Los Angeles County,34.189158,-118.45526299999999,
LAUSD,VAN NUYS COMMUNITY ADULT SCHOOL,"6535 CEDROS AVE, VAN NUYS,       CA 91411",,,,exempt,LA,Los Angeles County,34.189158,-118.45526299999999,
LAUSD,VAN NUYS ELEMENTARY,"6464 SYLMAR AVE, VAN NUYS,       CA 91401",,,,exempt,LA,Los Angeles County,34.188278000000004,-118.44643400000001,
LAUSD,VAN NUYS MIDDLE SCHOOL,"5435 VESPER AVE, VAN NUYS,       CA 91411",,,,exempt,LA,Los Angeles County,34.16915,-118.450984,
LAUSD,VAN NUYS SENIOR HIGH SCHOOL,"6535 CEDROS AVE, VAN NUYS,       CA 91411",,,,exempt,LA,Los Angeles County,34.189158,-118.45526299999999,
LAUSD,VANALDEN EARLY EDUCAATION CENTER,"6212 VANALDEN AVE, RESEDA,         CA 91335",,,,exempt,LA,Los Angeles County,34.182679,-118.54836499999999,
LAUSD,VANALDEN ELEMENTARY,"19019 DELANO ST, RESEDA,         CA 91335",,,,exempt,LA,Los Angeles County,34.182984999999995,-118.52599099999999,
LAUSD,VAUGHN EARLY EDUCATION CENTER,"11480 HERRICK AVE, PACOIMA,        CA 91331",,,,exempt,LA,Los Angeles County,34.279297,-118.42331200000001,
LAUSD,VAUGHN NEXT CENTURY LEARNING CENTER,"13330 VAUGHN ST, SAN FERNANDO, CA 91340",,,,exempt,San Fernando,Los Angeles County,34.280478,-118.42258899999999,
LAUSD,VENA ELEMENTARY,"9377 VENA AVE, ARLETA, CA 91331",,,,exempt,LA,Los Angeles County,34.240606,-118.420203,
LAUSD,VENICE ADULT SKILL CENTER,"611 5TH AVE, VENICE, CA 90291",,,,exempt,Santa Monica,Los Angeles County,33.996161,-118.472696,
LAUSD,VENICE ALTERNATIVE EDUCATION WORK CENTER,"611 5TH AVE, VENICE, CA 90291",,,,exempt,Santa Monica,Los Angeles County,33.996161,-118.472696,
LAUSD,VENICE CAS-AEWC @ 98TH STREET AEWC,"8701 PARK HILL DR, RM S15, LOS ANGELES, CA 90045",,,,exempt,Los Angeles,Los Angeles County,33.95711,-118.42803300000001,
LAUSD,VENICE COMMUNITY ADULT SCHOOL,"13000 W VENICE BLVD, LOS ANGELES,    CA 90066",,,,exempt,LA,Los Angeles County,34.004007,-118.43308700000001,
LAUSD,VENICE HLTH CNTR,"239 WESTMINSTER AVE, VENICE,         CA",,,,exempt,LA,Los Angeles County,33.990541,-118.472031,
LAUSD,VENICE SENIOR HIGH,"13000 VENICE BLVD, LOS ANGELES,    CA 90066",,,,exempt,LA,Los Angeles County,33.99876,-118.44284499999999,
LAUSD,VERDUGO HILLS SENIOR HIGH,"10625 PLAINVIEW AVE, TUJUNGA,        CA 91042",,,,exempt,LA,Los Angeles County,34.253429,-118.297941,
LAUSD,VERMONT ELEMENTARY,"1435 W 27TH ST, LOS ANGELES,    CA 90007",,,,exempt,LA,Los Angeles County,34.030567,-118.293423,
LAUSD,VERNON CITY ELEMENTARY SCHOOL,"2360 E VERNON AVE, LOS ANGELES,    CA 90058",,,,exempt,,Los Angeles County,34.003869,-118.231125,
LAUSD,VICTORIA ELEMENTARY,"3320 MISSOURI AVE, SOUTH GATE,     CA 90280",,,,exempt,South Gate,Los Angeles County,33.946134,-118.211152,
LAUSD,VICTORY ELEMENTARY,"6315 RADFORD AVE, N HOLLYWOOD,   CA 91606",,,,exempt,LA,Los Angeles County,34.185208,-118.392243,
LAUSD,VINE EARLY EDUCATION CENTER,"6312 ELEANOR AVE, LOS ANGELES,    CA 90038",,,,exempt,LA,Los Angeles County,34.089748,-118.32686799999999,
LAUSD,VINE ST ELEMENTARY SCHOOL,"955 N VINE ST, LOS ANGELES,    CA 90038",,,,exempt,LA,Los Angeles County,34.088196,-118.326714,
LAUSD,VINEDALE ELEMENTARY,"10150 LA TUNA CANYON RD, SUN VALLEY,     CA 91352",,,,exempt,LA,Los Angeles County,34.234111,-118.36460600000001,
LAUSD,VINTAGE MATH/SCIENCE MAGNET,"15848 STARE ST, SEPULVEDA,      CA 91343",,,,exempt,Los Angeles,Los Angeles County,34.252544,-118.47763,
LAUSD,VIRGIL MIDDLE SCHOOL,"152 N VERMONT AVE, LOS ANGELES,    CA 90004",,,,exempt,LA,Los Angeles County,34.073657,-118.291578,
LAUSD,VIRGINIA ELEMENTARY,"2925 VIRGINIA RD, LOS ANGELES,    CA 90016",,,,exempt,LA,Los Angeles County,34.028929999999995,-118.33955700000001,
LAUSD,VISTA DEL VALLE DUAL LANGUAGE ACADEMY (FMR: VRES #8),"12441 BROMONT AVE, SAN FERNANDO, CA 91340",,,,exempt,San Fernando,Los Angeles County,34.295765,-118.42151299999999,
LAUSD,VISTA MIDDLE SCHOOL,"15040 ROSCOE BLVD., PANORAMA CITY, CA 91402",,,,exempt,LA,Los Angeles County,34.219481,-118.46065300000001,
LAUSD,WADSWORTH EARLY EDUCATION CENTER,"1047 E 41ST ST, LOS ANGELES,    CA 90011",,,,exempt,LA,Los Angeles County,34.00931,-118.25778600000001,
LAUSD,WADSWORTH ELEMENTARY,"981 E 41ST ST, LOS ANGELES,    CA 90011",,,,exempt,LA,Los Angeles County,34.009305,-118.25928300000001,
LAUSD,WALGROVE ELEMENTARY,"1630 WALGROVE AVE, LOS ANGELES,    CA 90066",,,,exempt,LA,Los Angeles County,34.005939,-118.45288799999999,
LAUSD,WALNUT PARK ELEMENTARY,"2642 E OLIVE ST, HUNTINGTON PARK,CA 90255",,,,exempt,Huntington Park,Los Angeles County,33.967616,-118.22383400000001,
LAUSD,WALNUT PARK MS (SRMS #3),"7500 MARBRISA AVE, WALNUT PARK, CA 90255",,,,exempt,,Los Angeles County,33.971821999999996,-118.231296,
LAUSD,WARNER ELEMENTARY,"615 HOLMBY AVE, LOS ANGELES,    CA 90024",,,,exempt,LA,Los Angeles County,34.070114000000004,-118.433872,
LAUSD,WASHINGTON EARLY EDUCATION CENTER,"315 E 95TH ST, LOS ANGELES,    CA",,,,exempt,LA,Los Angeles County,33.950281,-118.269099,
LAUSD,WASHINGTON PREPARATORY SENIOR HIGH SCHOOL,"10860 S DENKER AVE, LOS ANGELES,    CA 90047",,,,exempt,LA,Los Angeles County,33.863796,-118.304796,
LAUSD,WASHINGTON PRIMARY CENTER,"860 W 112TH ST, LOS ANGELES, CA 90044",,,,exempt,LA,Los Angeles County,33.932365000000004,-118.291151,
LAUSD,WATERS EARLY EDUCATION CENTER,"2531 E SANTA ANA BLVD, LOS ANGELES,    CA 90059",,,,exempt,Los Angeles,Los Angeles County,33.932891,-118.227341,
LAUSD,WATTS LEARNING CTR (@ SRHS#12),"310 W 95TH STREET, LOS ANGELES, CA 90003",,,,exempt,LA,Los Angeles County,33.950171000000005,-118.27856499999999,
LAUSD,WEBSTER MIDDLE SCHOOL,"11330 W GRAHAM PL, LOS ANGELES,    CA 90064",,,,exempt,Los Angeles,Los Angeles County,34.029868,-118.43476000000001,
LAUSD,WEEMES ELEMENTARY,"1260 W 36TH PL, LOS ANGELES,    CA 90007",,,,exempt,LA,Los Angeles County,34.021823,-118.29651899999999,
LAUSD,WEIGAND ELEMENTARY,"10401 WEIGAND AVE, LOS ANGELES,    CA 90002",,,,exempt,LA,Los Angeles County,33.941736,-118.229731,
LAUSD,WEIGAND STATE PRESCHOOL,"10401 WEIGAND AVE, LOS ANGELES,    CA 90002",,,,exempt,LA,Los Angeles County,33.941736,-118.229731,
LAUSD,WELBY ELEMENTARY,"23456 WELBY WAY, WEST HILLS, CA 91307",,,,exempt,LA,Los Angeles County,34.192143,-118.63794299999999,
LAUSD,WEST ADAMS PREPATORY SENIOR HIGH,"1500 W. WASHINGTON BLVD., LOS ANGELES, CA 90006",,,,exempt,LA,Los Angeles County,34.039932,-118.28976399999999,
LAUSD,WEST ATHENS ELEMENTARY,"1110 W 119TH ST, LOS ANGELES,    CA 90044",,,,exempt,LA,Los Angeles County,33.924971,-118.294409,
LAUSD,WEST HOLLYWOOD COMMUNITY DAY SCHOOL,"1049 NORTH FAIRFAX AVE, WEST HOLLYWOOD, CA 90046",,,,exempt,West Hollywood,Los Angeles County,34.089555,-118.361455,
LAUSD,WEST HOLLYWOOD ELEMENTARY,"670 N HAMMOND ST, W HOLLYWOOD, CA 90069",,,,exempt,West Hollywood,Los Angeles County,34.088724,-118.38766499999998,
LAUSD,WEST VALLEY OCCUPATIONAL ALTERNATIVE EDUCATION WOR,"6200 WINNETKA, WOODLAND HILLS, CA 91367",,,,exempt,LA,Los Angeles County,34.154587,-118.57148799999999,
LAUSD,WEST VALLEY OCCUPATIONAL CENTER,"6200 WINNETKA AVE, WOODLAND HILLS, CA 91367",,,,exempt,Los Angeles,Los Angeles County,34.183197,-118.570428,
LAUSD,WEST VALLEY SPECIAL EDUCATION CENTER,"6649 BALBOA BLVD, LAKE BALBOA, CA 91406",,,,exempt,Los Angeles,Los Angeles County,34.191306,-118.50188200000001,
LAUSD,WEST VALLEY STATE PRESCHOOL,"6649 BALBOA BLVD, LAKE BALBOA, CA 91406",,,,exempt,Los Angeles,Los Angeles County,34.191306,-118.50188200000001,
LAUSD,WEST VERNON ELEMENTARY,"4312 S GRAND AVE, LOS ANGELES,    CA 90037",,,,exempt,LA,Los Angeles County,34.005277,-118.280422,
LAUSD,WESTCHESTER SH,"7400 W MANCHESTER AVE, LOS ANGELES,    CA 90045",,,,exempt,LA,Los Angeles County,33.959919,-118.393417,
LAUSD,WESTCHESTER-EMERSON COMMUNITY ADULT SCHOOL,"8810 EMERSON AVE, LOS ANGELES,    CA 90045",,,,exempt,LA,Los Angeles County,33.956754,-118.40383999999999,
LAUSD,WESTERN ELEMENTARY,"1724 W 53RD ST, LOS ANGELES,    CA 90062",,,,exempt,LA,Los Angeles County,33.994077000000004,-118.307258,
LAUSD,WESTMINSTER COMPUTER SCIENCE/MATH MAGNET,"1010 ABBOT KINNEY BLVD, VENICE,         CA 90291",,,,exempt,LA,Los Angeles County,33.992237,-118.473133,
LAUSD,WESTMINSTER EARLY EDUCATION CENTER,"1010 MAIN ST, VENICE,         CA 90291",,,,exempt,LA,Los Angeles County,33.991682,-118.47351,
LAUSD,WESTMINSTER ELEMENTARY,"1010 ABBOT KINNEY BLVD, VENICE,         CA 90291",,,,exempt,LA,Los Angeles County,33.992237,-118.473133,
LAUSD,WESTPORT HEIGHTS ELEMENTARY,"6011 W 79TH ST, LOS ANGELES,    CA 90045",,,,exempt,LA,Los Angeles County,33.966396,-118.388675,
LAUSD,WESTSIDE COMMMUNITY ADULT SCHOOL,"7850 MELROSE AVE, LOS ANGELES,    CA 90046",,,,exempt,LA,Los Angeles County,34.083719,-118.36096200000001,
LAUSD,WESTSIDE LEADERSHIP MAGNET,"104 ANCHORAGE ST, VENICE,         CA 90291",,,,exempt,LA,Los Angeles County,33.979208,-118.464998,
LAUSD,WESTWOOD ELEMENTARY,"2050 SELBY AVE, LOS ANGELES,    CA 90025",,,,exempt,LA,Los Angeles County,34.047606,-118.43076,
LAUSD,WHITE MIDDLE SCHOOL,"22102 S FIGUEROA ST, CARSON,         CA 90745",,,,exempt,Carson,Los Angeles County,33.84321,-118.285072,
LAUSD,WHITE POINT ELEMENTARY,"1410 SILVIUS AVE, SAN PEDRO,      CA 90731",,,,exempt,LA,Los Angeles County,33.716019,-118.30826699999999,
LAUSD,WIDNEY HIGH SCHOOL,"2302 S GRAMERCY PL, LOS ANGELES,    CA 90018",,,,exempt,LA,Los Angeles County,34.035945,-118.312568,
LAUSD,WILBUR ELEMENTARY,"5213 CREBS AVE, TARZANA,        CA 91356",,,,exempt,LA,Los Angeles County,34.165351,-118.54431399999999,
LAUSD,WILLENBERG SPECIAL EDUCATION CENTER,"308 WEYMOUTH AVE, SAN PEDRO,      CA 90732",,,,exempt,LA,Los Angeles County,33.727944,-118.30974099999999,
LAUSD,WILLIAM JEFFERSON CLINTON MIDDLE SCHOOL (FMR: CENTRAL LA MS #4),"3500 S HILL ST, LOS ANGELES, CA 90007",,,,exempt,LA,Los Angeles County,34.018159999999995,-118.275729,
LAUSD,WILLOW STREET ELEMENTARY (FRM: SRES #9),"2777 WILLOW PL, SOUTH GATE, CA 90280",,,,exempt,South Gate,Los Angeles County,33.954858,-118.22198300000001,
LAUSD,WILMINGTON MIDDLE SCHOOL,"1700 GULF AVE, WILMINGTON,     CA 90744",,,,exempt,Los Angeles,Los Angeles County,33.797866,-118.27401100000002,
LAUSD,WILMINGTON PARK EARLY EDUCATION CENTER,"1419 YOUNG ST, WILMINGTON,     CA 90744",,,,exempt,Los Angeles,Los Angeles County,33.786944,-118.245673,
LAUSD,WILMINGTON PARK ELEMENTARY,"1140 MAHAR AVE, WILMINGTON,     CA 90744",,,,exempt,LA,Los Angeles County,33.785866,-118.246324,
LAUSD,WILMINGTON PARK STATE PRESCHOOL,"1140 MAHAR AVE, WILMINGTON,     CA 90744",,,,exempt,LA,Los Angeles County,33.785866,-118.246324,
LAUSD,WILSHIRE CREST ELEMENTARY,"5241 W OLYMPIC BLVD, LOS ANGELES,    CA 90036",,,,exempt,LA,Los Angeles County,34.057257,-118.344201,
LAUSD,WILSHIRE PARK ELEMENTARY SCHOOL,"4063 INGRAHAM ST, LOS ANGELES, CA 90005",,,,exempt,LA,Los Angeles County,34.060843,-118.316116,
LAUSD,WILSON SENIOR HIGH,"4500 MULTNOMAH ST, LOS ANGELES,    CA 90032",,,,exempt,LA,Los Angeles County,34.06993,-118.18808200000001,
LAUSD,WILSON-LINCOLN COMMUNITY ADULT SCHOOL,"4500 MULTNOMAH ST, LOS ANGELES,    CA 90032",,,,exempt,LA,Los Angeles County,34.06993,-118.18808200000001,
LAUSD,WILTON PLACE EARLY EDUCATION CENTER,"4030 W LEEWARD AVE, LOS ANGELES,    CA 90005",,,,exempt,Los Angeles,Los Angeles County,34.058709,-118.29165400000001,
LAUSD,WILTON PLACE ELEMENTARY,"745 S WILTON PL, LOS ANGELES,    CA 90005",,,,exempt,LA,Los Angeles County,34.058710999999995,-118.314355,
LAUSD,WINNETKA ELEMENTARY,"8240 WINNETKA AVE, CANOGA PARK,    CA 91306",,,,exempt,LA,Los Angeles County,34.236134,-118.57106100000001,
LAUSD,WISDOM ACADEMY FOR YOUNG SCIENTISTS,"706 E MANCHESTER AVE, LOS ANGELES, CA 90001",,,,exempt,LA,Los Angeles County,33.960058000000004,-118.26268200000001,
LAUSD,WONDERLAND ELEMENTARY,"8510 WONDERLAND AVE, LOS ANGELES,    CA 90046",,,,exempt,LA,Los Angeles County,34.114182,-118.37923400000001,
LAUSD,WOODCREST ELEMENTARY,"1151 W 109TH ST, LOS ANGELES,    CA 90044",,,,exempt,,Los Angeles County,33.937384,-118.29454399999999,
LAUSD,WOODLAKE AVE. ELEMENTARY SCHOOL,"23231 HATTERAS ST, WOODLAND HILLS, CA 91367",,,,exempt,LA,Los Angeles County,34.175614,-118.63282199999999,
LAUSD,WOODLAND HILLS ACADEMY,"20800 BURBANK BLVD, WOODLAND HILLS, CA 91367",,,,exempt,LA,Los Angeles County,34.171884999999996,-118.58556000000002,
LAUSD,WOODLAND HILLS ELEMENTARY,"22201 SAN MIGUEL ST, WOODLAND HILLS, CA 91364",,,,exempt,LA,Los Angeles County,34.158627,-118.609265,
LAUSD,WOODLAWN ELEMENTARY,"6314 WOODLAWN AVE, BELL,           CA 90201",,,,exempt,,Los Angeles County,33.978304,-118.177625,
LAUSD,WRIGHT MS,"6550 W 80TH ST, LOS ANGELES,    CA 90045",,,,exempt,LA,Los Angeles County,33.969228,-118.404471,
LAUSD,YES ACADEMY @ HYDE PARK ES,"3140 HYDE PARK BLVD, LOS ANGELES,    CA 90043",,,,exempt,Inglewood,Los Angeles County,33.980551,-118.32830700000001,
LAUSD,YORKDALE ELEMENTARY,"5657 MERIDIAN ST, LOS ANGELES,    CA 90042",,,,exempt,LA,Los Angeles County,34.120221,-118.17541399999999,
LAUSD,YOUNG CONTINUATION HIGH,"3051 W 52ND ST, LOS ANGELES,    CA 90043",,,,exempt,LA,Los Angeles County,33.995077,-118.326369,
LAUSD,YOUNG OAK KIM ACADEMY,"615 S SHATTO PL, LOS ANGELES, CA 90005",,,,exempt,Los Angeles,Los Angeles County,34.063302,-118.290209,
LAUSD,YOUTH DEVELOPMENT PROGRAM - VALLEY,"5607 CAPISTRANO AVE, WOODLAND HILLS  CA 91367",,,,exempt,LA,Los Angeles County,34.172098999999996,-118.616867,
LAUSD,YOUTH OPPORTUNITIES UNLIMITED,"915 WEST MANCHESTER AVENUE, LOS ANGELES,    CA 90044",,,,exempt,LA,Los Angeles County,33.959919,-118.393417,
LAUSD,YOUTH SRVS - SOUTH,"2100 W 156TH ST, GARDENA,        CA 90249",,,,exempt,Gardena,Los Angeles County,33.889199,-118.316135,
LAUSD,YOUTH SRVS - WEST,"2635 COLBY AVE, LOS ANGELES,    CA 90012",,,,exempt,LA,Los Angeles County,34.028521000000005,-118.438588,
LAUSD,ZANE GREY CONTINUATION HIGH,"18230 KITTRIDGE ST, RESEDA, CA 91335",,,,exempt,LA,Los Angeles County,34.190148,-118.53029099999999,
