district,schoolName,schoolAddress,medianResult,unit,lead,status,city,county,latitude,longitude
Poway Unified,Abraxas Continuation High,12450 Glenoak Road Poway CA 92064-3299,NA,NA,FALSE,tested,Poway,San Diego County,32.973739,-117.062148
Cardiff Elementary,Ada Harris Elementary,"1888 Montgomery Ave, Cardiff, CA 92007",NA,NA,NA,exempt,Encinitas,San Diego County,33.025072,-117.282308
Cardiff Elementary,Ada W. Harris Elementary,1508 Windsor Road Cardiff-by-the-Sea CA 92007-1356,NA,NA,NA,not tested,Encinitas,San Diego County,33.031428,-117.273995
San Diego Unified,Adams Elementary,4672 35th Street San Diego CA 92116-3536,NA,NA,FALSE,tested,San Diego,San Diego County,32.761807,-117.118439
Poway Unified,Adobe Bluffs Elementary,8707 Adobe Bluffs Drive San Diego CA 92129-4448,NA,NA,NA,not tested,San Diego,San Diego County,32.973184,-117.140377
Vista Unified,Alamosa Park Elementary,5130 Alamosa Park Drive Oceanside CA 92057-6301,NA,NA,FALSE,tested,Oceanside,San Diego County,33.239075,-117.282005
San Diego Unified,ALBA,4041 Oregon St San Diego CA 92104-1706,NA,NA,FALSE,tested,San Diego,San Diego County,32.751112,-117.135014
San Diego Unified,Alcott Elementary,4680 Hidalgo Avenue San Diego CA 92117-2503,NA,NA,FALSE,tested,San Diego,San Diego County,32.832911,-117.221565
Chula Vista Elementary,Allen (Ella B.) Elementary,4300 Allen School Road Bonita CA 91902-2309,6,ppb,TRUE,tested,Chula Vista,San Diego County,32.658951,-117.034477
Alpine Union Elementary,Alpine Elementary,1850 Alpine Boulevard Alpine CA 91901-3898,NA,NA,FALSE,tested,NA,San Diego County,32.837563,-116.774421
Sweetwater Union High,Alta Vista Academy,730 Medical Center Court Chula Vista CA 91911-6618,NA,NA,NA,not tested,Chula Vista,San Diego County,32.618192,-117.024892
Vista Unified,Alta Vista High (Continuation),1575 Bonair Drive Vista CA 92084-3572,NA,NA,FALSE,tested,Vista,San Diego County,33.222677,-117.219245
San Marcos Unified,Alvin M. Dunn Elementary,3697 La Mirada Drive San Marcos CA 92078-2312,NA,NA,NA,not tested,San Marcos,San Diego County,33.143938,-117.204279
San Diego Unified,America's Finest Charter,730 45th Street San Diego CA 92102-3619,NA,NA,FALSE,tested,San Diego,San Diego County,32.713184,-117.097944
San Diego Unified,Angier Elementary,8450 Hurlbut Street San Diego CA 92123-2013,10.2,ppb,TRUE,tested,San Diego,San Diego County,32.805969,-117.145306
Cajon Valley Union,Anza Elementary,1005 South Anza Street El Cajon CA 92020-8602,NA,NA,FALSE,tested,El Cajon,San Diego County,32.782212,-116.948111
San Diego Unified,Arroyo Paseo Charter High,3773 El Cajon Boulevard San Diego CA 92105,NA,NA,FALSE,tested,San Diego,San Diego County,32.75643,-117.089532
Chula Vista Elementary,Arroyo Vista Charter,2491 School House Road Chula Vista CA 91915-2534,NA,NA,NA,not tested,Chula Vista,San Diego County,32.638697,-116.953465
Del Mar Union Elementary,Ashley Falls Elementary,13030 Ashley Falls Drive San Diego CA 92130-3717,NA,NA,FALSE,tested,San Diego,San Diego County,32.957282,-117.209555
San Diego Unified,Audeo Charter,10170 Huennekens Street San Diego CA 92121-2964,NA,NA,NA,not tested,San Diego,San Diego County,32.902766,-117.184084
San Diego Unified,Audubon K-8,8111 San Vicente San Diego CA 92114-4836,NA,NA,FALSE,tested,San Diego,San Diego County,32.710672,-117.030629
Carlsbad Unified,Aviara Oaks Elementary,6900 Ambrosia Lane Carlsbad CA 92009-2430,NA,NA,NA,not tested,Carlsbad,San Diego County,33.101105,-117.276367
Cajon Valley Union,Avocado Elementary,3845 Avocado School Road La Mesa CA 91941-7319,NA,NA,FALSE,tested,La Mesa,San Diego County,32.750637,-116.959827
La Mesa-Spring Valley,Avondale Elementary,8401 Stansbury Street Spring Valley CA 91977-3737,NA,NA,NA,not tested,Spring Valley,San Diego County,32.718243,-117.017047
La Mesa-Spring Valley,Avondale Elementary School,"8401 Stansbury St, Spring Valley, CA 91977",NA,NA,NA,exempt,Spring Valley,San Diego County,32.718243,-117.017047
San Diego Unified,Baker Elementary,4041 T Street San Diego CA 92113-1808,NA,NA,FALSE,tested,San Diego,San Diego County,32.698221,-117.107136
San Diego Unified,Balboa Elementary,1844 South 40th Street San Diego CA 92113-4017,NA,NA,FALSE,tested,National City,San Diego County,32.686937,-117.109207
La Mesa-Spring Valley,Bancroft Elementary,8805 Tyler Street Spring Valley CA 91977,NA,NA,FALSE,tested,Spring Valley,San Diego County,32.729565,-117.007819
La Mesa-Spring Valley,Bancroft Elementary/Quest Academy,8805 Tyler Street Spring Valley CA 91977-3336,NA,NA,FALSE,tested,Spring Valley,San Diego County,32.729565,-117.007819
San Diego Unified,Bandini Elementary,3550 Logan Avenue  San Diego CA 92113,NA,NA,FALSE,tested,San Diego,San Diego County,32.698091,-117.118052
San Diego Unified,Barnard Elementary,2445 Fogg Street San Diego CA 92109-4855,NA,NA,FALSE,tested,San Diego,San Diego County,32.802426,-117.22365
Ramona City Unified,Barnett Elementary,23925 Couna Way Ramona CA 92065-4120,NA,NA,FALSE,tested,Ramona,San Diego County,33.017802,-116.811202
San Diego Unified,Bay Park Elementary,2433 Denver Street San Diego CA 92110-3338,NA,NA,FALSE,tested,San Diego,San Diego County,32.786369,-117.203438
Chula Vista Elementary,Bayfront Charter High School,830 Bay Boulevard  Chula Vista CA 91911,NA,NA,FALSE,tested,Chula Vista,San Diego County,32.617184,-117.09274
South Bay Union,Bayside Elementary,490 Emory Street Imperial Beach CA 91932-1524,7.3,ppb,TRUE,tested,Imperial Beach,San Diego County,32.588245,-117.113152
National Elementary,Beacon Classical Academy National City,2400 Euclid Avenue National City CA 91950-7715,NA,NA,NA,not tested,National City,San Diego County,32.668357,-117.076856
Escondido Union,Bear Valley Middle,3003 Bear Valley Parkway Escondido CA 92025-7618,NA,NA,FALSE,tested,Escondido,San Diego County,33.094212,-117.0589
Vista Unified,Beaumont Elementary,550 Beaumont Drive Vista CA 92084-6321,NA,NA,FALSE,tested,Vista,San Diego County,33.199654,-117.22493
San Diego Unified,Bell Middle,620 Briarwood Road San Diego CA 92139-1399,NA,NA,FALSE,tested,San Diego,San Diego County,32.689125,-117.038487
Vista Unified,Bella Mente Montessori Academy,1737 West Vista Way Vista CA 92083-2112,NA,NA,FALSE,tested,Vista,San Diego County,33.189663,-117.278495
San Diego Unified,Benchley/Weinberger Elementary,6269 Twin Lake Drive San Diego CA 92119-3051,NA,NA,FALSE,tested,La Mesa,San Diego County,32.794213,-117.03119
Escondido Union,Bernardo Elementary,1122 Mountain Heights Drive Escondido CA 92029-5634,NA,NA,FALSE,tested,Escondido,San Diego County,33.086108,-117.091661
Poway Unified,Bernardo Heights Middle,12990 Paseo Lucido San Diego CA 92128-4479,NA,NA,NA,not tested,San Diego,San Diego County,32.997307,-117.067509
San Diego Unified,Bethune K-8,6835 Benjamin Holt Road San Diego CA 92114-7827,NA,NA,FALSE,tested,San Diego,San Diego County,32.689738,-117.050097
San Diego Unified,Bird Rock Elementary,5371 La Jolla Hermosa Avenue La Jolla CA 92037-8016,10.5,ppb,TRUE,tested,San Diego,San Diego County,32.810202,-117.263967
San Diego Unified,Birney Elementary,4345 Campus Avenue San Diego CA 92103-2406,9.48,ppb,TRUE,tested,San Diego,San Diego County,32.756544,-117.14781
Poway Unified,Black Mountain Middle,9353 Oviedo Street San Diego CA 92129-2198,NA,NA,NA,not tested,San Diego,San Diego County,32.969268,-117.126508
Cajon Valley Union,Blossom Valley Elementary,9863 Oakmont Terrace El Cajon CA 92021-2300,NA,NA,FALSE,tested,El Cajon,San Diego County,32.861406,-116.845755
Vista Unified,Bobier Elementary,220 West Bobier Drive Vista CA 92083-1903,NA,NA,FALSE,tested,Vista,San Diego County,33.221056,-117.248442
Sweetwater Union High,Bonita Vista Middle,650 Otay Lakes Road Chula Vista CA 91910-6910,NA,NA,FALSE,tested,Chula Vista,San Diego County,32.647832,-117.006415
Sweetwater Union High,Bonita Vista Senior High,751 Otay Lakes Road Chula Vista CA 91913-2004,NA,NA,NA,not tested,Chula Vista,San Diego County,32.64473,-116.998681
Bonsall Unified,Bonsall Elementary,31555 Old River Road Bonsall CA 92003-5112,NA,NA,NA,not tested,NA,San Diego County,33.287173,-117.219226
Bonsall Unified,Bonsall High,7350 West Lilac Road Bonsall CA 92003-4316,NA,NA,NA,not tested,NA,San Diego County,33.297398,-117.175002
Bonsall Unified,Bonsall West Elementary,5050 El Mirlo Drive Oceanside CA 92057-2704,NA,NA,NA,not tested,Oceanside,San Diego County,33.264143,-117.292342
San Diego Unified,Boone Elementary,7330 Brookhaven Road San Diego CA 92114-7115,NA,NA,FALSE,tested,San Diego,San Diego County,32.695775,-117.037003
Borrego Springs Unified,Borrego Springs Elementary,1315 Palm Canyon Drive Borrego Springs CA 92004-0235,NA,NA,NA,not tested,NA,San Diego County,33.255189,-116.346824
Borrego Springs Unified,Borrego Springs High,2281 Diegueno Road Borrego Springs CA 92004-0235,NA,NA,NA,not tested,NA,San Diego County,33.265478,-116.381535
Borrego Springs Unified,Borrego Springs Middle,2255 Diegueno Road Borrego Springs CA 92004,NA,NA,NA,not tested,NA,San Diego County,33.27158,-116.383812
Cajon Valley Union,Bostonia Language Academy,1390 East Broadway El Cajon CA 92021-5812,NA,NA,FALSE,tested,El Cajon,San Diego County,32.808029,-116.931657
Alpine Union Elementary,Boulder Oaks Elementary,2320 Tavern Road Alpine CA 91901-3134,5.95,ppb,TRUE,tested,NA,San Diego County,32.820163,-116.776324
Vista Unified,Breeze Hill Elementary,1111 Melrose Way Vista CA 92083-6505,NA,NA,FALSE,tested,Vista,San Diego County,33.18527,-117.254515
Carlsbad Unified,Buena Vista Elementary,1330 Buena Vista Way Carlsbad CA 92008-1535,NA,NA,FALSE,tested,Carlsbad,San Diego County,33.168797,-117.342658
San Diego Unified,Burbank Elementary,2146 Julian Avenue San Diego CA 92113-1237,NA,NA,FALSE,tested,San Diego,San Diego County,32.700519,-117.13851
San Diego Unified,Cabrillo Elementary,3120 Talbot Street San Diego CA 92106-2447,8.69,ppb,TRUE,tested,San Diego,San Diego County,32.721614,-117.233363
San Diego Unified,Cadman Elementary,4370 Kamloop Avenue San Diego CA 92117-4543,NA,NA,FALSE,tested,San Diego,San Diego County,32.821319,-117.215342
Santee,Cajon Park Elementary,10300 Magnolia Avenue Santee CA 92071-1704,6,ppb,TRUE,tested,Santee,San Diego County,32.864912,-116.971515
Cajon Valley Union,Cajon Valley Community Day,165 Roanoke Road El Cajon CA 92021-4015,NA,NA,FALSE,tested,El Cajon,San Diego County,32.795728,-116.954781
Cajon Valley Union,Cajon Valley Middle,550 Park Avenue El Cajon CA 92020-3922,NA,NA,FALSE,tested,El Cajon,San Diego County,32.79906,-116.956819
Carlsbad Unified,Calavera Hills Elementary,4100 Tamarack Avenue Carlsbad CA 92008-7101,NA,NA,NA,not tested,Carlsbad,San Diego County,33.149936,-117.341207
Vista Unified,California Avenue Elementary,215 West California Avenue Vista CA 92083-3622,6.8,ppb,TRUE,tested,Vista,San Diego County,33.20744,-117.244899
Chula Vista Elementary,Camarena (Enrique S.) Elementary,1650 Exploration Falls Drive Chula Vista CA 91915-1961,NA,NA,NA,not tested,Chula Vista,San Diego County,32.622847,-116.958245
Mountain Empire Unified,Camp Lockett Middle School,957 Forrest Gate Road Campo CA 91906,NA,NA,NA,not tested,Campo,San Diego County,32.608693,-116.473431
San Dieguito Union High,Canyon Crest Academy,5951 Village Center Loop Road San Diego CA 92130-2499,NA,NA,FALSE,tested,San Diego,San Diego County,32.959076,-117.189433
Poway Unified,Canyon View Elementary,9225 Adolphia Street San Diego CA 92129-3525,NA,NA,NA,not tested,San Diego,San Diego County,32.946961,-117.128528
Encinitas Union Elementary,Capri Elementary,941 Capri Road Encinitas CA 92024-1214,NA,NA,NA,not tested,Encinitas,San Diego County,33.076002,-117.288832
Encinitas Union Elementary,Capri Elementary School,"Â 941 Capri Rd, Encinitas, CA 92024",NA,NA,NA,exempt,Encinitas,San Diego County,33.076002,-117.288832
Cardiff Elementary,Cardiff Elementary,1888 Montgomery Avenue Cardiff-by-the-Sea CA 92007-2313,NA,NA,NA,not tested,Encinitas,San Diego County,33.025072,-117.282308
Cardiff Elementary,Cardiff Elementary School,"1888 Montgomery Ave, Cardiff, CA 92007",NA,NA,NA,exempt,Encinitas,San Diego County,33.025072,-117.282308
Carlsbad Unified,Carlsbad High,3557 Monroe Street B Carlsbad CA 92008-2729,NA,NA,FALSE,tested,Carlsbad,San Diego County,33.162389,-117.32701
Santee,Carlton Hills Elementary,9353 Pike Road Santee CA 92071-2515,NA,NA,FALSE,tested,Santee,San Diego County,32.849252,-116.996534
Santee,Carlton Oaks Elementary,9353 Wethersfield Road Santee CA 92071-2354,NA,NA,FALSE,tested,Santee,San Diego County,32.843978,-117.014617
Solana Beach Elementary,Carmel Creek Elementary,4210 Carmel Center Road San Diego CA 92130-2480,NA,NA,NA,not tested,San Diego,San Diego County,32.951361,-117.225728
Del Mar Union Elementary,Carmel Del Mar Elementary,12345 Carmel Park Drive San Diego CA 92130-2222,NA,NA,FALSE,tested,San Diego,San Diego County,32.940702,-117.228672
Carmel Unified,Carmel Middle,4380 Carmel Valley Road Carmel CA 93922-2740,NA,NA,FALSE,tested,San Diego,San Diego County,32.93374,-117.238709
San Dieguito Union High,Carmel Valley Middle,3800 Mykonos Lane San Diego CA 92130-3572,NA,NA,FALSE,tested,San Diego,San Diego County,32.94666,-117.231651
San Marcos Unified,Carrillo Elementary,2875 Poinsettia Lane Carlsbad CA 92009-3041,NA,NA,FALSE,tested,Carlsbad,San Diego County,33.118598,-117.245056
San Diego Unified,Carson Elementary,6905 Kramer Street San Diego CA 92111-7021,NA,NA,FALSE,tested,San Diego,San Diego County,32.775914,-117.170981
San Diego Unified,Carver Elementary,3251 Juanita Street San Diego CA 92105-3807,NA,NA,FALSE,tested,San Diego,San Diego County,32.739748,-117.06923
La Mesa-Spring Valley,Casa de Oro Elementary,10227 Ramona Drive Spring Valley CA 91977-1720,NA,NA,FALSE,tested,NA,San Diego County,32.747738,-116.972387
Chula Vista Elementary,Casillas (Joseph) Elementary,1130 East J Street Chula Vista CA 91910-7164,NA,NA,NA,not tested,Chula Vista,San Diego County,32.629962,-117.010854
Vista Unified,Casita Center for Science/Math/Technology,260 Cedar Drive Vista CA 92083-5108,NA,NA,FALSE,tested,Vista,San Diego County,33.190219,-117.28428
Chula Vista Elementary,Castle Park Elementary,25 Emerson Street Chula Vista CA 91910-3309,NA,NA,FALSE,tested,Chula Vista,San Diego County,32.615009,-117.057331
Sweetwater Union High,Castle Park Middle,160 Quintard Street Chula Vista CA 91911-4414,8.975,ppb,TRUE,tested,Chula Vista,San Diego County,32.604846,-117.059339
Sweetwater Union High,Castle Park Senior High,1395 Hilltop Drive Chula Vista CA 91911-4529,NA,NA,FALSE,tested,Chula Vista,San Diego County,32.606991,-117.052821
South Bay Union,Central Elementary,1290 Ebony Avenue Imperial Beach CA 91932-2920,NA,NA,FALSE,tested,Imperial Beach,San Diego County,32.577586,-117.107707
San Diego Unified,Central Elementary,4063 Polk Avenue San Diego CA 92105-1436,NA,NA,FALSE,tested,San Diego,San Diego County,32.750873,-117.107178
Escondido Union,Central Elementary,122 West Fourth Avenue Escondido CA 92025-4134,8.3,ppb,TRUE,tested,Escondido,San Diego County,33.118648,-117.080291
National Elementary,Central Elementary,933 E Avenue National City CA 91950-3416,8.3,ppb,TRUE,tested,National City,San Diego County,32.676117,-117.10123
Oceanside Unified,Cesar Chavez Middle,202 Oleander Dr Oceanside CA 92057-6122,12,ppb,TRUE,tested,Oceanside,San Diego County,33.241429,-117.302909
Los Angeles Unified,Cesar E. Chavez Learning Academies-Academy of Scientific Exploration (ASE),1001 Arroyo Avenue San Fernando CA 91340-1817,NA,NA,NA,not tested,NA,San Diego County,33.447198,-117.569783
Los Angeles Unified,Cesar E. Chavez Learning Academies-Social Justice Humanitas Academy,1001 Arroyo Ave San Fernando CA 91340-1817,NA,NA,NA,not tested,NA,San Diego County,33.447198,-117.569783
San Diego Unified,Challenger Middle,10810 Parkdale Avenue San Diego CA 92126-2599,NA,NA,FALSE,tested,San Diego,San Diego County,32.913728,-117.158171
Oceanside Unified,Challenges Community Day,707 Carey Road Oceanside CA 92058,NA,NA,NA,not tested,Oceanside,San Diego County,33.204617,-117.359413
Poway Unified,Chaparral Elementary,17250 Tannin Drive Poway CA 92064-1123,NA,NA,FALSE,tested,Poway,San Diego County,33.022469,-117.051173
Grossmont Union High,Chaparral High/IDEA Center,1600 North Cuyamaca Street El Cajon CA 92021,5.5,ppb,TRUE,tested,El Cajon,San Diego County,32.812329,-116.979603
San Diego Unified,Charter School of San Diego,10170 Huennekens St San Diego CA 92121-2964,NA,NA,NA,not tested,San Diego,San Diego County,32.902766,-117.184084
Cajon Valley Union,Chase Avenue Elementary,195 East Chase Avenue El Cajon CA 92020-6201,NA,NA,FALSE,tested,El Cajon,San Diego County,32.780303,-116.961299
San Diego Unified,Chavez Elementary,1404 South 40th Street San Diego CA 92113-4037,NA,NA,FALSE,tested,National City,San Diego County,32.691728,-117.108217
San Diego Unified,Cherokee Point Elementary,3735 38th Street San Diego CA 92105-2414,NA,NA,FALSE,tested,San Diego,San Diego County,32.746769,-117.111806
San Diego Unified,Chesterton Elementary,7335 Wheatley Street San Diego CA 92111-5824,5.154999999999999,ppb,TRUE,tested,San Diego,San Diego County,32.79333,-117.162849
Santee,Chet F. Harritt Elementary,8120 Arlette Street Santee CA 92071-3513,NA,NA,FALSE,tested,Santee,San Diego County,32.831413,-117.019564
Private,"Child's Primary, The",3811 Mt. Acadia Boulevard San Diego CA 92111,6.76,ppb,TRUE,tested,San Diego,San Diego County,32.811171,-117.18071
San Diego Unified,Chollas/Mead Elementary,401 North 45th Street San Diego CA 92102-4732,7.73,ppb,TRUE,tested,San Diego,San Diego County,32.704869,-117.097967
Private,Christ Lutheran Elementary,7929 La Mesa Boulevard La Mesa CA 91942,NA,NA,FALSE,tested,La Mesa,San Diego County,32.764886,-117.026574
Oceanside Unified,Christa McAuliffe Elementary,3701 Kelton Drive Oceanside CA 92056-6311,NA,NA,FALSE,tested,Oceanside,San Diego County,33.199722,-117.306954
Private,Christian Elementary West,211 South Third Street El Cajon CA 92019,NA,NA,FALSE,tested,El Cajon,San Diego County,32.793651,-116.926183
Chula Vista Elementary,Chula Vista Hills Elementary,980 Buena Vista Way Chula Vista CA 91910-7133,NA,NA,FALSE,tested,Chula Vista,San Diego County,32.63691,-117.002982
Chula Vista Elementary,Chula Vista Learning Community Charter,590 K Street Chula Vista CA 91911-1118,NA,NA,FALSE,tested,Chula Vista,San Diego County,32.621068,-117.083452
Sweetwater Union High,Chula Vista Middle,415 Fifth Avenue Chula Vista CA 91910-4305,NA,NA,FALSE,tested,Chula Vista,San Diego County,32.634496,-117.08603
Sweetwater Union High,Chula Vista Senior High,820 Fourth Avenue Chula Vista CA 91911-1102,NA,NA,FALSE,tested,Chula Vista,San Diego County,32.621509,-117.077515
San Diego Unified,City Heights Preparatory Charter,3770 Altadena Avenue San Diego CA 92105-3007,NA,NA,NA,not tested,San Diego,San Diego County,32.746641,-117.085707
Oceanside Unified,Clair Burgener Academy,707 Carey Rd Oceanside CA 92058,8.55,ppb,TRUE,tested,Oceanside,San Diego County,33.204617,-117.359413
San Diego Unified,Clairemont High,4150 Ute Drive San Diego CA 92117-5853,NA,NA,FALSE,tested,San Diego,San Diego County,32.807012,-117.203035
San Diego Unified,Clark Middle,4388 Thorn Street San Diego CA 92105-4238,NA,NA,FALSE,tested,San Diego,San Diego County,32.740348,-117.100622
Escondido Union,Classical Academy,2950 South Bear Valley Parkway Escondido CA 92025-7446,6.4,ppb,TRUE,tested,Escondido,San Diego County,33.094212,-117.0589
Escondido Union High,Classical Academy High,207 E Pennsylvania Ave Escondido CA 92025-2808,NA,NA,FALSE,tested,Escondido,San Diego County,33.124245,-117.080951
Escondido Union,Classical Academy Middle 7-8,144 W. Woodward Avenue Escondido CA 92025,NA,NA,FALSE,tested,Escondido,San Diego County,33.125311,-117.08589
Escondido Union High,Classical Academy Online School,130 Woodward Avenue Escondido CA 92025,NA,NA,FALSE,tested,Escondido,San Diego County,33.12562,-117.085205
San Diego Unified,Clay Elementary,6506 Solita Avenue San Diego CA 92115-4244,10.5,ppb,TRUE,tested,La Mesa,San Diego County,32.763605,-117.057842
Chula Vista Elementary,Clear View,455 Windrose Way Chula Vista CA 91910-7400,NA,NA,FALSE,tested,Chula Vista,San Diego County,32.644646,-117.045023
Oceanside Unified,Coastal Academy,4096 Calle Platino Oceanside CA 92056-5805,NA,NA,NA,not tested,Oceanside,San Diego County,33.207338,-117.29282
San Diego Unified,Coleman Tech Charter High,3540 Aero Court San Diego CA 92123-1711,NA,NA,NA,not tested,San Diego,San Diego County,32.807486,-117.148613
Mountain Empire Unified,College Preparatory Middle,5150 Jackson Drive La Mesa CA 91942-9001,NA,NA,NA,not tested,La Mesa,San Diego County,32.777802,-117.018335
San Diego Community College,Community Schools North,2037 Mission Avenue B Oceanside CA 92054,NA,NA,NA,not tested,Oceanside,San Diego County,33.204718,-117.363571
Escondido Union,Conway Elementary,1325 Conway Drive Escondido CA 92027-1629,NA,NA,FALSE,tested,Escondido,San Diego County,33.146468,-117.075477
Chula Vista Elementary,Cook (Hazel Goes) Elementary,875 Cuyamaca Avenue Chula Vista CA 91911-1501,NA,NA,FALSE,tested,Chula Vista,San Diego County,32.626212,-117.056272
Coronado Unified,Coronado High,650 D Avenue Coronado CA 92118-2113,NA,NA,FALSE,tested,Coronado,San Diego County,32.691415,-117.178213
Coronado Unified,Coronado Middle,550 F Avenue Coronado CA 92118-2110,NA,NA,FALSE,tested,Coronado,San Diego County,32.693776,-117.179581
Coronado Unified,Coronado Unified Special Education Pre-K,201 6th Street Coronado CA 92118-1638,NA,NA,NA,not tested,Coronado,San Diego County,32.696178,-117.187148
Coronado Unified,Coronado Village Elementary,600 Sixth Street Coronado CA 92118-1600,NA,NA,FALSE,tested,Coronado,San Diego County,32.693416,-117.181609
San Diego Unified,Correia Middle,4302 Valeta Street San Diego CA 92107-1510,NA,NA,FALSE,tested,San Diego,San Diego County,32.747355,-117.230967
Private,Country Montessori School of Poway,12642 Monte Vista Road Poway CA 92064,NA,NA,FALSE,tested,Poway,San Diego County,32.994569,-117.054579
San Diego Unified,Crawford High,4191 Colts Way San Diego CA 92115-6023,NA,NA,FALSE,tested,San Diego,San Diego County,32.752912,-117.07683
San Diego Unified,"Creative, Performing, and Media Arts",5050 Conrad Avenue San Diego CA 92117-1401,NA,NA,FALSE,tested,San Diego,San Diego County,32.83846,-117.182041
Alpine Union Elementary,Creekside Early Learning Center,8818 Harbison Canyon Road Alpine CA 91901-2616,NA,NA,FALSE,tested,Alpine,San Diego County,32.833773,-116.815423
Poway Unified,Creekside Elementary,12362 Springhurst Drive San Diego CA 92128-6366,NA,NA,NA,not tested,San Diego,San Diego County,32.943732,-117.076703
Cajon Valley Union,Crest Elementary,2000 Suncrest Boulevard El Cajon CA 92021-4249,NA,NA,FALSE,tested,NA,San Diego County,32.804219,-116.864469
San Diego Unified,Crown Point Elementary,4033 Ingraham Street San Diego CA 92109-5946,NA,NA,FALSE,tested,San Diego,San Diego County,32.793446,-117.237981
San Diego Unified,Cubberley Elementary,3201 Marathon Drive San Diego CA 92123-2638,NA,NA,FALSE,tested,San Diego,San Diego County,32.802082,-117.126381
San Diego Unified,Curie Elementary,4080 Governor Drive San Diego CA 92122-2523,NA,NA,FALSE,tested,San Diego,San Diego County,32.855903,-117.203013
San Diego Unified,Dailard Elementary,6425 Cibola Road San Diego CA 92120-2125,NA,NA,FALSE,tested,San Diego,San Diego County,32.804545,-117.053886
San Diego Unified,Dana,1775 Chatsworth Boulevard San Diego CA 92106-3709,NA,NA,FALSE,tested,San Diego,San Diego County,32.732833,-117.234387
San Diego Unified,Darnall Charter,6020 Hughes Street San Diego CA 92115-6520,NA,NA,FALSE,tested,San Diego,San Diego County,32.746704,-117.066776
San Diego County Office of Education,Davila Day,540 G St Chula Vista CA 91910-3604,NA,NA,NA,not tested,Chula Vista,San Diego County,32.635026,-117.088268
Private,Dayspring Christian Learning Center,1150 Greenfield Drive El Cajon CA 92021,NA,NA,FALSE,tested,El Cajon,San Diego County,32.813712,-116.942208
San Diego Unified,De Portola Middle,11010 Clairemont Mesa Boulevard San Diego CA 92124-1507,NA,NA,FALSE,tested,San Diego,San Diego County,32.829395,-117.087109
Poway Unified,Deer Canyon Elementary,13455 Russet Leaf Lane San Diego CA 92129-4411,NA,NA,NA,not tested,San Diego,San Diego County,32.963971,-117.143677
Dehesa Elementary,Dehesa Elementary,4612 Dehesa Road B El Cajon CA 92019-2922,NA,NA,NA,not tested,El Cajon,San Diego County,32.786068,-116.911613
Escondido Union,Del Dios Academy of Arts and Sciences,1400 West Ninth Avenue Escondido CA 92025-2204,NA,NA,FALSE,tested,Escondido,San Diego County,33.111517,-117.082245
Escondido Union High,Del Dios Middle School,1400 W. 9th Ave Escondido CA 92025,NA,NA,NA,not tested,Escondido,San Diego County,33.111517,-117.082245
Escondido Union High,Del Lago Academy - Campus of Applied Science,1740 Scenic Trail Way Escondido CA 92029-4211,NA,NA,NA,not tested,Escondido,San Diego County,33.097333,-117.103525
Del Mar Union Elementary,Del Mar Heights Elementary,13555 Boquita Drive Del Mar CA 92014-3453,NA,NA,FALSE,tested,San Diego,San Diego County,32.94459,-117.249454
Del Mar Union Elementary,Del Mar Hills Elementary,14085 Mango Drive Del Mar CA 92014-0640,NA,NA,FALSE,tested,San Diego,San Diego County,32.954051,-117.246195
Poway Unified,Del Norte High School,16601 Nighthawk Lane San Diego CA 92127-4457,NA,NA,NA,not tested,San Diego,San Diego County,33.014022,-117.122463
Oceanside Unified,Del Rio Elementary,5200 North River Road Oceanside CA 92057-3811,NA,NA,FALSE,tested,Oceanside,San Diego County,33.254669,-117.297823
Poway Unified,Del Sur Elementary,15665 Paseo Del Sur San Diego CA 92127-6144,NA,NA,NA,not tested,San Diego,San Diego County,33.01841,-117.14073
Mountain Empire Unified,Descanso Elementary,24842 Viejas Boulevard Descanso CA 91916-9757,NA,NA,FALSE,tested,NA,San Diego County,32.858949,-116.613497
Poway Unified,Design 39 Campus,17050 Del Sur Ridge Road San Diego CA 92127-4463,NA,NA,NA,not tested,San Diego,San Diego County,33.017962,-117.12257
San Diego Unified,Dewey Elementary,3251 Rosecrans Street San Diego CA 92110-4835,NA,NA,FALSE,tested,San Diego,San Diego County,32.747233,-117.208336
Dehesa Elementary,Diego Hills Charter,4585 College Avenue San Diego CA 92115-4011,NA,NA,NA,not tested,San Diego,San Diego County,32.760648,-117.066633
Borrego Springs Unified,Diego Springs Academy,310 Broadway Chula Vista CA 91910-3502,NA,NA,NA,not tested,Chula Vista,San Diego County,32.63706,-117.092533
Julian Union Elementary,Diego Valley Charter,511 North 2nd Street El Cajon CA 92021-6449,NA,NA,FALSE,tested,El Cajon,San Diego County,32.800568,-116.935298
San Dieguito Union High,Diegueno Middle,2150 Village Park Way Encinitas CA 92024-5400,NA,NA,FALSE,tested,Encinitas,San Diego County,33.057958,-117.242112
San Diego Unified,Dingeman Elementary,11840 Scripps Creek Drive San Diego CA 92131-3701,NA,NA,FALSE,tested,San Diego,San Diego County,32.933447,-117.091252
Chula Vista Elementary,Discovery Charter,1100 Camino Biscay Chula Vista CA 91910-7737,NA,NA,FALSE,tested,Chula Vista,San Diego County,32.641995,-117.013665
San Marcos Unified,Discovery Elementary,730 Applewilde Drive San Marcos CA 92078-4969,NA,NA,FALSE,tested,San Marcos,San Diego County,33.128769,-117.189883
Oceanside Unified,Ditmar Elementary School,1125 South Ditmar St. Oceanside CA 92054,NA,NA,FALSE,tested,Oceanside,San Diego County,33.186065,-117.36847
San Marcos Unified,Double Peak K8 School,111 San Elijo Road San Marcos CA 92078,NA,NA,FALSE,tested,San Marcos,San Diego County,33.105691,-117.166996
San Diego Unified,Doyle Elementary,3950 Berino Court San Diego CA 92122-1601,NA,NA,FALSE,tested,San Diego,San Diego County,32.863748,-117.221924
Oceanside Unified,E. G. Garrison Elementary,333 Garrison Drive Oceanside CA 92054-4733,NA,NA,FALSE,tested,Oceanside,San Diego County,33.205348,-117.336903
San Diego Unified,e3 Civic High,395 11th Ave 6th Floor San Diego CA 92101,NA,NA,NA,not tested,San Diego,San Diego County,32.709217,-117.154524
San Dieguito Union High,Earl Warren Middle,155 Stevens Street Solana Beach CA 92075-2038,NA,NA,NA,not tested,Solana Beach,San Diego County,32.994736,-117.262681
Coronado Unified,Early Childhood Development Center (ECDC),199 6th St. Coronado CA 92118,NA,NA,FALSE,tested,Coronado,San Diego County,32.696596,-117.188154
Grossmont Union High,East County Regional Education Center,924 East Main St El Cajon CA 92021,NA,NA,FALSE,tested,El Cajon,San Diego County,32.795001,-116.949071
Sweetwater Union High,East Hills Academy,1791 Rock Mountain Road Chula Vista CA 91913,NA,NA,NA,not tested,Chula Vista,San Diego County,32.607148,-116.972097
San Diego Unified,East Village High,1405 Park Blvd. San Diego CA 92101-4717,NA,NA,FALSE,tested,San Diego,San Diego County,32.720004,-117.153751
Chula Vista Elementary,EastLake Elementary,1955 Hillside Drive Chula Vista CA 91913-1263,NA,NA,FALSE,tested,Chula Vista,San Diego County,32.657492,-116.982811
Sweetwater Union High,Eastlake High,1120 Eastlake Parkway Chula Vista CA 91915-2102,NA,NA,NA,not tested,Chula Vista,San Diego County,32.629563,-116.964893
Sweetwater Union High,Eastlake Middle,900 Duncan Ranch Road Chula Vista CA 91914-2626,NA,NA,NA,not tested,Chula Vista,San Diego County,32.654411,-116.948044
San Diego Unified,Edison Elementary,4077 35th Street San Diego CA 92104-2291,NA,NA,FALSE,tested,San Diego,San Diego County,32.751089,-117.117896
San Diego Unified,Einstein Academy,3035 Ash Street San Diego CA 92102-1718,NA,NA,FALSE,tested,San Diego,San Diego County,32.720148,-117.128967
Cajon Valley Union,EJE Academies,851 South Johnson Avenue El Cajon CA 92020-5811,NA,NA,FALSE,tested,El Cajon,San Diego County,32.791306,-116.970947
Private,El Cajon Seventh-day Adventist,1640 East Madison Avenue El Cajon CA 92019,NA,NA,FALSE,tested,El Cajon,San Diego County,32.803004,-116.920893
Grossmont Union High,El Cajon Valley High,1035 East Madison Avenue El Cajon CA 92021,NA,NA,FALSE,tested,El Cajon,San Diego County,32.800105,-116.947573
Grossmont Union High,El Cajon Valley High/EC Adult Center,1035 East Madison Ave El Cajon CA 92021-6226,NA,NA,FALSE,tested,El Cajon,San Diego County,32.800105,-116.947573
Encinitas Union Elementary,El Camino Creek Elementary,7885 Paseo Aliso Carlsbad CA 92009-9028,NA,NA,NA,not tested,Carlsbad,San Diego County,33.077026,-117.258968
Oceanside Unified,El Camino High,400 Rancho del Oro Drive Oceanside CA 92057-8316,NA,NA,FALSE,tested,Oceanside,San Diego County,33.221202,-117.319613
Grossmont Union High,El Capitan High,10410 Ashwood Street Lakeside CA 92040-2406,NA,NA,FALSE,tested,NA,San Diego County,32.8681,-116.916664
San Diego Unified,Elevate Elementary,2285 Murray Ridge Road San Diego CA 92123-3934,NA,NA,NA,not tested,San Diego,San Diego County,32.786391,-117.144214
Grossmont Union High,Elite/REACH Academy,230 Jamacha Boulevard El Cajon CA 92019-2359,NA,NA,FALSE,tested,NA,San Diego County,32.720981,-116.972331
Cajon Valley Union,Emerald Middle,1221 South Emerald Avenue El Cajon CA 92020-7315,NA,NA,FALSE,tested,El Cajon,San Diego County,32.778705,-116.967995
San Diego Unified,Emerson Elementary,3510 Newton Avenue San Diego CA 92113-3118,NA,NA,FALSE,tested,San Diego,San Diego County,32.695039,-117.118655
South Bay Union,Emory Elementary,1915 Coronado Avenue San Diego CA 92154-2021,NA,NA,FALSE,tested,San Diego,San Diego County,32.575662,-117.091608
San Diego Unified,Empower Charter,2230 East Jewett Street San Diego CA 92111-6013,NA,NA,NA,not tested,San Diego,San Diego County,32.785814,-117.172658
Vista Unified,Empresa Elementary,4850 Avenida Empresa Oceanside CA 92056-6541,NA,NA,FALSE,tested,Oceanside,San Diego County,33.224102,-117.287756
San Diego Unified,Encanto Elementary,822 65th Street San Diego CA 92114-2818,5.73,ppb,TRUE,tested,San Diego,San Diego County,32.714535,-117.058052
Private,English French Learning Academy,3219 Clairemont Mesa Boulevard San Diego CA 92117,NA,NA,FALSE,tested,San Diego,San Diego County,32.830619,-117.216093
San Diego Unified,Ericson Elementary,11174 Westonhill Drive San Diego CA 92126-1943,NA,NA,FALSE,tested,San Diego,San Diego County,32.92775,-117.136964
Escondido Union High,Escondido Adult,220 West Crest Escondido CA 92025,NA,NA,NA,not tested,Escondido,San Diego County,33.131217,-117.088464
Escondido Union High,Escondido Charter High,1868 East Valley Parkway Escondido CA 92027-2525,NA,NA,FALSE,tested,Escondido,San Diego County,33.136548,-117.055056
Escondido Union High,Escondido Community Day,2065 East Valley Parkway Encinitas CA 92027,NA,NA,NA,not tested,Escondido,San Diego County,33.137327,-117.050022
Escondido Union High,Escondido High,1535 North Broadway Escondido CA 92026-2015,NA,NA,NA,not tested,Escondido,San Diego County,33.146301,-117.091931
Escondido Union High,Escondido Union High School District,302 N. Midway Drive Escondido CA 92027,NA,NA,NA,not tested,Escondido,San Diego County,33.136069,-117.050778
Lakeside Union Elementary,Eucalyptus Hills Elementary,11838 Valle Vista Road Lakeside CA 92040-1046,NA,NA,FALSE,tested,NA,San Diego County,32.873768,-116.935333
San Diego Unified,Euclid Elementary,4166 Euclid Avenue San Diego CA 92105-1910,6.65,ppb,TRUE,tested,San Diego,San Diego County,32.752196,-117.093156
San Diego Unified,Evangeline Roberts Institute of Learning,6785 Imperial Avenue San Diego CA 92114-1103,NA,NA,NA,not tested,San Diego,San Diego County,32.710869,-117.051676
Fallbrook Union High,Fallbrook High,2400 South Stage Coach Lane Fallbrook CA 92028-4429,NA,NA,NA,not tested,NA,San Diego County,33.348525,-117.241815
Fallbrook Union Elementary,Fallbrook Street Elementary,405 West Fallbrook Street Fallbrook CA 92028-2108,NA,NA,NA,not tested,NA,San Diego County,33.376755,-117.25433
San Diego Unified,Farb Middle,4880 La Cuenta Drive San Diego CA 92124-3015,6.97,ppb,TRUE,tested,San Diego,San Diego County,32.820202,-117.099906
Escondido Union,Farr Avenue Elementary,933 Farr Avenue Escondido CA 92026-3121,NA,NA,FALSE,tested,Escondido,San Diego County,33.137796,-117.077606
San Diego Unified,Fay Elementary,4080 52nd Street San Diego CA 92105-2209,NA,NA,FALSE,tested,San Diego,San Diego County,32.747334,-117.083618
Chula Vista Elementary,Feaster (Mae L.) Charter,670 Flower Street Chula Vista CA 91910-1327,NA,NA,FALSE,tested,Chula Vista,San Diego County,32.642312,-117.097073
Escondido Union,Felicita Elementary,737 West 13th Avenue Escondido CA 92025-5510,NA,NA,FALSE,tested,Escondido,San Diego County,33.105213,-117.083059
San Diego Unified,Field Elementary,4375 Bannock Avenue San Diego CA 92117-2810,NA,NA,FALSE,tested,San Diego,San Diego County,32.831963,-117.198439
Chula Vista Elementary,Finney (Myrtle S.) Elementary,3950 Byrd Street San Diego CA 92154-1799,NA,NA,FALSE,tested,San Diego,San Diego County,32.585131,-117.048401
San Diego Unified,Fletcher Elementary,7666 Bobolink Way San Diego CA 92123-3701,8.22,ppb,TRUE,tested,San Diego,San Diego County,32.7894,-117.159065
La Mesa-Spring Valley,Fletcher Hills Elementary,2330 Center Place El Cajon CA 92020-2809,NA,NA,FALSE,tested,El Cajon,San Diego County,32.800493,-116.996584
Encinitas Union Elementary,Flora Vista Elementary,1690 Wandering Road Encinitas CA 92024-2417,NA,NA,NA,not tested,Encinitas,San Diego County,33.056895,-117.252276
San Diego Unified,Florence Elementary,3914 First Avenue San Diego CA 92103-3089,NA,NA,FALSE,tested,San Diego,San Diego County,32.748899,-117.164296
Cajon Valley Union,Flying Hills Elementary,1251 Finch Street El Cajon CA 92020-1433,NA,NA,FALSE,tested,El Cajon,San Diego County,32.811839,-116.982374
Vista Unified,Foothill Oak Elementary,1370 Oak Drive Vista CA 92084-4001,NA,NA,FALSE,tested,Vista,San Diego County,33.22002,-117.221821
Grossmont Union High,Foothills Adult Education Center,1550 Melody Lane El Cajon CA 92019,NA,NA,FALSE,tested,El Cajon,San Diego County,32.796557,-116.925288
Grossmont Union High,Foothills and Grossmont Adult Education Centers,1550 Melody Lane El Cajon CA 92019-2015,NA,NA,FALSE,tested,El Cajon,San Diego County,32.796557,-116.925288
Private,Foothills Christian High School,2321 Dryden Road El Cajon CA 92020,NA,NA,FALSE,tested,El Cajon,San Diego County,32.798469,-116.995919
Private,Foothills Christian Middle School,350 Cypress Ln. Ste C El Cajon CA 92020,NA,NA,FALSE,tested,El Cajon,San Diego County,32.817354,-116.965282
San Diego Unified,Foster Elementary,6550 51st Street San Diego CA 92120-2794,NA,NA,FALSE,tested,San Diego,San Diego County,32.792195,-117.085227
Oceanside Unified,Foussat Elementary School,3800 Pala Road Oceanside CA 92058,NA,NA,FALSE,tested,Oceanside,San Diego County,33.238121,-117.328829
San Diego Unified,Franklin Elementary,4481 Copeland Avenue San Diego CA 92116-4802,6.1,ppb,TRUE,tested,San Diego,San Diego County,32.758067,-117.103418
Private,Fred Finch Youth Center,3845 Spring Drive Room 18 Spring Valley CA 91977,NA,NA,FALSE,tested,Spring Valley,San Diego County,32.749066,-117.002741
San Diego Unified,Freese Elementary,8140 Greenlawn Drive San Diego CA 92114-7309,NA,NA,FALSE,tested,San Diego,San Diego County,32.704803,-117.027006
South Bay Union,Friendship School,601 Elm Ave Imperial Beach CA 91932,NA,NA,FALSE,tested,Imperial Beach,San Diego County,32.580036,-117.120155
Cajon Valley Union,Fuerte Elementary,11625 Fuerte Drive El Cajon CA 92020-8309,NA,NA,FALSE,tested,NA,San Diego County,32.766094,-116.971848
San Diego Unified,Fulton K-8,7055 Skyline Drive San Diego CA 92114-5930,5.41,ppb,TRUE,tested,San Diego,San Diego County,32.701251,-117.04836
Ramona City Unified,Future Bound Independent Study Secondary,720 Ninth Street Ramona CA 92065-2348,14,ppb,TRUE,tested,Ramona,San Diego County,33.039329,-116.863873
San Diego Unified,Gage Elementary,6811 Bisby Lake Drive San Diego CA 92119-1918,7.654999999999999,ppb,TRUE,tested,San Diego,San Diego County,32.806947,-117.014748
Poway Unified,Garden Road Elementary,14614 Garden Road Poway CA 92064-5299,NA,NA,FALSE,tested,Poway,San Diego County,32.957102,-117.011636
San Diego Unified,Garfield Elementary,4487 Oregon Street San Diego CA 92116-3018,6.5,ppb,TRUE,tested,San Diego,San Diego County,32.758205,-117.134511
San Diego Unified,Garfield High,1255 16th Street San Diego CA 92101-4759,NA,NA,FALSE,tested,San Diego,San Diego County,32.718735,-117.149051
South Bay Union,George Nicoloff Elementary,1777 Howard Avenue San Ysidro CA 92173-1235,NA,NA,FALSE,tested,San Diego,San Diego County,32.565991,-117.06673
South Bay Union,George Nicoloff North,1777 Howard Avenue San Ysidro CA 92173-1235,NA,NA,NA,not tested,San Diego,San Diego County,32.565991,-117.06673
South Bay Union,George Nicoloff South,1777 Howard Ave San Ysidro CA 92173-1235,NA,NA,NA,not tested,San Diego,San Diego County,32.565991,-117.06673
Escondido Union,Glen View Elementary,2201 East Mission Avenue Escondido CA 92027-1629,NA,NA,FALSE,tested,Escondido,San Diego County,33.146459,-117.05251
South Bay Union,Godfrey G. Berry Elementary,2001 Rimbey Street San Diego CA 92154-3032,7.7,ppb,TRUE,tested,San Diego,San Diego County,32.567521,-117.090772
San Diego Unified,Golden Hill K-8,1240 33rd Street San Diego CA 92102-2409,NA,NA,FALSE,tested,San Diego,San Diego County,32.71822,-117.123278
San Diego Unified,Gompers Preparatory Academy,1005 47th Street San Diego CA 92102-3626,NA,NA,FALSE,tested,San Diego,San Diego County,32.716096,-117.091366
Sweetwater Union High,Granger Junior High,2101 Granger Avenue National City CA 91950-6299,5.46,ppb,TRUE,tested,National City,San Diego County,32.672625,-117.073805
Grossmont Union High,Granite Hills High,1719 East Madison Avenue El Cajon CA 92019-1052,NA,NA,FALSE,tested,El Cajon,San Diego County,32.800127,-116.916926
San Diego Unified,Grant K-8,1425 Washington Place San Diego CA 92103-1792,NA,NA,FALSE,tested,San Diego,San Diego County,32.749181,-117.175613
Vista Unified,Grapevine Elementary,630 Grapevine Road Vista CA 92083-5599,11.5,ppb,TRUE,tested,Vista,San Diego County,33.199727,-117.273777
Jamul-Dulzura Union Elementary,Greater San Diego Academy,13881 Campo Road Jamul CA 91935-3208,NA,NA,NA,not tested,NA,San Diego County,32.71882,-116.878767
San Diego Unified,Green Elementary,7030 Wandermere Place San Diego CA 92119-2969,NA,NA,FALSE,tested,San Diego,San Diego County,32.79752,-117.045038
Cajon Valley Union,Greenfield Middle,1495 Greenfield Drive El Cajon CA 92021-3414,NA,NA,FALSE,tested,El Cajon,San Diego County,32.813188,-116.931424
Grossmont Union High,Grossmont High,1100 Murray Drive La Mesa CA 91944-1043,NA,NA,FALSE,tested,La Mesa,San Diego County,32.780012,-116.99982
Vista Unified,Guajome Learning Center,2000 North Santa Fe Avenue Vista CA 92083-1534,NA,NA,NA,not tested,Vista,San Diego County,33.203752,-117.244635
Vista Unified,Guajome Park Academy Charter,2000 North Santa Fe Ave Vista CA 92083-1534,NA,NA,NA,not tested,Vista,San Diego County,33.203752,-117.244635
San Diego Unified,Hage Elementary,9750 Galvin Avenue San Diego CA 92126-4823,NA,NA,FALSE,tested,San Diego,San Diego County,32.920568,-117.122226
Chula Vista Elementary,Halecrest Elementary,475 East J Street Chula Vista CA 91910-6499,NA,NA,FALSE,tested,Chula Vista,San Diego County,32.634541,-117.04271
San Diego Unified,Hamilton Elementary,2807 Fairmount Avenue San Diego CA 92105-4635,NA,NA,FALSE,tested,San Diego,San Diego County,32.736124,-117.100004
San Diego Unified,Hancock Elementary,3303 Taussig Street San Diego CA 92124-3501,NA,NA,FALSE,tested,San Diego,San Diego County,32.80584,-117.10756
Vista Unified,Hannalei Elementary,120 Hannalei Drive Vista CA 92083-7625,NA,NA,FALSE,tested,Vista,San Diego County,33.177448,-117.217137
Ramona City Unified,Hanson Elementary,2520 Boundary Avenue Ramona CA 92065-3106,NA,NA,FALSE,tested,NA,San Diego County,33.019244,-116.89176
Chula Vista Elementary,Harborside Elementary,681 Naples Street Chula Vista CA 91911-1619,NA,NA,FALSE,tested,Chula Vista,San Diego County,32.610552,-117.080313
San Diego Unified,Hardy Elementary,5420 Montezuma Road San Diego CA 92115-1329,NA,NA,FALSE,tested,San Diego,San Diego County,32.771671,-117.079301
San Diego Unified,Harriet Tubman Village Charter,6880 Mohawk Street San Diego CA 92115-1728,9.84,ppb,TRUE,tested,San Diego,San Diego County,32.769798,-117.049788
San Diego Unified,Hawthorne Elementary,4750 Lehrer Drive San Diego CA 92117-1358,NA,NA,FALSE,tested,San Diego,San Diego County,32.839099,-117.188634
San Diego Unified,Health Sciences High,3910 University Avenue Suite 100 San Diego CA 92105-7302,NA,NA,NA,not tested,San Diego,San Diego County,32.749966,-117.109838
San Diego Unified,Health Sciences Middle,3910 University Ave Suite 100 San Diego CA 92102-7302,NA,NA,NA,not tested,San Diego,San Diego County,32.749966,-117.109838
San Diego Unified,Hearst Elementary,6230 Del Cerro Boulevard San Diego CA 92120-4604,NA,NA,FALSE,tested,San Diego,San Diego County,32.783883,-117.064309
Private,"Heartland Christian Homeschool Center, Inc.",3327 Kenora Drive Spring Valley CA 91977,NA,NA,FALSE,tested,NA,San Diego County,32.740985,-116.987769
Chula Vista Elementary,Hedenkamp (Anne and William) Elementary,930 East Palomar Chula Vista CA 91913-2895,NA,NA,FALSE,tested,Chula Vista,San Diego County,32.61654,-117.014904
Grossmont Union High,Helix High,7323 University Avenue La Mesa CA 91941-6055,NA,NA,FALSE,tested,La Mesa,San Diego County,32.768476,-117.014566
San Diego Unified,Henry High,6702 Wandermere Drive San Diego CA 92120-3250,6.34,ppb,TRUE,tested,San Diego,San Diego County,32.798811,-117.05185
Chula Vista Elementary,Heritage Elementary,1450 Santa Lucia Road Chula Vista CA 91913-1480,NA,NA,FALSE,tested,Chula Vista,San Diego County,32.629855,-116.992816
Escondido Union,Heritage Junior High and Flex Academy,2255 East Valley Parkway Escondido CA 92027-2713,NA,NA,NA,not tested,Escondido,San Diego County,33.139991,-117.046182
Escondido Union,Heritage K-8 Charter,1855 East Valley Parkway Escondido CA 92027-2517,NA,NA,FALSE,tested,Escondido,San Diego County,33.136021,-117.05429
San Diego Unified,Hickman Elementary,10850 Montongo Street San Diego CA 92126-2629,5.02,ppb,TRUE,tested,San Diego,San Diego County,32.914994,-117.153358
Escondido Union,Hidden Valley Middle,2700 Reed Road Escondido CA 92027-1629,NA,NA,FALSE,tested,Escondido,San Diego County,33.133776,-117.033272
San Diego Unified,High Tech Elementary,2150 Cushing Road San Diego CA 92106,NA,NA,FALSE,tested,San Diego,San Diego County,32.731947,-117.217757
SBC - High Tech High,High Tech Elementary Chula Vista,1949 Discovery Falls Drive Chula Vista CA 91915-2037,NA,NA,FALSE,tested,Chula Vista,San Diego County,32.61634,-116.952955
San Diego Unified,High Tech Elementary Explorer,2230 Truxtun Road 1st Floor San Diego CA 92106-6128,NA,NA,FALSE,tested,San Diego,San Diego County,32.734604,-117.219758
SBC - High Tech High,High Tech Elementary North County,1480 West San Marcos Boulevard San Marcos CA 92078-4017,NA,NA,FALSE,tested,San Marcos,San Diego County,33.133984,-117.201788
San Diego Unified,High Tech High,2861 Womble Road San Diego CA 92106-6025,NA,NA,FALSE,tested,San Diego,San Diego County,32.73487,-117.21751
SBC - High Tech High,High Tech High Chula Vista,1945 Discovery Falls Drive Chula Vista CA 91915-2037,NA,NA,FALSE,tested,Chula Vista,San Diego County,32.615782,-116.95465
San Diego Unified,High Tech High International,2855 Farragut Road San Diego CA 92106-6029,NA,NA,FALSE,tested,San Diego,San Diego County,32.733136,-117.219148
San Diego Unified,High Tech High Media Arts 1,2230 Truxtun Road 3rd Floor San Diego CA 92106-6039,NA,NA,NA,not tested,San Diego,San Diego County,32.734604,-117.219758
San Diego Unified,High Tech High Media Arts 2,2291 Truxtun Road San Diego CA 92106,NA,NA,FALSE,tested,San Diego,San Diego County,32.735382,-117.21782
SBC - High Tech High,High Tech High North County,1420 San Marcos Boulevard San Marcos CA 92078-4017,NA,NA,FALSE,tested,San Marcos,San Diego County,33.132532,-117.202431
San Diego Unified,High Tech Middle,2359 Truxtun Road San Diego CA 92106-6049,NA,NA,FALSE,tested,San Diego,San Diego County,32.734224,-117.218947
SBC - High Tech High,High Tech Middle Chula Vista,1949 Discovery Falls dr Locn 2 Chula Vista CA 91915-2037,NA,NA,FALSE,tested,Chula Vista,San Diego County,32.61634,-116.952955
San Diego Unified,High Tech Middle Media Arts,2230 Truxtun Road San Diego CA 92106-6125,NA,NA,NA,not tested,San Diego,San Diego County,32.73464,-117.219715
SBC - High Tech High,High Tech Middle North County,1460 West San Marcos Boulevard San Marcos CA 92078-4017,NA,NA,FALSE,tested,San Marcos,San Diego County,33.133079,-117.202523
Poway Unified,Highland Ranch Elementary,14840 Waverley Downs Way San Diego CA 92128-3702,NA,NA,NA,not tested,San Diego,San Diego County,32.983852,-117.071682
La Mesa-Spring Valley,Highlands Elementary,3131 South Barcelona Street Spring Valley CA 91977-3003,NA,NA,FALSE,tested,NA,San Diego County,32.737408,-116.981658
Santee,Hill Creek Elementary,9665 Jeremy Street Santee CA 92071-2836,NA,NA,FALSE,tested,Santee,San Diego County,32.85294,-116.963236
Cajon Valley Union,Hillsdale Middle,1301 Brabham Street El Cajon CA 92019-4374,NA,NA,FALSE,tested,El Cajon,San Diego County,32.748933,-116.932023
Chula Vista Elementary,Hilltop Drive Elementary,30 Murray Street Chula Vista CA 91910-6020,NA,NA,FALSE,tested,Chula Vista,San Diego County,32.631882,-117.06529
Sweetwater Union High,Hilltop Middle,44 East J Street Chula Vista CA 91910-6115,NA,NA,FALSE,tested,Chula Vista,San Diego County,32.630115,-117.059059
Sweetwater Union High,Hilltop Senior High,555 Claire Avenue Chula Vista CA 91910-6105,NA,NA,FALSE,tested,Chula Vista,San Diego County,32.63754,-117.060136
San Diego Unified,Holly Drive Leadership Academy,4801 Elm Street San Diego CA 92102-1354,NA,NA,FALSE,tested,San Diego,San Diego County,32.723334,-117.092405
San Diego Unified,Holmes Elementary,4902 Mount Ararat Drive San Diego CA 92111-3808,NA,NA,FALSE,tested,San Diego,San Diego County,32.811331,-117.189324
Private,Holy Trinity Elementary,509 Ballard Street El Cajon CA 92019,NA,NA,FALSE,tested,El Cajon,San Diego County,32.790389,-116.941252
San Diego Unified,Home & Hosp/Transition Support,4100 Normal Street Annex 14 San Diego CA 92103,NA,NA,NA,not tested,San Diego,San Diego County,32.754247,-117.148133
San Diego Unified,Hoover High,4474 El Cajon Boulevard San Diego CA 92115-4312,NA,NA,FALSE,tested,San Diego,San Diego County,32.757235,-117.097984
Carlsbad Unified,Hope Elementary,3010 Tamarack Avenue Carlsbad CA 92008-2430,NA,NA,FALSE,tested,Carlsbad,San Diego County,33.169678,-117.303104
San Diego Unified,Horton Elementary,5050 Guymon Street San Diego CA 92102-3734,NA,NA,FALSE,tested,San Diego,San Diego County,32.712474,-117.086406
Chula Vista Elementary,Howard Gardner Community Charter,647 E Street Chula Vista CA 91910-2119,NA,NA,FALSE,tested,Chula Vista,San Diego County,32.641121,-117.09545
South Bay Union,Howard Pence Elementary,877 Via Tonga Court San Diego CA 92154-2256,NA,NA,FALSE,tested,San Diego,San Diego County,32.578412,-117.062334
San Diego Unified,Ibarra Elementary,4877 Orange Avenue San Diego CA 92115-4947,NA,NA,FALSE,tested,San Diego,San Diego County,32.753163,-117.089769
San Diego Unified,Iftin Charter,5465 El Cajon Boulevard San Diego CA 92115-3620,NA,NA,FALSE,tested,San Diego,San Diego County,32.757941,-117.078045
San Diego Unified,iHigh Virtual Academy,3939 Conde Street San Diego CA 92110-3012,NA,NA,NA,not tested,San Diego,San Diego County,32.751134,-117.194783
Sweetwater Union High,Imperial Beach Adult School,170 Palm Avenue Imperial Beach CA 92132,NA,NA,FALSE,tested,Imperial Beach,San Diego County,32.583771,-117.102152
South Bay Union,Imperial Beach Charter,650 Imperial Beach Boulevard Imperial Beach CA 91932-2706,12,ppb,TRUE,tested,Imperial Beach,San Diego County,32.576492,-117.119371
South Bay Union Elementary,Imperial Beach Charter School West Campus,525 3rd Street Imperial Beach CA 91932,6.6,ppb,TRUE,tested,Imperial Beach,San Diego County,32.586724,-117.127308
San Diego Unified,Ingenuity Charter,6130 Skyline Dr San Diego CA 92114-5620,NA,NA,FALSE,tested,San Diego,San Diego County,32.702541,-117.064835
San Diego Unified,Innovation Middle,5095 Arvinels Avenue San Diego CA 92117-2303,NA,NA,FALSE,tested,San Diego,San Diego County,32.836739,-117.175061
San Diego Unified,Innovations Academy,10380 Spring Canyon Road San Diego CA 92131-3699,NA,NA,FALSE,tested,San Diego,San Diego County,32.931885,-117.096537
Dehesa Elementary,Inspire Charter School - South,4612 Dehesa Road El Cajon CA 92019-2922,NA,NA,NA,not tested,El Cajon,San Diego County,32.786068,-116.911613
National Elementary,Integrity Charter,701 National City Boulevard National City CA 91950-1123,NA,NA,FALSE,tested,National City,San Diego County,32.676347,-117.106743
National Elementary,Ira Harbison,3235 East Eighth Street National City CA 91950-3116,7,ppb,TRUE,tested,National City,San Diego County,32.685779,-117.073179
Oceanside Unified,Ivey Ranch Elementary,4275 Via Rancho Road Oceanside CA 92057-8534,NA,NA,FALSE,tested,Oceanside,San Diego County,33.220397,-117.306682
Fallbrook Union High,Ivy High (Continuation),1056 Winterhaven Road Fallbrook CA 92028-4500,NA,NA,NA,not tested,Fallbrook,San Diego County,33.347613,-117.236796
Cajon Valley Union,Jamacha Elementary,2962 Jamul Drive El Cajon CA 92019-4640,NA,NA,FALSE,tested,NA,San Diego County,32.716999,-116.876135
Ramona City Unified,James Dukes Elementary,24908 Abalar Way Ramona CA 92065-4649,NA,NA,FALSE,tested,Ramona,San Diego County,33.009127,-116.791321
Fallbrook Union Elementary,James E. Potter Intermediate,1743 Reche Road Fallbrook CA 92028-2108,NA,NA,NA,not tested,NA,San Diego County,33.367626,-117.221651
Jamul-Dulzura Union Elementary,Jamul Intermediate,14545 Lyons Valley Road Jamul CA 91935-3324,NA,NA,NA,not tested,NA,San Diego County,32.730002,-116.855386
Jamul-Dulzura Union Elementary,Jamul Primary,14567 Lyons Valley Road Jamul CA 91935-3324,NA,NA,NA,not tested,NA,San Diego County,32.730027,-116.854937
San Diego Unified,Jefferson Elementary,3770 Utah Street San Diego CA 92104-3532,NA,NA,FALSE,tested,San Diego,San Diego County,32.747219,-117.13324
Carlsbad Unified,Jefferson Elementary,3743 Jefferson Street Carlsbad CA 92008-3336,NA,NA,FALSE,tested,Carlsbad,San Diego County,33.163296,-117.347221
Oceanside Unified,Jefferson Middle,823 Acacia Street Oceanside CA 92058-2305,NA,NA,FALSE,tested,Oceanside,San Diego County,33.210039,-117.363346
San Diego Unified,Jerabek Elementary,10050 Avenida Magnifica San Diego CA 92131-1426,NA,NA,FALSE,tested,San Diego,San Diego County,32.908129,-117.083634
Alpine Union Elementary,Joan MacQueen Middle,2001 Tavern Road Alpine CA 91901-3129,NA,NA,FALSE,tested,NA,San Diego County,32.824581,-116.775384
National Elementary,John A. Otis Elementary,621 East 18th Street National City CA 91950-4630,NA,NA,FALSE,tested,National City,San Diego County,32.668922,-117.097397
San Diego Unified,John Muir,4431 Mount Herbert Avenue San Diego CA 92117-4728,NA,NA,FALSE,tested,San Diego,San Diego County,32.824463,-117.193368
Cajon Valley Union,Johnson Elementary,500 West Madison El Cajon CA 92020-3211,NA,NA,FALSE,tested,El Cajon,San Diego County,32.801176,-116.968927
San Diego Unified,Johnson Elementary,1355 Kelton Road San Diego CA 92114-1229,NA,NA,FALSE,tested,San Diego,San Diego County,32.719465,-117.074361
San Marcos Unified,Joli Ann Leichtag Elementary,653 Poinsettia Avenue Vista CA 92081-8113,NA,NA,FALSE,tested,NA,San Diego County,33.157354,-117.20992
San Diego Unified,Jonas Salk Elementary,7825 Flanders Drive San Diego CA 92126-3449,NA,NA,FALSE,tested,San Diego,San Diego County,32.906684,-117.154988
San Diego Unified,Jones Elementary,2751 Greyling Drive San Diego CA 92123-2836,NA,NA,FALSE,tested,San Diego,San Diego County,32.795803,-117.14129
San Diego Unified,Joyner Elementary,4271 Myrtle Avenue San Diego CA 92105-3426,NA,NA,FALSE,tested,San Diego,San Diego County,32.742068,-117.102967
San Diego Unified,Juarez Elementary,2633 Melbourne Drive San Diego CA 92123-3535,5.02,ppb,TRUE,tested,San Diego,San Diego County,32.794123,-117.124804
Chula Vista Elementary,Juarez-Lincoln Elementary,849 Twining Avenue San Diego CA 92154-2599,NA,NA,FALSE,tested,San Diego,San Diego County,32.58074,-117.04418
Julian Union Elementary,"Julian charter School, Innovation Centre La Mesa",5300 Jackson Drive La Mesa CA 91942,NA,NA,FALSE,tested,La Mesa,San Diego County,32.775649,-117.013906
Julian Union Elementary,Julian Elementary,1704 Cape Horn D Julian CA 92036-0337,NA,NA,NA,not tested,Julian,San Diego County,33.078733,-116.594828
Julian Union High,Julian High,1656 Highway 78 B Julian CA 92036-0417,NA,NA,NA,not tested,Julian,San Diego County,33.077148,-116.59546
Julian Union Elementary,Julian Junior High,1704 Cape Horn C Julian CA 92036-0337,NA,NA,NA,not tested,Julian,San Diego County,33.078652,-116.594866
Escondido Union,Juniper Elementary,1809 South Juniper Street Escondido CA 92025-6240,5.8,ppb,TRUE,tested,Escondido,San Diego County,33.105238,-117.067317
San Diego Unified,Kavod Elementary Charter,3201 Marathon Dr San Diego CA 92123-2638,NA,NA,FALSE,tested,San Diego,San Diego County,32.802082,-117.126381
San Diego Unified,Kearny Digital Media & Design,1954 Komet Way San Diego CA 92111-5731,NA,NA,NA,not tested,San Diego,San Diego County,32.800175,-117.160542
San Diego Unified,"Kearny Eng, Innov & Design",1954 Komet Wy San Diego CA 92111-5731,NA,NA,NA,not tested,San Diego,San Diego County,32.800175,-117.160542
San Diego Unified,Kearny International Business,1954 Komet W San Diego CA 92111-5731,NA,NA,NA,not tested,San Diego,San Diego County,32.800175,-117.160542
San Diego Unified,Kearny SCT,1954 Komet  San Diego CA 92111-5731,NA,NA,FALSE,tested,San Diego,San Diego County,32.800175,-117.160542
San Diego Unified,Keiller Leadership Academy,7270 Lisbon Street San Diego CA 92114-3007,5.12,ppb,TRUE,tested,San Diego,San Diego County,32.713622,-117.042435
Chula Vista Elementary,Kellogg (Karl H.) Elementary,229 East Naples Street Chula Vista CA 91911-2399,7.5,ppb,TRUE,tested,Chula Vista,San Diego County,32.623978,-117.032089
Carlsbad Unified,Kelly Elementary,4885 Kelly Drive Carlsbad CA 92008-3734,NA,NA,FALSE,tested,Carlsbad,San Diego County,33.149354,-117.311346
La Mesa-Spring Valley,Kempton Elementary School,"740 Kempton St, Spring Valley, CA 91977",NA,NA,NA,exempt,Spring Valley,San Diego County,32.710776,-117.002087
La Mesa-Spring Valley,Kempton Street Elementary,740 Kempton Street Spring Valley CA 91977,NA,NA,NA,not tested,Spring Valley,San Diego County,32.710776,-117.002087
La Mesa-Spring Valley,Kempton Street Literacy Academy,"740 Kempton St, Spring Valley, CA 91977",NA,NA,NA,exempt,Spring Valley,San Diego County,32.710776,-117.002087
La Mesa-Spring Valley,Kempton Street Literacy Academy,740 Kempton Street Spring Valley CA 91977-5017,NA,NA,NA,not tested,NA,San Diego County,32.710521,-117.002882
National Elementary,Kimball,302 West 18th Street National City CA 91950-5526,8,ppb,TRUE,tested,National City,San Diego County,32.666477,-117.106133
San Diego Unified,Kimbrough Elementary,321 Hoitt Street San Diego CA 92102-3132,5.05,ppb,TRUE,tested,San Diego,San Diego County,32.708783,-117.132861
San Diego Unified,King-Chavez Academy of Excellence,2850 Logan Avenue San Diego CA 92113-2412,NA,NA,NA,not tested,San Diego,San Diego County,32.697061,-117.132708
San Diego Unified,King-Chavez Arts Academy,415 31st St. San Diego CA 92102-4236,NA,NA,NA,not tested,San Diego,San Diego County,32.709866,-117.126339
San Diego Unified,King-Chavez Athletics Academy,415 31st Street B San Diego CA 92102-4236,NA,NA,NA,not tested,San Diego,San Diego County,32.709866,-117.126339
San Diego Unified,King-Chavez Community High,201 A Street San Diego CA 92101-4003,NA,NA,NA,not tested,San Diego,San Diego County,32.718538,-117.162645
San Diego Unified,King-Chavez Preparatory Academy,500 30th Street San Diego CA 92102-3090,NA,NA,NA,not tested,San Diego,San Diego County,32.710744,-117.130515
San Diego Unified,King-Chavez Primary Academy,415 31st Street San Diego CA 92102-4236,NA,NA,FALSE,tested,San Diego,San Diego County,32.709866,-117.126339
San Diego Unified,KIPP Adelante Preparatory Academy,"1475 Sixth Avenue, Second Floor San Diego CA 92101-3245",NA,NA,NA,not tested,San Diego,San Diego County,32.720737,-117.1591
San Marcos Unified,Knob Hill Elementary,1825 Knob Hill Road San Marcos CA 92069-3301,NA,NA,FALSE,tested,San Marcos,San Diego County,33.138759,-117.117799
San Diego Unified,Knox Middle,1098 South 49th Street San Diego CA 92113-3599,NA,NA,FALSE,tested,San Diego,San Diego County,32.695229,-117.090575
San Diego Unified,Kumeyaay Elementary,6475 Antigua Boulevard San Diego CA 92124-4031,NA,NA,FALSE,tested,San Diego,San Diego County,32.835866,-117.090669
Escondido Union,L. R. Green Elementary,3115 Las Palmas Avenue Escondido CA 92025-7300,NA,NA,FALSE,tested,Escondido,San Diego County,33.085088,-117.059877
San Dieguito Union High,La Costa Canyon High,1 Maverick Way Encinitas CA 92009,NA,NA,FALSE,tested,Carlsbad,San Diego County,33.073174,-117.228064
Encinitas Union Elementary,La Costa Heights Elementary,3035 Levante Street Carlsbad CA 92009-8331,NA,NA,NA,not tested,Carlsbad,San Diego County,33.08092,-117.243387
San Marcos Unified,La Costa Meadows Elementary,6889 El Fuerte Street Carlsbad CA 92009-5923,NA,NA,FALSE,tested,Carlsbad,San Diego County,33.104528,-117.239977
San Diego Unified,La Jolla Elementary,1111 Marine Street La Jolla CA 92037-5131,NA,NA,FALSE,tested,San Diego,San Diego County,32.839127,-117.270964
San Diego Unified,La Jolla High,750 Nautilus Street La Jolla CA 92037-6103,8.42,ppb,TRUE,tested,San Diego,San Diego County,32.833784,-117.273018
La Mesa-Spring Valley,La Mesa Arts Academy,4200 Parks Avenue La Mesa CA 91942-6212,10,ppb,TRUE,tested,La Mesa,San Diego County,32.755398,-117.030379
La Mesa-Spring Valley,La Mesa Dale Elementary,4370 Parks Avenue La Mesa CA 91941-5214,NA,NA,FALSE,tested,La Mesa,San Diego County,32.757715,-117.032242
La Mesa-Spring Valley,La Mesa-Spring Valley Home Independent Study,4811 Glen Street La Mesa CA 91942-5474,NA,NA,FALSE,tested,La Mesa,San Diego County,32.766466,-117.008799
San Ysidro Elementary,La Mirada Elementary,222 Avenida de la Madrid San Ysidro CA 92173-1508,NA,NA,NA,not tested,San Diego,San Diego County,32.562946,-117.046105
Fallbrook Union Elementary,La Paloma Elementary,300 Heald Lane Fallbrook CA 92028-2108,NA,NA,NA,not tested,NA,San Diego County,33.378028,-117.235365
La Mesa-Spring Valley,La Presa Elementary,519 La Presa Street Spring Valley CA 91977-6011,NA,NA,NA,not tested,Spring Valley,San Diego County,32.70593,-116.993117
La Mesa-Spring Valley,La Presa Elementary School,"519 La Presa Ave, Spring Valley, CA 91977",NA,NA,NA,exempt,Spring Valley,San Diego County,32.70593,-116.993117
San Diego Unified,Lafayette Elementary,6125 Printwood Way San Diego CA 92117-3346,NA,NA,FALSE,tested,San Diego,San Diego County,32.826168,-117.16915
Vista Unified,Lake Elementary,4950 Lake Boulevard Oceanside CA 92056-4749,NA,NA,FALSE,tested,Oceanside,San Diego County,33.173625,-117.259967
Lakeside Union Elementary,Lakeside Early Advantage Preschool,9745 Marilla Drive Lakeside CA 92040-2807,NA,NA,FALSE,tested,NA,San Diego County,32.854257,-116.94062
Lakeside Union Elementary,Lakeside Farms Elementary,11915 Lakeside Avenue Lakeside CA 92040-0578,NA,NA,FALSE,tested,NA,San Diego County,32.866098,-116.935984
Lakeside Union Elementary,Lakeside Middle,11833 Woodside Avenue Lakeside CA 92040-0578,14,ppb,TRUE,tested,NA,San Diego County,32.854997,-116.938334
Lakeside Union Elementary,Lakeview Elementary,9205 Lakeview Road Lakeside CA 92040-0578,NA,NA,FALSE,tested,NA,San Diego County,32.858303,-116.904602
San Diego Unified,Language Academy,4961 64th Street San Diego CA 92115-2602,6.13,ppb,TRUE,tested,San Diego,San Diego County,32.767861,-117.061894
National Elementary,Las Palmas,1900 East 18th Street National City CA 91950-5013,NA,NA,FALSE,tested,National City,San Diego County,32.668922,-117.097397
Chula Vista Elementary,Lauderbach (J. Calvin) Elementary,390 Palomar Street Chula Vista CA 91911-3182,NA,NA,FALSE,tested,Chula Vista,San Diego County,32.606208,-117.068798
Oceanside Unified,Laurel Elementary,1410 Laurel Street Oceanside CA 92058-2217,NA,NA,FALSE,tested,Oceanside,San Diego County,33.208361,-117.374996
San Diego Unified,Laurel Preparatory Academy,10170 Huennekens St B San Diego CA 92121-2964,NA,NA,NA,not tested,San Diego,San Diego County,32.902766,-117.184084
San Diego Unified,Learning Choice Academy,4215 Spring Street Suite A-104 La Mesa CA 91941-7983,NA,NA,FALSE,tested,La Mesa,San Diego County,32.755668,-117.013547
Chula Vista Elementary,Learning Choice Academy â Chula Vista Resource Center,881 Kuhn Drive Suite 106 Chula Vista CA 94914,NA,NA,FALSE,tested,Chula Vista,San Diego County,32.652419,-116.965512
San Diego Unified,Lee Elementary,6196 Childs Avenue San Diego CA 92139-3612,NA,NA,NA,not tested,San Diego,San Diego County,32.671305,-117.057536
La Mesa-Spring Valley,Lemon Avenue Elementary,8787 Lemon Avenue La Mesa CA 91941-5214,10,ppb,TRUE,tested,La Mesa,San Diego County,32.768121,-117.008403
Lakeside Union Elementary,Lemon Crest Elementary,12463 Lemon Crest Drive Lakeside CA 92040-0578,NA,NA,FALSE,tested,NA,San Diego County,32.852336,-116.921157
Lemon Grove,Lemon Grove Academy Elementary,7885 Golden Avenue Lemon Grove CA 91945,NA,NA,FALSE,tested,Lemon Grove,San Diego County,32.741848,-117.028459
Lemon Grove,Lemon Grove Academy for the Sciences and Humanities,7866 Lincoln Street Lemon Grove CA 91945-2542,NA,NA,FALSE,tested,Lemon Grove,San Diego County,32.738225,-117.029315
Chula Vista Elementary,Leonardo da Vinci Health Sciences Charter,229 East Naples Chula Vista CA 91911-2332,NA,NA,NA,not tested,Chula Vista,San Diego County,32.623978,-117.032089
San Diego Unified,Lewis Middle,5170 Greenbrier Avenue San Diego CA 92120-1220,NA,NA,FALSE,tested,San Diego,San Diego County,32.797058,-117.080658
Cajon Valley Union,Lexington Elementary,1145 Redwood Ave El Cajon CA 92019-4739,NA,NA,FALSE,tested,El Cajon,San Diego County,32.79122,-116.94201
Oceanside Unified,Libby Elementary,423 West Redondo Drive Oceanside CA 92057-4316,NA,NA,FALSE,tested,Oceanside,San Diego County,33.252057,-117.304966
Chula Vista Elementary,Liberty Elementary,2175 Proctor Valley Road Chula Vista CA 91914-4026,NA,NA,FALSE,tested,Chula Vista,San Diego County,32.662275,-116.948289
Valley Center-Pauma Unified,Lilac,30109 Lilac Road Valley Center CA 92082-3318,NA,NA,FALSE,tested,NA,San Diego County,33.256082,-117.068015
National Elementary,Lincoln Acres,2200 Lanoitan Avenue National City CA 91950-6298,NA,NA,FALSE,tested,National City,San Diego County,32.670167,-117.076098
Escondido Union,Lincoln Elementary,1029 North Broadway Escondido CA 92026-3043,NA,NA,FALSE,tested,Escondido,San Diego County,33.134458,-117.088818
San Diego Unified,Lincoln High,4777 Imperial Avenue San Diego CA 92113-2071,NA,NA,FALSE,tested,San Diego,San Diego County,32.70226,-117.091404
Oceanside Unified,Lincoln Middle,2000 California Street Oceanside CA 92054-5683,NA,NA,FALSE,tested,Oceanside,San Diego County,33.188804,-117.35346
San Diego Unified,Linda Vista Elementary,2772 Ulric Street San Diego CA 92111-5530,NA,NA,FALSE,tested,San Diego,San Diego County,32.793205,-117.174335
San Diego Unified,Lindbergh/Schweitzer Elementary East,6991 Balboa AvenueAvenue San Diego CA 92111-3128,7.98,ppb,TRUE,tested,San Diego,San Diego County,32.819772,-117.167944
San Diego Unified,Lindbergh/Schweitzer Elementary West,4133 Mount Albertine Avenue San Diego CA 92111-3128,NA,NA,FALSE,tested,San Diego,San Diego County,32.819712,-117.171412
Lakeside Union Elementary,Lindo Park Elementary,12824 Lakeshore Drive Lakeside CA 92040-0578,6.1,ppb,TRUE,tested,NA,San Diego County,32.859907,-116.913845
San Diego County Office of Education,Literacy First Charter,799 East Washington Avenue El Cajon CA 92020-5327,NA,NA,FALSE,tested,El Cajon,San Diego County,32.787118,-116.952022
San Diego County Office of Education,Literacy First Charter School Jr Academy,1012 E. Bradley Ave El Cajon CA 92021,NA,NA,FALSE,tested,El Cajon,San Diego County,32.820737,-116.946714
San Diego County Office of Education,Literacy First Charter School Liberty Academy,698 W. Main St. El Cajon CA 92020,NA,NA,FALSE,tested,El Cajon,San Diego County,32.795491,-116.970497
San Diego County Office of Education,Literacy First Charter School Liberty High School,8425 Palm St. Lemon Grove CA 91945,NA,NA,FALSE,tested,Lemon Grove,San Diego County,32.734553,-117.019964
Fallbrook Union Elementary,Live Oak Elementary,1978 Reche Road Fallbrook CA 92028-2108,NA,NA,NA,not tested,NA,San Diego County,33.370116,-117.21745
San Diego Unified,Logan K-8,2875 Ocean View Boulevard San Diego CA 92113-1399,NA,NA,FALSE,tested,San Diego,San Diego County,32.701078,-117.132296
La Mesa-Spring Valley,Loma Elementary,10355 Loma Lane Spring Valley CA 91978-1517,NA,NA,NA,not tested,NA,San Diego County,32.736646,-116.96885
La Mesa-Spring Valley,Loma Elementary School,"10355 Loma Ln, Spring Valley, CA 91978",NA,NA,NA,exempt,NA,San Diego County,32.736646,-116.96885
San Diego Unified,Loma Portal Elementary,3341 Browning Street San Diego CA 92106-1599,NA,NA,FALSE,tested,San Diego,San Diego County,32.739955,-117.221472
Chula Vista Elementary,Loma Verde Elementary,1450 Loma Lane Chula Vista CA 91911-5310,NA,NA,FALSE,tested,Chula Vista,San Diego County,32.601186,-117.048927
San Diego Unified,Longfellow K-8,5055 July Street San Diego CA 92110-1114,NA,NA,FALSE,tested,San Diego,San Diego County,32.782889,-117.188552
Chula Vista Elementary,Los Altos Elementary,1332 Kenalan Drive San Diego CA 92154-3731,NA,NA,FALSE,tested,San Diego,San Diego County,32.57259,-117.04893
Cajon Valley Union,Los Coches Creek Middle,9669 Dunbar Lane El Cajon CA 92021-2619,NA,NA,FALSE,tested,El Cajon,San Diego County,32.860262,-116.818012
Poway Unified,Los Penasquitos Elementary,14125 Cuca Street San Diego CA 92129-1852,NA,NA,NA,not tested,San Diego,San Diego County,32.96979,-117.097159
Oceanside Unified,Louise Foussat Elementary,3800 Pala Road Oceanside CA 92058-0678,NA,NA,NA,not tested,Oceanside,San Diego County,33.238121,-117.328829
Sweetwater Union High,MAAC Community Charter,1385 Third Avenue Chula Vista CA 91911-4302,NA,NA,FALSE,tested,Chula Vista,San Diego County,32.604521,-117.064632
Cajon Valley Union,Madison Avenue Elementary,1615 East Madison Avenue El Cajon CA 92019-1046,NA,NA,FALSE,tested,El Cajon,San Diego County,32.800116,-116.922195
San Diego Unified,Madison High,4833 Doliva Drive San Diego CA 92117-3211,NA,NA,FALSE,tested,San Diego,San Diego County,32.831029,-117.173545
Vista Unified,Madison Middle,4930 Lake Boulevard Oceanside CA 92056-4749,NA,NA,FALSE,tested,Oceanside,San Diego County,33.175027,-117.258284
Carlsbad Unified,Magnolia Elementary,1905 Magnolia Avenue Carlsbad CA 92008-2632,5.7,ppb,TRUE,tested,Carlsbad,San Diego County,33.160061,-117.326673
Cajon Valley Union,Magnolia Elementary,650 Greenfield Drive El Cajon CA 92021-2957,NA,NA,FALSE,tested,El Cajon,San Diego County,32.813414,-116.953733
San Diego Unified,Magnolia Science Academy San Diego,6365 Lake Atlin Avenue San Diego CA 92119-3206,NA,NA,NA,not tested,San Diego,San Diego County,32.796716,-117.011759
Fallbrook Union Elementary,Maie Ellis Elementary,400 West Elder St. Fallbrook CA 92028-2108,NA,NA,NA,not tested,NA,San Diego County,33.378485,-117.255279
Vista Unified,Major General Raymond Murray High,215 North Melrose Drive Vista CA 92083-5720,NA,NA,FALSE,tested,Vista,San Diego County,33.198329,-117.254895
San Diego Unified,Mann Middle,4345 54th Street San Diego CA 92115-5336,8.145,ppb,TRUE,tested,San Diego,San Diego County,32.756588,-117.077393
Sweetwater Union High,Mar Vista Academy,1267 Thermal Avenue San Diego CA 92154-2802,NA,NA,FALSE,tested,San Diego,San Diego County,32.574883,-117.095952
Sweetwater Union High,Mar Vista Senior High,505 Elm Avenue Imperial Beach CA 91932-2027,NA,NA,FALSE,tested,Imperial Beach,San Diego County,32.578076,-117.122804
Private,Maranatha Christian School,9050 Maranatha Drive San Diego CA 92127,NA,NA,FALSE,tested,San Diego,San Diego County,33.023794,-117.13691
San Diego Unified,Marcy School,2716 Marcy Ave San Diego CA 92113,NA,NA,FALSE,tested,San Diego,San Diego County,32.697991,-117.136146
Chula Vista Elementary,Marshall (Thurgood) Elementary,2295 MacKenzie Creek Road Chula Vista CA 91914-3537,NA,NA,FALSE,tested,Chula Vista,San Diego County,32.658631,-116.966372
San Diego Unified,Marshall Elementary,3550 Altadena Avenue San Diego CA 92105-3698,NA,NA,FALSE,tested,San Diego,San Diego County,32.742455,-117.08646
San Diego Unified,Marshall Middle,9700 Avenue of Nations San Diego CA 92131-2135,NA,NA,FALSE,tested,San Diego,San Diego County,32.896299,-117.099361
San Diego Unified,Marston Middle,3799 Clairemont Drive San Diego CA 92117-5915,NA,NA,FALSE,tested,San Diego,San Diego County,32.808038,-117.199297
Oceanside Unified,Martin Luther King Jr. Middle,1290 Ivey Ranch Road Oceanside CA 92057-8535,NA,NA,FALSE,tested,Oceanside,San Diego County,33.219742,-117.309783
San Diego Unified,Marvin Elementary,5720 Brunswick Avenue San Diego CA 92120-1905,NA,NA,FALSE,tested,San Diego,San Diego County,32.797,-117.068147
Fallbrook Union Elementary,Mary Fay Pendleton Elementary,110 Marine Drive Oceanside CA 92058-8234,6.18,ppb,TRUE,tested,Oceanside,San Diego County,33.321569,-117.301439
La Mesa-Spring Valley,Maryland Avenue Elementary,5400 Maryland Avenue La Mesa CA 91941-5214,13,ppb,TRUE,tested,La Mesa,San Diego County,32.777703,-117.03826
Vista Unified,Maryland Elementary,700 North Avenue Vista CA 92084-2906,NA,NA,FALSE,tested,Vista,San Diego County,33.21551,-117.258029
San Diego Unified,Mason Elementary,10340 San Ramon Drive San Diego CA 92126-3235,NA,NA,FALSE,tested,San Diego,San Diego County,32.906083,-117.140734
Private,Mater Dei Catholic High School,1615 Mater Dei Drive Chula Vista CA 91913,NA,NA,FALSE,tested,Chula Vista,San Diego County,32.620433,-116.97632
San Diego Unified,McGill School of Success,3025 Fir Street San Diego CA 92102-1123,NA,NA,NA,not tested,San Diego,San Diego County,32.725016,-117.129705
San Diego Unified,McKinley Elementary,3045 Felton Street San Diego CA 92104-5218,8.4,ppb,TRUE,tested,San Diego,San Diego County,32.736627,-117.121142
Chula Vista Elementary,McMillin (Corky) Elementary,1201 Santa Cora Avenue Chula Vista CA 91913-1799,NA,NA,FALSE,tested,Chula Vista,San Diego County,32.631836,-116.985261
Poway Unified,Meadowbrook Middle,12320 Meadowbrook Lane Poway CA 92064-3599,NA,NA,FALSE,tested,Poway,San Diego County,32.963402,-117.063384
San Diego Unified,Memorial Scholars and Athletes,2850 Logan Ave San Diego CA 92113-2412,NA,NA,NA,not tested,San Diego,San Diego County,32.697061,-117.132708
Cajon Valley Union,Meridian Elementary,651 South Third Street El Cajon CA 92019-2517,NA,NA,FALSE,tested,El Cajon,San Diego County,32.788377,-116.925607
Poway Unified,Mesa Verde Middle,8375 Entreken Way San Diego CA 92129-4405,NA,NA,NA,not tested,San Diego,San Diego County,32.961478,-117.146717
Dehesa Elementary,MethodSchools,4612 Dehesa Rd El Cajon CA 92019-2922,NA,NA,NA,not tested,El Cajon,San Diego County,32.786068,-116.911613
Poway Unified,Midland Elementary,13910 Midland Road Poway CA 92064-4024,NA,NA,FALSE,tested,Poway,San Diego County,32.966181,-117.036237
Fallbrook Union Elementary,Mike Choate Center,407 South Mission Rd Fallbrook CA 92028,NA,NA,NA,not tested,NA,San Diego County,33.379493,-117.253713
San Diego Unified,Millennial Tech Middle,1110 Carolina Lane San Diego CA 92102-3713,NA,NA,FALSE,tested,San Diego,San Diego County,32.717252,-117.08861
Escondido Union,Miller Elementary,1975 Miller Avenue Escondido CA 92025-5932,NA,NA,FALSE,tested,Escondido,San Diego County,33.096648,-117.080018
San Diego Unified,Miller Elementary,4343 Shields Street San Diego CA 92124-2933,5.37,ppb,TRUE,tested,San Diego,San Diego County,32.818575,-117.107511
San Diego Unified,Mira Mesa High,10510 Reagan Road San Diego CA 92126-3275,NA,NA,FALSE,tested,San Diego,San Diego County,32.910639,-117.141525
San Diego Unified,Miramar Ranch Elementary,10770 Red Cedar Drive San Diego CA 92131-1204,NA,NA,FALSE,tested,San Diego,San Diego County,32.909392,-117.098624
San Diego Unified,Mission Bay High,2475 Grand Avenue San Diego CA 92109-4825,NA,NA,FALSE,tested,San Diego,San Diego County,32.799198,-117.234099
Private,Mission Bay Montessori Academy,2640 Soderblom Avenue San Diego CA 92122,NA,NA,FALSE,tested,San Diego,San Diego County,32.843501,-117.22958
Oceanside Unified,Mission Elementary,2100 Mission Avenue Oceanside CA 92058-2327,NA,NA,FALSE,tested,Oceanside,San Diego County,33.205632,-117.362999
Encinitas Union Elementary,Mission Estancia Elementary,3330 Calle Barcelona Carlsbad CA 92009-9319,NA,NA,NA,not tested,Carlsbad,San Diego County,33.07233,-117.240137
San Marcos Unified,Mission Hills High,1 Mission Hills Court San Marcos CA 92069-1965,NA,NA,FALSE,tested,San Marcos,San Diego County,33.14331,-117.141016
Vista Unified,Mission Meadows Elementary,5657 Spur Avenue Oceanside CA 92056-5714,NA,NA,FALSE,tested,Oceanside,San Diego County,33.246419,-117.256493
Escondido Union,Mission Middle,939 East Mission Avenue Escondido CA 92026-2216,NA,NA,FALSE,tested,Oceanside,San Diego County,33.197808,-117.37612
Vista Unified,Mission Vista High,1306 Melrose Drive Oceanside CA 92057-4649,NA,NA,FALSE,tested,Oceanside,San Diego County,33.25482,-117.263553
San Diego County Office of Education,Monarch,1625 Newton Avenue San Diego CA 92113-1012,NA,NA,NA,not tested,San Diego,San Diego County,32.702955,-117.150465
Vista Unified,Monte Vista Elementary,1720 Monte Vista Road Vista CA 92084-7122,6.300000000000001,ppb,TRUE,tested,NA,San Diego County,32.762125,-116.942491
Grossmont Union High,Monte Vista High,3230 Sweetwater Springs Boulevard Spring Valley CA 91977-6934,NA,NA,FALSE,tested,NA,San Diego County,32.737742,-116.973713
Ramona City Unified,Montecito High (Continuation),720 Ninth Str. Ramona CA 92065-2348,14,ppb,TRUE,tested,Ramona,San Diego County,33.039329,-116.863873
Lemon Grove,Monterey Heights Elementary,7550 Canton Drive Lemon Grove CA 91945-2515,NA,NA,FALSE,tested,Lemon Grove,San Diego County,32.722212,-117.033496
Poway Unified,Monterey Ridge Elementary,17117 4S Ranch Parkway San Diego CA 92127-8853,NA,NA,NA,not tested,NA,San Diego County,33.00809,-117.115799
Chula Vista Elementary,Montgomery (John J.) Elementary,1601 Fourth Avenue Chula Vista CA 91911-5799,NA,NA,FALSE,tested,Chula Vista,San Diego County,32.597696,-117.068697
Sweetwater Union High,Montgomery Adult,3240 Palm Avenue San Diego CA 92154-1507,NA,NA,FALSE,tested,San Diego,San Diego County,32.58389,-117.064303
Sweetwater Union High,Montgomery Middle,1051 Picador Boulevard San Diego CA 92154-3548,7.165,ppb,TRUE,tested,San Diego,San Diego County,32.576755,-117.055405
San Diego Unified,Montgomery Middle,2470 Ulric Street San Diego CA 92111-6099,NA,NA,FALSE,tested,San Diego,San Diego County,32.787837,-117.173017
Cajon Valley Union,Montgomery Middle,1570 Melody Lane El Cajon CA 92019-2015,NA,NA,FALSE,tested,El Cajon,San Diego County,32.79656,-116.924821
Sweetwater Union High,Montgomery Senior High,3250 Palm Avenue San Diego CA 92154-1507,NA,NA,FALSE,tested,San Diego,San Diego County,32.585893,-117.064215
Poway Unified,Morning Creek Elementary,10925 Morning Creek Drive South San Diego CA 92128-4047,NA,NA,NA,not tested,San Diego,San Diego County,32.953074,-117.095634
San Diego Unified,Morse High,6905 Skyline Drive San Diego CA 92114-5928,NA,NA,FALSE,tested,San Diego,San Diego County,32.702573,-117.048649
Dehesa Elementary,Mosaica Online Academy of Southern California,4612 Dehesa Road C El Cajon CA 92019-2922,NA,NA,NA,not tested,El Cajon,San Diego County,32.786068,-116.911613
Grossmont Union High,Mount Miguel High,8585 Blossom Lane Spring Valley CA 91977-3765,NA,NA,FALSE,tested,Spring Valley,San Diego County,32.722171,-117.015297
Ramona City Unified,Mountain Valley Academy,1010 Ramona Street Ramona CA 92065-3222,NA,NA,FALSE,tested,NA,San Diego County,33.026732,-116.878279
Alpine Union Elementary,Mountain View Learning Academy,8770 Harbison Canyon Road Alpine CA 91901-2615,5.66,ppb,TRUE,tested,Alpine,San Diego County,32.832623,-116.816024
Poway Unified,Mt. Carmel High,9550 Carmel Mountain Road San Diego CA 92129-2799,NA,NA,NA,not tested,San Diego,San Diego County,32.967446,-117.120433
San Diego Unified,Mt. Everest Academy,4350 Mount Everest Boulevard San Diego CA 92117-4847,8.88,ppb,TRUE,tested,San Diego,San Diego County,32.819994,-117.187193
Private,Mt. Helix Academy,5955 Severin Drive La Mesa CA 91942,NA,NA,FALSE,tested,La Mesa,San Diego County,32.786784,-116.998738
Lemon Grove,Mt. Vernon Elementary,8350 Mount Vernon Street Lemon Grove CA 91945-3336,NA,NA,FALSE,tested,Lemon Grove,San Diego County,32.731928,-117.020447
Ramona City Unified,Mt. Woodson Elementary,17427 Archie Moore Road Ramona CA 92065-6907,NA,NA,FALSE,tested,Ramona,San Diego County,33.032728,-116.957555
Chula Vista Elementary,Mueller Charter (Robert L.),715 I Street Chula Vista CA 91910-5112,NA,NA,FALSE,tested,Chula Vista,San Diego County,32.626245,-117.092895
San Diego Unified,Muirlands Middle,1056 Nautilus Street La Jolla CA 92037-6299,NA,NA,FALSE,tested,San Diego,San Diego County,32.833098,-117.269193
La Mesa-Spring Valley,Murdock Elementary,4354 Conrad Drive La Mesa CA 91941-5214,NA,NA,FALSE,tested,La Mesa,San Diego County,32.759278,-116.985668
La Mesa-Spring Valley,Murray Manor Elementary,8305 El Paso Street La Mesa CA 91942-2704,NA,NA,FALSE,tested,La Mesa,San Diego County,32.788322,-117.019807
San Diego Unified,Museum,211 Maple Street San Diego CA 92103-6527,NA,NA,NA,not tested,San Diego,San Diego County,32.73234,-117.162827
Cajon Valley Union,Naranca Elementary,1030 Naranca Avenue El Cajon CA 92021-5615,NA,NA,FALSE,tested,El Cajon,San Diego County,32.804018,-116.947147
Sweetwater Union High,National City Middle,1701 D Avenue National City CA 91950-4535,6.49,ppb,TRUE,tested,National City,San Diego County,32.672688,-117.101128
National Elementary,National School District Preschool,2401 East 24th Street National City CA 91950-6162,NA,NA,FALSE,tested,National City,San Diego County,32.670265,-117.075968
Lakeside Union Elementary,National University Academy,2030 University Drive Vista CA 92083-7736,NA,NA,FALSE,tested,Vista,San Diego County,33.173183,-117.219722
South Bay Union,Nestor Language Academy Charter,1455 Hollister Street San Diego CA 92154-4063,7.3500000000000005,ppb,TRUE,tested,San Diego,San Diego County,32.570376,-117.08274
Oceanside Unified,Nichols Elementary,4250 Old Grove Road Oceanside CA 92057-6539,NA,NA,FALSE,tested,Oceanside,San Diego County,33.238136,-117.315986
Escondido Union,Nicolaysen Community Day,420 North Falconer Rd. Escondido CA 92027,NA,NA,NA,not tested,Escondido,San Diego County,33.138557,-117.032685
San Diego Unified,Normal Heights Elementary,3750 Ward Road San Diego CA 92116-3737,NA,NA,FALSE,tested,San Diego,San Diego County,32.761006,-117.113302
Bonsall Unified,Norman L. Sullivan Middle,7350 West Lilac Road Bonsall CA 92003-5112,NA,NA,NA,not tested,NA,San Diego County,33.297398,-117.175002
Escondido Union,North Broadway Elementary,2301 North Broadway Escondido CA 92026-1412,NA,NA,FALSE,tested,Escondido,San Diego County,33.161119,-117.092927
Vista Unified,North County Trade Tech High,1126 North Melrose Drive Suite 301 Vista CA 92083-3467,NA,NA,FALSE,tested,Vista,San Diego County,33.212677,-117.254063
Oceanside Unified,North Terrace Elementary,141 Santa Rosa Drive Oceanside CA 92058-6880,NA,NA,FALSE,tested,NA,San Diego County,33.220903,-117.380904
La Mesa-Spring Valley,Northmont Elementary,9405 Gregory Street La Mesa CA 91942-3811,NA,NA,FALSE,tested,La Mesa,San Diego County,32.790843,-116.993913
San Diego Unified,Nye Elementary,981 Valencia Parkway San Diego CA 92114-6574,NA,NA,FALSE,tested,San Diego,San Diego County,32.696037,-117.068544
San Dieguito Union High,Oak Crest Middle,675 Balour Dr Encinitas CA 92024-3996,NA,NA,NA,not tested,Encinitas,San Diego County,33.043014,-117.268293
San Dieguito Union High,Oak Crest Middle School,675 Balour Dr.,NA,NA,NA,exempt,Encinitas,San Diego County,33.043014,-117.268293
San Dieguito Union High,Oak Crest Middle School,"675 Balour Dr, Encinitas, CA 92024",NA,NA,NA,exempt,Encinitas,San Diego County,33.043014,-117.268293
Valley Center-Pauma Unified,Oak Glen High,14172 West Oak Glen Road Valley Center CA 92082-4123,NA,NA,FALSE,tested,Valley Center,San Diego County,33.282681,-117.026247
Jamul-Dulzura Union Elementary,Oak Grove Middle,14344 Olive Vista Drive Jamul CA 91935-3223,NA,NA,NA,not tested,NA,San Diego County,32.723145,-116.861659
Escondido Union,Oak Hill Elementary,1820 Oak Hill Drive Escondido CA 92027-1629,NA,NA,FALSE,tested,Escondido,San Diego County,33.129538,-117.051305
San Diego Unified,Oak Park Elementary,2606 54th Street San Diego CA 92105-4999,NA,NA,FALSE,tested,San Diego,San Diego County,32.732618,-117.081187
Poway Unified,Oak Valley Middle School,16055 Winecreek Road San Diego CA 92127-3719,NA,NA,NA,not tested,San Diego,San Diego County,33.000416,-117.109355
Fallbrook Union High,Oasis High (Alternative),1056 Winterhaven Rd Fallbrook CA 92028-4500,NA,NA,NA,not tested,Fallbrook,San Diego County,33.347613,-117.236796
Del Mar Union Elementary,Ocean Air,11444 Canter Heights Drive San Diego CA 92130-6974,NA,NA,FALSE,tested,San Diego,San Diego County,32.927201,-117.213981
San Diego Unified,Ocean Beach Elementary,4741 Santa Monica Avenue San Diego CA 92107-2297,5.31,ppb,TRUE,tested,San Diego,San Diego County,32.744714,-117.246525
Encinitas Union Elementary,Ocean Knoll Elementary,910 Melba Road Encinitas CA 92024-3901,NA,NA,NA,not tested,Encinitas,San Diego County,33.040303,-117.272225
Encinitas Union Elementary,Ocean Knoll Elementary School,"910 Melba Rd.Encinitas, CA 92024",NA,NA,NA,exempt,Encinitas,San Diego County,33.040303,-117.272225
Oceanside Unified,Ocean Shores High (Continuation),3131 Oceanside Boulevard Oceanside CA 92056-2799,NA,NA,FALSE,tested,Oceanside,San Diego County,33.201129,-117.330387
San Ysidro Elementary,Ocean View Hills,4919 Del Sol Boulevard San Diego CA 92154-8488,NA,NA,NA,not tested,San Diego,San Diego County,32.571483,-117.024412
Oceanside Unified,Oceanside High,1 Pirates Cove Way Oceanside CA 92054-3066,NA,NA,FALSE,tested,Oceanside,San Diego County,33.197067,-117.374143
Oceanside Unified,Oceanside School of Business and Technology,1831 Mission Avenue Oceanside CA 92054,NA,NA,NA,not tested,Oceanside,San Diego County,33.203722,-117.365002
Oceanside Unified,Oceanside Unified School District,2111 Mission Avenue Oceanside CA 92058-2326,NA,NA,NA,not tested,Oceanside,San Diego County,33.205748,-117.36265
San Diego Unified,Old Town Academy K-8 Charter,2120 San Diego Avenue San Diego CA 92110-2901,NA,NA,NA,not tested,San Diego,San Diego County,32.746688,-117.189147
Vista Unified,Olive Elementary,836 Olive Avenue Vista CA 92083-3316,NA,NA,FALSE,tested,Vista,San Diego County,33.204601,-117.25903
Ramona City Unified,Olive Peirce Middle,1521 Hanson Lane Ramona CA 92065-3306,NA,NA,FALSE,tested,NA,San Diego County,33.026693,-116.871608
Encinitas Union Elementary,Olivenhain Pioneer Elementary,8000 Calle Acervo Carlsbad CA 92009-8900,NA,NA,NA,not tested,Carlsbad,San Diego County,33.069318,-117.232973
National Elementary,Olivewood,2505 F Avenue National City CA 91950-7017,NA,NA,FALSE,tested,National City,San Diego County,32.662919,-117.094941
Sweetwater Union High,Olympian High,1925 Magdalena Avenue Chula Vista CA 91913-3973,NA,NA,NA,not tested,Chula Vista,San Diego County,32.60905,-116.973117
Chula Vista Elementary,Olympic View Elementary,1220 South Greensview Drive Chula Vista CA 91915-2127,NA,NA,FALSE,tested,Chula Vista,San Diego County,32.637841,-116.965196
South Bay Union,Oneonta Elementary,1311 Tenth Street Imperial Beach CA 91932-3403,NA,NA,FALSE,tested,Imperial Beach,San Diego County,32.572863,-117.111584
Sweetwater Union High,Options Secondary,467 Moss Street Chula Vista CA 91911-1705,NA,NA,FALSE,tested,Chula Vista,San Diego County,32.615099,-117.077415
Escondido Union,Orange Glen Elementary,2861 Valley Parkway Escondido CA 92027-2930,NA,NA,FALSE,tested,Escondido,San Diego County,33.144631,-117.035985
Escondido Union High,Orange Glen High,2200 Glen Ridge Road Escondido CA 92027-4115,NA,NA,NA,not tested,Escondido,San Diego County,33.129173,-117.042074
Chula Vista Elementary,Otay Elementary,1651 Albany Avenue Chula Vista CA 91911-5801,NA,NA,FALSE,tested,Chula Vista,San Diego County,32.597535,-117.058203
Sweetwater Union High,Otay Ranch Senior High,1250 Olympic Parkway Chula Vista CA 91913-1900,NA,NA,NA,not tested,Chula Vista,San Diego County,32.62045,-116.990644
Private,Our Lady of Grace School,2766 Navajo Road El Cajon CA 92020,NA,NA,FALSE,tested,El Cajon,San Diego County,32.803908,-117.004108
San Diego Unified,Pacific Beach Elementary,1234 Tourmaline Street San Diego CA 92109-1856,NA,NA,FALSE,tested,San Diego,San Diego County,32.809181,-117.250578
San Diego Unified,Pacific Beach Middle,4676 Ingraham Street San Diego CA 92109-3192,NA,NA,FALSE,tested,San Diego,San Diego County,32.802128,-117.241699
Carlsbad Unified,Pacific Rim Elementary,1100 Camino de las Ondas Carlsbad CA 92009-3400,NA,NA,NA,not tested,Carlsbad,San Diego County,33.11091,-117.30536
San Dieguito Union High,Pacific Trails Middle,5975 Village Center Loop Road San Diego CA 92130-2499,NA,NA,NA,not tested,San Diego,San Diego County,32.958227,-117.186426
Oceanside Unified,Pacific View Charter,3670 Ocean Ranch Boulevard Oceanside CA 92056-2669,NA,NA,NA,not tested,Oceanside,San Diego County,33.217954,-117.297271
San Diego Unified,Pacific View Leadership Elementary,6196 Childs Ave San Diego CA  92139,NA,NA,FALSE,tested,San Diego,San Diego County,32.671305,-117.057536
Oceanside Unified,Pacifica Elementary,4991 Macario Drive Oceanside CA 92057-4302,NA,NA,NA,not tested,Oceanside,San Diego County,33.25713,-117.302585
Poway Unified,Painted Rock Elementary,16711 Martincoit Road Poway CA 92064-1628,NA,NA,FALSE,tested,Poway,San Diego County,33.017497,-117.039705
Coronado Unified,Palm Academy for Learning,555 D Avenue Coronado CA 92118-1714,NA,NA,FALSE,tested,Coronado,San Diego County,32.692895,-117.177123
National Elementary,Palmer Way,2900 Palmer Street National City CA 91950-5251,NA,NA,FALSE,tested,National City,San Diego County,32.679545,-117.075294
Oceanside Unified,Palmquist Elementary,1999 California Street Oceanside CA 92054-5685,NA,NA,FALSE,tested,Oceanside,San Diego County,33.188603,-117.351094
San Marcos Unified,Paloma Elementary,660 Camino Magnifico San Marcos CA 92069-7323,NA,NA,FALSE,tested,San Marcos,San Diego County,33.159406,-117.185679
Chula Vista Elementary,Palomar Elementary,300 East Palomar Street Chula Vista CA 91911-3799,NA,NA,FALSE,tested,Chula Vista,San Diego County,32.613974,-117.041951
Sweetwater Union High,Palomar High,480 Palomar Street Chula Vista CA 91911-3098,NA,NA,FALSE,tested,Chula Vista,San Diego County,32.604821,-117.073769
San Diego Unified,Paradise Hills Elementary,5816 Alleghany Street San Diego CA 92139-1799,NA,NA,FALSE,tested,San Diego,San Diego County,32.680247,-117.066479
Encinitas Union Elementary,Park Dale Lane Elementary,2050 Park Dale Lane Encinitas CA 92024-4324,NA,NA,NA,not tested,Encinitas,San Diego County,33.04642,-117.243114
Poway Unified,Park Village Elementary,7930 Park Village Road San Diego CA 92129-3781,NA,NA,NA,not tested,San Diego,San Diego County,32.941292,-117.150645
Chula Vista Elementary,Parkview Elementary,575 Juniper Street Chula Vista CA 91911-3826,NA,NA,FALSE,tested,Chula Vista,San Diego County,32.613,-117.031208
La Mesa-Spring Valley,Parkway Middle,9009 Park Plaza Drive La Mesa CA 91942-3400,NA,NA,FALSE,tested,La Mesa,San Diego County,32.79096,-117.004905
Bonsall Unified,Pathways Academy Charter,31505 Old River Road Bonsall CA 92003-3614,NA,NA,NA,not tested,NA,San Diego County,33.286036,-117.220576
Encinitas Union Elementary,Paul Ecke Central Elementary School,"185 Union St, .Encinitas, CA 92024",NA,NA,NA,exempt,Encinitas,San Diego County,33.058031,-117.298062
Encinitas Union Elementary,Paul Ecke-Central Elementary,185 Union Street Encinitas CA 92024-2119,NA,NA,NA,not tested,Encinitas,San Diego County,33.058031,-117.298062
Valley Center-Pauma Unified,Pauma Elementary,33158 Cole Grade Road Pauma Valley CA 92061-9578,NA,NA,NA,not tested,NA,San Diego County,33.315703,-117.00149
San Diego Unified,Penn Elementary,2797 Utica Drive San Diego CA 92139-3843,NA,NA,FALSE,tested,San Diego,San Diego County,32.67317,-117.047194
Santee,Pepper Drive Elementary,1935 Marlinda Way El Cajon CA 92020-1155,NA,NA,FALSE,tested,El Cajon,San Diego County,32.826849,-116.953984
San Diego Unified,Perkins K-8,1770 Main Street San Diego CA 92113-2104,NA,NA,FALSE,tested,San Diego,San Diego County,32.701186,-117.148736
San Diego Unified,Perry Elementary,6290 Oriskany Road San Diego CA 92139-1142,5.14,ppb,TRUE,tested,San Diego,San Diego County,32.685435,-117.059506
San Diego Unified,Pershing Middle,8204 San Carlos Drive San Diego CA 92119-2636,NA,NA,FALSE,tested,San Diego,San Diego County,32.802331,-117.020297
Mountain Empire Unified,Pine Valley Middle,7454 Pine Boulevard Pine Valley CA 91962,NA,NA,NA,not tested,NA,San Diego County,32.820077,-116.525979
Escondido Union,Pioneer Elementary,980 North Ash Street Escondido CA 92027-1629,8.7,ppb,TRUE,tested,Escondido,San Diego County,33.138743,-117.071254
Oceanside Unified,Plato High Indep. St.,2111 Mission Avenue Annex Oceanside CA 92054,NA,NA,NA,not tested,Oceanside,San Diego County,33.206266,-117.361871
Carlsbad Unified,Poinsettia Elementary,2445 Mica Road Carlsbad CA 92009-1733,NA,NA,NA,not tested,Carlsbad,San Diego County,33.118447,-117.253905
San Diego Unified,Point Loma High,2335 Chatsworth Boulevard San Diego CA 92106-1646,NA,NA,FALSE,tested,San Diego,San Diego County,32.73965,-117.226153
Poway Unified,Pomerado Elementary,12321 Ninth Street Poway CA 92064-3597,9.5,ppb,TRUE,tested,Poway,San Diego County,32.9586,-117.064373
San Diego Unified,Porter Elementary,4800 T Street San Diego CA 92113-5006,NA,NA,NA,not tested,San Diego,San Diego County,32.699641,-117.091078
San Diego Unified,Porter Elementary North,445 South 47th Street San Diego CA 92113,NA,NA,NA,not tested,San Diego,San Diego County,32.701013,-117.093637
Poway Unified,Poway Adult,13626 Twin Peaks Road Poway CA 92064-3034,6.07,ppb,TRUE,tested,Poway,San Diego County,32.978438,-117.035684
Poway Unified,Poway High,15500 Espola Road Poway CA 92064-2299,NA,NA,FALSE,tested,Poway,San Diego County,32.994117,-117.024753
San Diego Unified,Preuss School UCSD,9500 Gilman Drive La Jolla CA 92093-0536,NA,NA,NA,not tested,San Diego,San Diego County,32.876976,-117.241736
Santee,PRIDE Academy at Prospect Avenue,9303 Prospect Avenue Santee CA 92071-3798,NA,NA,FALSE,tested,Santee,San Diego County,32.833926,-116.995685
Escondido Union,Quantum Academy,420 North Falconer Road Escondido CA 92027-5331,NA,NA,FALSE,tested,Escondido,San Diego County,33.138557,-117.032685
Rancho Santa Fe Elementary,R. Roger Rowe Elementary,5927 LaGranada Rancho Santa Fe CA 92067-0809,NA,NA,NA,not tested,Rancho Santa Fe,San Diego County,33.02156,-117.206807
Rancho Santa Fe Elementary,R. Roger Rowe Middle,5927 La Granada Rancho Santa Fe CA 92067-0809,NA,NA,NA,not tested,NA,San Diego County,33.020682,-117.206887
Ramona City Unified,Ramona Adult,720 Ninth St. Ramona CA 92065-2348,14,ppb,TRUE,tested,Ramona,San Diego County,33.039329,-116.863873
Ramona City Unified,Ramona Community Montessori,1010 Ramona St Ramona CA 92065-3222,NA,NA,FALSE,tested,NA,San Diego County,33.026732,-116.878279
Ramona City Unified,Ramona Elementary,415 Eighth Street Ramona CA 92065-2346,NA,NA,FALSE,tested,Ramona,San Diego County,33.04175,-116.864899
Ramona City Unified,Ramona High,1401 Hanson Lane Ramona CA 92065-3304,NA,NA,FALSE,tested,NA,San Diego County,33.027578,-116.86871
Poway Unified,Rancho Bernardo High,13010 Paseo Lucido San Diego CA 92128-4499,NA,NA,NA,not tested,San Diego,San Diego County,32.996963,-117.067666
Vista Unified,Rancho Buena Vista High,1601 Longhorn Drive Vista CA 92081-5423,NA,NA,FALSE,tested,Vista,San Diego County,33.163375,-117.247139
Sweetwater Union High,Rancho del Rey Middle,1174 East J Street Chula Vista CA 91910-7040,NA,NA,NA,not tested,Chula Vista,San Diego County,32.635067,-117.036926
La Mesa-Spring Valley,Rancho Elementary,8845 Noeline Avenue Spring Valley CA 91977-5716,NA,NA,NA,not tested,San Diego,San Diego County,32.704318,-117.015568
La Mesa-Spring Valley,Rancho Elementary School,"8845 Noeline Ave, Spring Valley, CA 91977",NA,NA,NA,exempt,San Diego,San Diego County,32.704318,-117.015568
Vista Unified,Rancho Minerva Middle,2245 Foothill Drive Vista CA 92084-6035,NA,NA,FALSE,tested,Vista,San Diego County,33.204724,-117.205773
Cajon Valley Union,Rancho San Diego Elementary,12151 Calle Albara El Cajon CA 92019-4825,NA,NA,FALSE,tested,El Cajon,San Diego County,32.754316,-116.932715
Julian Union High,Redding (Ray) High (Continuation),1517 Highway 78 Julian CA 92036-0417,NA,NA,NA,not tested,Julian,San Diego County,33.076521,-116.59165
Escondido Union,Reidy Creek Elementary,2869 North Broadway Escondido CA 92026-8802,8,ppb,TRUE,tested,Escondido,San Diego County,33.172202,-117.091929
Oceanside Unified,Reynolds Elementary,4575 Douglas Drive Oceanside CA 92057-4228,NA,NA,FALSE,tested,Oceanside,San Diego County,33.262833,-117.308148
Chula Vista Elementary,Rice (Lilian J.) Elementary,915 Fourth Avenue Chula Vista CA 91911-2098,NA,NA,FALSE,tested,Chula Vista,San Diego County,32.618587,-117.075225
San Marcos Unified,Richland Elementary,910 Borden Road San Marcos CA 92069-2199,NA,NA,NA,not tested,San Marcos,San Diego County,33.154275,-117.140918
San Diego Unified,Riley/New Dawn,5650 Mount Ackerly Drive San Diego CA 92111-4016,NA,NA,FALSE,tested,San Diego,San Diego County,32.810658,-117.179351
Escondido Union,Rincon Middle,925 Lehner Avenue Escondido CA 92026-1512,NA,NA,FALSE,tested,Escondido,San Diego County,33.157345,-117.081098
Santee,Rio Seco Elementary,9545 Cuyamaca Street Santee CA 92071-2674,NA,NA,FALSE,tested,Santee,San Diego County,32.836153,-116.983711
Cajon Valley Union,Rios Elementary,14314 Rios Canyon Road El Cajon CA 92021-2725,NA,NA,FALSE,tested,El Cajon,San Diego County,32.840641,-116.873231
Lakeside Union Elementary,River Valley Charter,9707 1/2 Marilla Drive Lakeside CA 92040-2868,NA,NA,NA,not tested,Lakeside,San Diego County,32.853202,-116.93983
Lakeside Union Elementary,Riverview Elementary,9308 Winter Gardens Boulevard Lakeside CA 92040-4539,NA,NA,FALSE,tested,NA,San Diego County,32.846443,-116.932397
Escondido Union,Rock Springs Elementary,1155 Deodar Road Escondido CA 92026-2200,NA,NA,FALSE,tested,Escondido,San Diego County,33.137299,-117.106158
San Diego Unified,Rodriguez Elementary,825 South 31st Street San Diego CA 92113-2525,NA,NA,FALSE,tested,San Diego,San Diego County,32.697859,-117.127211
Chula Vista Elementary,Rogers (Greg) Elementary,510 East Naples Street Chula Vista CA 91911-2519,NA,NA,FALSE,tested,Chula Vista,San Diego County,32.623978,-117.032089
Chula Vista Elementary,Rohr (Fred H.) Elementary,1540 Malta Avenue Chula Vista CA 91911-5999,NA,NA,FALSE,tested,Chula Vista,San Diego County,32.602433,-117.040581
La Mesa-Spring Valley,Rolando Elementary,6925 Tower Street La Mesa CA 91941-5214,NA,NA,FALSE,tested,La Mesa,San Diego County,32.763159,-117.048704
San Diego Unified,Rolando Park Elementary,6620 Marlowe Drive San Diego CA 92115-6740,NA,NA,FALSE,tested,San Diego,San Diego County,32.746523,-117.054773
Poway Unified,Rolling Hills Elementary,15255 Penasquitos Drive San Diego CA 92129-1016,NA,NA,NA,not tested,San Diego,San Diego County,32.990055,-117.091879
San Diego Unified,Roosevelt International Middle,3366 Park Boulevard San Diego CA 92103-5299,NA,NA,FALSE,tested,San Diego,San Diego County,32.740261,-117.15034
Vista Unified,Roosevelt Middle,850 Sagewood Drive Oceanside CA 92057-6937,NA,NA,FALSE,tested,Oceanside,San Diego County,33.236679,-117.281431
San Diego Unified,Rosa Parks Elementary,4510 Landis Street San Diego CA 92105-2822,NA,NA,FALSE,tested,San Diego,San Diego County,32.746891,-117.097473
Escondido Union,Rose Elementary,906 North Rose Avenue Escondido CA 92027-1629,NA,NA,FALSE,tested,Escondido,San Diego County,33.143074,-117.064458
Chula Vista Elementary,Rosebank Elementary,80 Flower Street Chula Vista CA 91911-1997,NA,NA,FALSE,tested,Chula Vista,San Diego County,32.64363,-117.092102
San Diego Unified,Ross Elementary,7470 Bagdad Street San Diego CA 92111-4317,NA,NA,FALSE,tested,San Diego,San Diego County,32.812293,-117.161237
San Diego Unified,Rowan Elementary,1755 Rowan Street San Diego CA 92105-5631,NA,NA,FALSE,tested,San Diego,San Diego County,32.72363,-117.112172
Del Mar Union Elementary,Sage Canyon,5290 Harvest Run Drive San Diego CA 92130-4875,NA,NA,FALSE,tested,San Diego,San Diego County,32.92617,-117.203542
Private,Saint Kieran Catholic School,1347 Camillo Way El Cajon CA 92021,NA,NA,FALSE,tested,El Cajon,San Diego County,32.814004,-116.928629
Chula Vista Elementary,Salt Creek Elementary,1055 Hunte Parkway Chula Vista CA 91914-3622,NA,NA,FALSE,tested,Chula Vista,San Diego County,32.647713,-116.94868
Lemon Grove,San Altos Elementary,1750 Madera Street Lemon Grove CA 91945-2515,NA,NA,FALSE,tested,Lemon Grove,San Diego County,32.726681,-117.042671
San Diego Unified,San Diego Adult,2555 Camino Del Rio South Ste 155 San Diego CA 92108,NA,NA,NA,not tested,San Diego,San Diego County,32.768559,-117.137106
San Diego Unified,San Diego Business/Leadership,1405 Park Boulevard San Diego CA 92101-4722,NA,NA,FALSE,tested,San Diego,San Diego County,32.720004,-117.153751
San Carlos Elementary,San Diego Continuing Education,4343 Ocean View Boulevard San Diego CA 92113-1915,NA,NA,NA,not tested,San Diego,San Diego County,32.700422,-117.101619
San Diego Unified,San Diego Cooperative Charter,7260 Linda Vista Road San Diego CA 92111-6128,6.06,ppb,TRUE,tested,San Diego,San Diego County,32.791457,-117.166858
San Diego Unified,San Diego Cooperative Charter 2 North,3550 Logan Ave San Diego CA 92113,NA,NA,FALSE,tested,San Diego,San Diego County,32.698091,-117.118052
San Diego Unified,San Diego Cooperative Charter School 2,3550 Logan Avenue San Diego CA 92113-2712,6.42,ppb,TRUE,tested,San Diego,San Diego County,32.698091,-117.118052
San Diego County Office of Education,San Diego County Community,210 W Ash St San Diego CA 92101-3409,NA,NA,NA,not tested,San Diego,San Diego County,32.72014,-117.16511
San Diego County Office of Education,San Diego County Court,2801 Meadow Lark Drive San Diego CA 92123,NA,NA,NA,not tested,San Diego,San Diego County,32.79345,-117.154248
San Diego County ROP,San Diego County ROP,6401 Linda Vista Road Room 408 San Diego CA 92111-7319,NA,NA,NA,not tested,San Diego,San Diego County,32.769578,-117.179848
San Diego County Office of Education,San Diego County Special Education,6401 Linda Vista Road Rm 409 San Diego CA 92111-7319,NA,NA,NA,not tested,San Diego,San Diego County,32.769578,-117.179848
San Diego Unified,San Diego Early/Middle College,"1425 Russ Boulevard, Suite T112-D San Diego CA 92101-4717",NA,NA,NA,not tested,San Diego,San Diego County,32.718767,-117.151614
Private,San Diego FrenchâAmerican School,6550 Soledad Mountain Road La Jolla CA 92037,NA,NA,FALSE,tested,San Diego,San Diego County,32.83509,-117.248332
San Diego Unified,San Diego Global Vision Academy,3430 School Street San Diego CA 92116-3423,NA,NA,FALSE,tested,San Diego,San Diego County,32.762398,-117.119073
San Diego Unified,San Diego Global Vision Academy Middle,3430 School St San Diego CA 92116-3423,NA,NA,NA,not tested,San Diego,San Diego County,32.762398,-117.119073
San Diego Unified,San Diego International Studies,1405 Park Boulevard San Diego CA 92101-4722,NA,NA,NA,not tested,San Diego,San Diego County,32.720004,-117.153751
San Diego Unified,San Diego Metro Career and Tech,"7250 Mesa College Drive, Room L-502 San Diego CA 92111-4902",NA,NA,NA,not tested,San Diego,San Diego County,32.804756,-117.169058
Mountain Empire Unified,San Diego Neighborhood Homeschools,3548 Seagate Way Suite 140 Oceanside CA 92056-2676,NA,NA,NA,not tested,Oceanside,San Diego County,33.208002,-117.303038
San Diego Unified,San Diego Science and Technology,1405 Park Boulevard B San Diego CA 92101-4722,NA,NA,NA,not tested,San Diego,San Diego County,32.720004,-117.153751
San Diego Unified,San Diego SCPA,2425 Dusk Drive San Diego CA 92139-2412,NA,NA,FALSE,tested,San Diego,San Diego County,32.679771,-117.048057
San Dieguito Union High,San Dieguito Academy,"800 Santa Fe Dr, Encinitas, CA 92024",NA,NA,NA,exempt,Encinitas,San Diego County,33.036352,-117.275019
San Dieguito Union High,San Dieguito High Academy,800 Santa Fe Drive Encinitas CA 92024-3357,NA,NA,NA,not tested,Encinitas,San Diego County,33.036352,-117.275019
San Marcos Unified,San Elijo Elementary,1615 Schoolhouse Way San Marcos CA 92078-1080,NA,NA,FALSE,tested,San Marcos,San Diego County,33.100897,-117.197282
San Marcos Unified,San Elijo Middle,1600 Schoolhouse Way San Marcos CA 92078-1079,NA,NA,FALSE,tested,San Marcos,San Diego County,33.100897,-117.197282
Oceanside Unified,San Luis Rey Elementary,3535 Hacienda Drive Oceanside CA 92054-3854,NA,NA,FALSE,tested,Oceanside,San Diego County,33.219179,-117.33685
San Marcos Unified,San Marcos Elementary,1 Tiger Way San Marcos CA 92069-2703,NA,NA,FALSE,tested,San Marcos,San Diego County,33.141439,-117.168689
San Marcos Unified,San Marcos High,1615 San Marcos Boulevard San Marcos CA 92078-4020,NA,NA,FALSE,tested,San Marcos,San Diego County,33.130114,-117.205181
San Marcos Unified,San Marcos Middle,650 West Mission Road San Marcos CA 92069-1555,NA,NA,NA,not tested,San Marcos,San Diego County,33.145774,-117.175407
Lemon Grove,San Miguel Elementary,7059 San Miguel Avenue Lemon Grove CA 91945-2515,NA,NA,FALSE,tested,Lemon Grove,San Diego County,32.735111,-117.045536
Fallbrook Union Elementary,San Onofre Elementary,200 Pate Road San Clemente CA 92672-2517,5.23,ppb,TRUE,tested,NA,San Diego County,33.38993,-117.57721
San Diego County Office of Education,San Pasqual Academy,17701 San Pasqual Valley Road Escondido CA 92025-5301,NA,NA,NA,not tested,Escondido,San Diego County,33.125934,-117.06483
Escondido Union High,San Pasqual High,3300 Bear Valley Parkway Escondido CA 92025-7636,NA,NA,NA,not tested,Escondido,San Diego County,33.094212,-117.0589
San Pasqual Union Elementary,San Pasqual Union Elementary,15305 Rockwood Road Escondido CA 92027-6700,NA,NA,FALSE,tested,Escondido,San Diego County,33.111293,-117.008708
Oceanside Unified,San Rafael Elementary,1616 San Rafael Drive Oceanside CA 92054-1198,NA,NA,NA,not tested,Oceanside,San Diego County,33.209643,-117.385003
Sweetwater Union High,San Ysidro Adult Education Center,4220 Otay Mesa Road San Ysidro CA 92173,NA,NA,NA,not tested,San Diego,San Diego County,32.559862,-117.040804
Sweetwater Union High,San Ysidro High,5353 Airway Road San Diego CA 92154-4806,NA,NA,NA,not tested,San Diego,San Diego County,32.565561,-117.017775
San Ysidro Elementary,San Ysidro Middle,4345 Otay Mesa Road San Ysidro CA 92173-1623,NA,NA,NA,not tested,San Diego,San Diego County,32.560113,-117.039141
San Diego Unified,Sandburg Elementary,11230 Avenida del Gato San Diego CA 92126-1235,NA,NA,FALSE,tested,San Diego,San Diego County,32.925832,-117.149795
Oceanside Unified,Santa Margarita Elementary,1 Carnes Road Oceanside CA 92058-6699,NA,NA,FALSE,tested,NA,San Diego County,33.231834,-117.378024
Private,Santa Sophia Academy,9806 San Juan Street Spring Valley CA 91977,NA,NA,FALSE,tested,NA,San Diego County,32.748788,-116.98697
Grossmont Union High,Santana High,9915 North Magnolia Avenue Santee CA 92071-1903,NA,NA,FALSE,tested,Santee,San Diego County,32.85754,-116.971143
Santee,Santee Success Program,10280 North Magnolia Avenue Santee CA 92071-1998,NA,NA,NA,not tested,Santee,San Diego County,32.857426,-116.970998
Private,Scholarship Prep Charter School,4070 Mission Ave Oceanside CA 92057,6.9,ppb,TRUE,tested,Oceanside,San Diego County,33.22761,-117.326669
Oceanside Unified,School of Business and Technology,320 North Horne Oceanside CA 92054,NA,NA,NA,not tested,Oceanside,San Diego County,33.199585,-117.37693
La Mesa-Spring Valley,"Science, Technology, Engineering, Arts, and Math Academy at La Presa",1001 Leland Street Spring Valley CA 91977-4819,NA,NA,NA,not tested,Spring Valley,San Diego County,32.711675,-117.005155
San Diego Unified,Scripps Elementary,11778 Cypress Canyon Road San Diego CA 92131-3743,NA,NA,FALSE,tested,San Diego,San Diego County,32.930113,-117.082301
San Diego Unified,Scripps Ranch High,10410 Treena Street San Diego CA 92131-1126,NA,NA,FALSE,tested,San Diego,San Diego County,32.910521,-117.113928
San Diego Unified,Sequoia Elementary,4690 Limerick Avenue San Diego CA 92117-3220,NA,NA,FALSE,tested,San Diego,San Diego County,32.828141,-117.179368
San Diego Unified,Serra High,5156 Santo Road San Diego CA 92124-2037,NA,NA,FALSE,tested,San Diego,San Diego County,32.825445,-117.108153
San Diego Unified,Sessions Elementary,2150 Beryl Street San Diego CA 92109-3617,NA,NA,FALSE,tested,San Diego,San Diego County,32.809828,-117.232362
Cajon Valley Union,Sevick Special Education,1609 East Madison Avenue El Cajon CA 92019-1046,NA,NA,FALSE,tested,El Cajon,San Diego County,32.799316,-116.921476
Alpine Union Elementary,Shadow Hills Elementary,8770 Harbison Canyon Road Alpine CA 91901-2615,NA,NA,NA,not tested,Alpine,San Diego County,32.832623,-116.816024
Private,Shepherd of the Hills Lutheran,9191 Fletcher Parkway La Mesa CA 91942,NA,NA,FALSE,tested,La Mesa,San Diego County,32.794061,-117.00157
San Diego Unified,Sherman Elementary,301 22nd Street San Diego CA 92102-2918,NA,NA,FALSE,tested,San Diego,San Diego County,32.708493,-117.143879
Poway Unified,Shoal Creek Elementary,11775 Shoal Creek Drive San Diego CA 92128-4573,NA,NA,NA,not tested,San Diego,San Diego County,32.967714,-117.081722
Vista Unified,SIATech,2611 Temple Heights Drive Suite A Oceanside CA 92056-3582,NA,NA,NA,not tested,Oceanside,San Diego County,33.215865,-117.270138
San Diego Unified,Silver Gate Elementary,1499 Venice Street San Diego CA 92107-3699,NA,NA,FALSE,tested,San Diego,San Diego County,32.733353,-117.244016
Coronado Unified,Silver Strand Elementary,1350 Leyte Road Coronado CA 92118-3124,NA,NA,FALSE,tested,Coronado,San Diego County,32.644498,-117.145032
Chula Vista Elementary,Silver Wing Elementary,3730 Arey Drive San Diego CA 92154-2422,NA,NA,FALSE,tested,San Diego,San Diego County,32.579792,-117.052581
Solana Beach Elementary,Skyline Elementary,606 Lomas Santa Fe Drive Solana Beach CA 92075-1400,NA,NA,NA,not tested,Solana Beach,San Diego County,32.996432,-117.261816
San Ysidro Elementary,Smythe Elementary,1880 Smythe Avenue San Ysidro CA 92173-1599,NA,NA,NA,not tested,San Diego,San Diego County,32.563896,-117.050209
Solana Beach Elementary,Solan Vista Elementary,"780 Santa Victoria, Solana Beach, CA 92075",NA,NA,NA,exempt,Solana Beach,San Diego County,33.004226,-117.250185
Solana Beach Elementary,Solana Highlands Elementary,3520 Long Run Drive San Diego CA 92130-1808,NA,NA,NA,not tested,San Diego,San Diego County,32.954355,-117.240164
Solana Beach Elementary,Solana Pacific Elementary,3901 Townsgate Drive San Diego CA 92130-2584,NA,NA,NA,not tested,San Diego,San Diego County,32.952719,-117.229058
Solana Beach Elementary,Solana Ranch Elementary,13605 Pacific Highlands Ranch Parkway San Diego CA 92130-5791,NA,NA,NA,not tested,San Diego,San Diego County,32.965978,-117.191252
Solana Beach Elementary,Solana Santa Fe Elementary,6570 El Apajo Rancho Santa Fe CA 92067-8940,NA,NA,NA,not tested,NA,San Diego County,32.998186,-117.19645
Solana Beach Elementary,Solana Vista,"780 Santa Victoria, Solana Beach, CA 92075",NA,NA,NA,exempt,Solana Beach,San Diego County,33.004226,-117.250185
Solana Beach Elementary,Solana Vista Elementary,780 Santa Victoria Avenue Solana Beach CA 92075-1535,NA,NA,NA,not tested,Solana Beach,San Diego County,33.004226,-117.250185
Oceanside Unified,South Oceanside Elementary,1806 South Horne Street Oceanside CA 92054-6017,NA,NA,FALSE,tested,Oceanside,San Diego County,33.177449,-117.358013
Sweetwater Union High,Southwest Middle,2710 Iris Street San Diego CA 92154-3338,NA,NA,FALSE,tested,Santee,San Diego County,32.83174,-116.954007
Sweetwater Union High,Southwest Senior High,1685 Hollister Street San Diego CA 92154-4548,NA,NA,FALSE,tested,San Diego,San Diego County,32.568056,-117.081321
San Diego Unified,Spreckels Elementary,6033 Stadium Street San Diego CA 92122-3399,NA,NA,FALSE,tested,San Diego,San Diego County,32.849999,-117.212187
Private,Springall Academy,6460 Boulder Lake Avenue San Diego CA 92119,NA,NA,FALSE,tested,San Diego,San Diego County,32.798694,-117.019231
Private,St. Charles Elementary,929 18th Street San Diego CA 92154,NA,NA,FALSE,tested,San Diego,San Diego County,32.580394,-117.094623
Private,St. John of the Cross School,8175 Lemon Grove Way Lemon Grove CA 91945,NA,NA,FALSE,tested,Lemon Grove,San Diego County,32.744567,-117.024104
Private,St. Martin of Tours Academy,7708 El Cajon Boulevard La Mesa CA 91942,NA,NA,FALSE,tested,La Mesa,San Diego County,32.768524,-117.031682
Private,St. Patrick Catholic School,3820 Pio Pico Drive Carlsbad CA 92008,NA,NA,FALSE,tested,Carlsbad,San Diego County,33.164616,-117.341942
San Diego Unified,Standley Middle,6298 Radcliffe Drive San Diego CA 92122-3330,NA,NA,FALSE,tested,San Diego,San Diego County,32.852241,-117.207366
Grossmont Union High,Steele Canyon Adult Center,12440 Campo Road Spring Valley CA 91978-2331,NA,NA,NA,not tested,NA,San Diego County,32.72979,-116.926704
Grossmont Union High,Steele Canyon High,12440 Campo Road Spring Valley CA 91978-2331,NA,NA,FALSE,tested,NA,San Diego County,32.72979,-116.926704
Private,Stella Maris Academy,7654 Herschel Avenue La Jolla CA 92037,NA,NA,FALSE,tested,San Diego,San Diego County,32.843585,-117.272567
Sweetwater Union High,Stephen W. Hawking Charter,465 L Street Chula Vista CA 91911-1142,NA,NA,NA,not tested,Chula Vista,San Diego County,32.619212,-117.078431
Sweetwater Union High,"Stephen W. Hawkings II Science, Technology, Engineering, Art and Math Charter",2710 Iris Avenue San Diego CA 92154-3338,NA,NA,NA,not tested,San Diego,San Diego County,32.56911,-117.064692
Poway Unified,Stone Ranch Elementary,16150 4S Ranch Parkway San Diego CA 92127-4431,NA,NA,NA,not tested,NA,San Diego County,33.005332,-117.117065
Oceanside Unified,Stuart Mesa Elementary,100 Yamanaka Way Oceanside CA 92058-8016,NA,NA,FALSE,tested,Oceanside,San Diego County,33.254084,-117.408292
Poway Unified,Sundance Elementary,8944 Twin Trails Drive San Diego CA 92129-2334,NA,NA,NA,not tested,San Diego,San Diego County,32.961193,-117.133755
Chula Vista Elementary,Sunnyside Elementary,5430 San Miguel Road Bonita CA 91902-2209,9,ppb,TRUE,tested,Bonita,San Diego County,32.674106,-117.01428
South Bay Union,Sunnyslope Elementary,2500 Elm Avenue San Diego CA 92154-1498,NA,NA,FALSE,tested,San Diego,San Diego County,32.581216,-117.079739
San Ysidro Elementary,Sunset Elementary,3825 Sunset Lane San Ysidro CA 92173-3334,NA,NA,NA,not tested,San Diego,San Diego County,32.55756,-117.050499
San Dieguito Union High,Sunset High (Continuation),684 Requeza Street Encinitas CA 92024-3703,NA,NA,NA,not tested,Encinitas,San Diego County,33.043535,-117.277771
San Dieguito Union High,Sunset High School,"684 Requeza St., Encinitas, CA 92024",NA,NA,NA,exempt,Encinitas,San Diego County,33.043535,-117.277771
Poway Unified,Sunset Hills Elementary,9291 Oviedo Street San Diego CA 92129-2199,NA,NA,NA,not tested,San Diego,San Diego County,32.968895,-117.127531
San Diego Unified,Sunset View Elementary,4365 Hill Street San Diego CA 92107-4199,NA,NA,FALSE,tested,San Diego,San Diego County,32.724032,-117.250671
Sweetwater Union High,Sweetwater High,2900 Highland Avenue National City CA 91950-7415,10.6,ppb,TRUE,tested,National City,San Diego County,32.660733,-117.092041
La Mesa-Spring Valley,Sweetwater Springs Elementary,"1001 Leland Street, Spring Valley, CA 91977",NA,NA,NA,exempt,Spring Valley,San Diego County,32.711675,-117.005155
La Mesa-Spring Valley,Sweetwater Springs Elementary,10129 Austin Drive Spring Valley CA 91977-6903,NA,NA,NA,not tested,NA,San Diego County,32.731373,-116.974817
Santee,Sycamore Canyon Elementary,10201 Settle Road Santee CA 92071-1099,NA,NA,FALSE,tested,Santee,San Diego County,32.862869,-117.003857
Del Mar Union Elementary,Sycamore Ridge,5333 Old Carmel Valley Road San Diego CA 92130-2650,NA,NA,FALSE,tested,San Diego,San Diego County,32.957687,-117.19423
San Diego Unified,Taft Middle,9191 Gramercy Drive San Diego CA 92123-4015,6.29,ppb,TRUE,tested,San Diego,San Diego County,32.80167,-117.129402
Vallecitos Elementary,Taylion San Diego Academy,100 North Rancho Sante Fe Road San Marcos CA 92078-1279,NA,NA,NA,not tested,San Marcos,San Diego County,33.151564,-117.198939
Vista Unified,Temple Heights Elementary,1550 Temple Heights Drive Oceanside CA 92056-3066,NA,NA,FALSE,tested,Oceanside,San Diego County,33.218499,-117.269648
South Bay Union,Teofilo Mendoza,2050 Coronado Avenue San Diego CA 92154-2034,NA,NA,FALSE,tested,San Diego,San Diego County,32.578147,-117.089613
Private,The Cambridge School,12855 Black Mountain Road San Diego CA 92129,NA,NA,FALSE,tested,San Diego,San Diego County,32.952274,-117.128765
Private,The Children's School,2225 Torrey Pines Lane La Jolla CA 92037,NA,NA,FALSE,tested,San Diego,San Diego County,32.849534,-117.253477
San Diego Unified,The O'Farrell Charter,6130 Skyline Drive San Diego CA 92114-5620,NA,NA,FALSE,tested,San Diego,San Diego County,32.702541,-117.064835
Private,The Winston School,215 Ninth Street Del Mar CA 92014,NA,NA,FALSE,tested,Del Mar,San Diego County,32.952343,-117.263891
SBE - Thrive Public,Thrive Public,4260 54th Street San Diego CA 92115-6009,NA,NA,FALSE,tested,San Diego,San Diego County,32.754171,-117.079515
Poway Unified,Tierra Bonita Elementary,14678 Tierra Bonita Road Poway CA 92064-3090,NA,NA,FALSE,tested,Poway,San Diego County,32.980079,-117.027725
Lakeside Union Elementary,Tierra del Sol Middle,9611 Petite Lane Lakeside CA 92040-4317,NA,NA,FALSE,tested,NA,San Diego County,32.85413,-116.911549
San Diego Unified,Tierrasanta Elementary,5450 Lacuenta Drive San Diego CA 92124-1417,NA,NA,FALSE,tested,San Diego,San Diego County,32.829402,-117.096784
Chula Vista Elementary,Tiffany (Burton C.) Elementary,1691 Elmhurst Street Chula Vista CA 91913-2612,NA,NA,FALSE,tested,Chula Vista,San Diego County,32.644509,-116.993032
San Diego Unified,Toler Elementary,3350 Baker Street San Diego CA 92117-6017,NA,NA,FALSE,tested,San Diego,San Diego County,32.801387,-117.209275
Del Mar Union Elementary,Torrey Hills,10830 Calle Mar de Mariposa San Diego CA 92130-8657,NA,NA,FALSE,tested,San Diego,San Diego County,32.91444,-117.223285
San Diego Unified,Torrey Pines Elementary,8350 Cliffridge Avenue La Jolla CA 92037-2106,NA,NA,FALSE,tested,San Diego,San Diego County,32.859156,-117.244074
San Dieguito Union High,Torrey Pines High,3710 Del Mar Heights Road San Diego CA 92130-1316,NA,NA,FALSE,tested,San Diego,San Diego County,32.957834,-117.226756
San Diego Unified,TRACE,2555 Camino Del Rio South Suite 150 San Diego CA 92108-3710,NA,NA,NA,not tested,San Diego,San Diego County,32.768559,-117.137106
Private,Trinity Christian School,3902 Kenwood Drive Spring Valley CA 91977,NA,NA,FALSE,tested,La Mesa,San Diego County,32.74977,-117.007455
Poway Unified,Turtleback Elementary,15855 Turtleback Road San Diego CA 92127-2044,NA,NA,NA,not tested,San Diego,San Diego County,33.004706,-117.088335
San Diego Unified,Twain High,6402 Linda Vista Road San Diego CA 92111-7320,NA,NA,FALSE,tested,San Diego,San Diego County,32.772467,-117.179176
San Diego Unified,Twain Mesa,10510 Reagan RD San Diego CA 92126,NA,NA,FALSE,tested,San Diego,San Diego County,32.910639,-117.141525
San Diego Unified,Twain Morse,6905 Skyline Dr. San Diego CA 92114,NA,NA,FALSE,tested,San Diego,San Diego County,32.702573,-117.048649
San Marcos Unified,Twin Oaks Elementary,1 Cassou Road San Marcos CA 92069-9831,NA,NA,FALSE,tested,San Marcos,San Diego County,33.179125,-117.157396
San Marcos Unified,Twin Oaks High,158 Cassou Road San Marcos CA 92069-9702,15,ppb,TRUE,tested,San Marcos,San Diego County,33.180768,-117.158628
Poway Unified,Twin Peaks Middle,14640 Tierra Bonita Road Poway CA 92064-3091,NA,NA,FALSE,tested,Poway,San Diego County,32.978837,-117.027705
San Diego Unified,University City High,6949 Genesee Avenue San Diego CA 92122-2455,5.38,ppb,TRUE,tested,San Diego,San Diego County,32.86031,-117.208262
San Diego Unified,Urban Discovery Academy Charter,840 14th Street San Diego CA 92101-6608,NA,NA,FALSE,tested,San Diego,San Diego County,32.580987,-117.102852
San Diego Unified,Valencia Park Elementary,5880 Skyline Drive San Diego CA 92114-5599,NA,NA,FALSE,tested,San Diego,San Diego County,32.703071,-117.071751
Grossmont Union High,Valhalla High,1725 Hillsdale Road El Cajon CA 92019-3742,NA,NA,FALSE,tested,NA,San Diego County,32.762296,-116.921441
Chula Vista Elementary,Valle Lindo Elementary,1515 Oleander Avenue Chula Vista CA 91911-5699,NA,NA,FALSE,tested,Chula Vista,San Diego County,32.604909,-117.032718
Vallecitos Elementary,Vallecitos Elementary,5211 Fifth Street Rainbow CA 92028-9795,NA,NA,FALSE,tested,Fallbrook,San Diego County,33.413488,-117.149212
Valley Center-Pauma Unified,Valley Center Elementary,28751 Cole Grade Road Valley Center CA 92082-6575,NA,NA,FALSE,tested,NA,San Diego County,33.236019,-117.021447
Valley Center-Pauma Unified,Valley Center High,31322 Cole Grade Road Valley Center CA 92082-3867,NA,NA,FALSE,tested,NA,San Diego County,33.2803,-117.024659
Valley Center-Pauma Unified,Valley Center Middle,28102 North Lake Wohlford Road Valley Center CA 92082-6740,NA,NA,FALSE,tested,Valley Center,San Diego County,33.22642,-116.977534
Valley Center-Pauma Unified,Valley Center Prep,28751-U Cole Grade Road Valley Center CA 92082,7,ppb,TRUE,tested,NA,San Diego County,33.236019,-117.021447
Valley Center-Pauma Unified,Valley Center Primary,14249 Fruitvale Road Valley Center CA 92082-5907,NA,NA,FALSE,tested,NA,San Diego County,33.239526,-117.021573
Poway Unified,Valley Elementary,13000 Bowron Road Poway CA 92064-5799,NA,NA,FALSE,tested,Poway,San Diego County,32.954844,-117.045289
Escondido Union High,Valley High (Continuation),410 North Hidden Trails Road Escondido CA 92027-5333,NA,NA,NA,not tested,Escondido,San Diego County,33.150325,-117.032064
Carlsbad Unified,Valley Middle,1645 Magnolia Avenue Carlsbad CA 92008-2626,NA,NA,FALSE,tested,Carlsbad,San Diego County,33.158836,-117.329342
Chula Vista Elementary,Valley Vista Elementary,3724 Valley Vista Way Bonita CA 91902-1139,11,ppb,TRUE,tested,NA,San Diego County,32.659691,-117.049094
Chula Vista Elementary,Veterans Elementary,1550 Magdalena Avenue Chula Vista CA 91913-3948,NA,NA,FALSE,tested,Chula Vista,San Diego County,32.62434,-116.977637
South Bay Union,VIP Village Preschool,1001 Fern Avenue Imperial Beach CA 91932-3353,NA,NA,FALSE,tested,Imperial Beach,San Diego County,32.57464,-117.11214
Vista Unified,Vista Academy of Visual and Performing Arts,600 North Santa Fe Avenue Vista CA 92083-3631,NA,NA,FALSE,tested,Vista,San Diego County,33.203752,-117.244635
Vista Unified,Vista Adult,510 Sunset Drive Vista CA 92081,NA,NA,NA,not tested,Vista,San Diego County,33.186994,-117.240834
Vista Unified,Vista Adult Transition Center,325 East Bobier Drive Vista CA 92084-3027,6.2,ppb,TRUE,tested,Vista,San Diego County,33.221302,-117.241959
San Ysidro Elementary,Vista Del Mar,4885 Del Sol Blvd San Diego CA 92154-8401,NA,NA,NA,not tested,San Diego,San Diego County,32.57428,-117.064583
Cajon Valley Union,Vista Grande Elementary,1908 Vista Grande Road El Cajon CA 92019-3823,NA,NA,FALSE,tested,NA,San Diego County,32.764434,-116.915056
San Diego Unified,Vista Grande Elementary,5606 Antigua Boulevard San Diego CA 92124-1306,NA,NA,FALSE,tested,San Diego,San Diego County,32.834342,-117.107054
Vista Unified,Vista High,1 Panther Drive Vista CA 92084-3101,NA,NA,FALSE,tested,Vista,San Diego County,33.222546,-117.240886
San Diego Unified,Vista Hill Foundation,6145 Decena Drive San Diego CA 92120,11.9,ppb,TRUE,tested,San Diego,San Diego County,32.786215,-117.09667
Vista Unified,Vista Innovation and Design Academy,740 Olive Avenue Vista CA 92083-3396,NA,NA,FALSE,tested,Vista,San Diego County,33.204595,-117.2568
Lemon Grove,Vista La Mesa Academy,3900 Violet Street La Mesa CA 91941-7542,NA,NA,FALSE,tested,La Mesa,San Diego County,32.748522,-117.045
Vista Unified,Vista Literacy Academy Charter,4225 Oceanside Boulevard Suite M109 Oceanside CA 92056,NA,NA,NA,not tested,Oceanside,San Diego County,33.206738,-117.283502
Vista Unified,"Vista Magnet Middle School of Technology, Science, and Math",151 Civic Center Drive Vista CA 92084-6035,NA,NA,FALSE,tested,Vista,San Diego County,33.203627,-117.236398
Chula Vista Elementary,Vista Square Elementary,540 G Street Chula Vista CA 91910-3604,NA,NA,FALSE,tested,Chula Vista,San Diego County,32.635026,-117.088268
Vista Unified,Vista Visions Academy,305 East Bobier Vista CA 92084-3027,NA,NA,FALSE,tested,Vista,San Diego County,33.221302,-117.242032
Cajon Valley Union,W. D. Hall Elementary,1376 Pepper Drive El Cajon CA 92021-1460,NA,NA,FALSE,tested,El Cajon,San Diego County,32.820905,-116.931059
San Diego Unified,Walker Elementary,9225 Hillery Drive San Diego CA 92126-2908,NA,NA,FALSE,tested,San Diego,San Diego County,32.912806,-117.125839
San Diego Unified,Wangenheim Middle,9230 Gold Coast Drive San Diego CA 92126-3799,NA,NA,FALSE,tested,San Diego,San Diego County,32.905432,-117.126293
Private,Warren-Walker School/La Mesa,5150 Wilson Street La Mesa CA 91941,NA,NA,FALSE,tested,La Mesa,San Diego County,32.773075,-117.007159
San Diego Unified,Washington Elementary,1789 State Street San Diego CA 92101-2598,NA,NA,FALSE,tested,San Diego,San Diego County,32.724291,-117.166141
San Diego Unified,Webster Elementary,4801 Elm Street San Diego CA 92102-1354,6.2,ppb,TRUE,tested,San Diego,San Diego County,32.723334,-117.092405
San Diego Unified,Wegeforth Elementary,3443 Ediwhar Avenue San Diego CA 92123-2207,5.984999999999999,ppb,TRUE,tested,San Diego,San Diego County,32.805606,-117.134938
Grossmont Union High,West Hills High,8756 Mast Boulevard Santee CA 92071-2046,NA,NA,FALSE,tested,Santee,San Diego County,32.855052,-116.980725
Poway Unified,Westview High,13500 Camino Del Sur San Diego CA 92129-4465,NA,NA,NA,not tested,San Diego,San Diego County,32.966098,-117.150069
Poway Unified,Westwood Elementary,17449 Matinal Road San Diego CA 92127-1299,NA,NA,NA,not tested,San Diego,San Diego County,33.030276,-117.086571
San Diego Unified,Whitman Elementary,4050 Appleton Street San Diego CA 92117-1101,NA,NA,FALSE,tested,San Diego,San Diego County,32.836539,-117.20321
San Diego Unified,Whittier K-12,3401 Clairemont Drive San Diego CA 92117-5938,5.19,ppb,TRUE,tested,San Diego,San Diego County,32.804357,-117.198502
Fallbrook Union Elementary,William H. Frazier Elementary,1835 Gum Tree Lane Fallbrook CA 92028-2108,NA,NA,NA,not tested,Fallbrook,San Diego County,33.387021,-117.224757
San Ysidro Elementary,Willow Elementary,226 Willow Road San Ysidro CA 92173-3096,NA,NA,NA,not tested,San Diego,San Diego County,32.543702,-117.042015
Poway Unified,Willow Grove Elementary,14727 Via Azul San Diego CA 92127-4813,NA,NA,NA,not tested,San Diego,San Diego County,32.993781,-117.16219
Fallbrook Union Elementary,Willow Tree,1636 East Mission Road Fallbrook CA 92028,NA,NA,NA,not tested,NA,San Diego County,33.388721,-117.229506
San Diego Unified,Wilson Middle,3838 Orange Avenue San Diego CA 92105-1038,NA,NA,FALSE,tested,San Diego,San Diego County,32.7543,-117.111952
Lakeside Union Elementary,Winter Gardens Elementary,8501 Pueblo Road Lakeside CA 92040-5406,NA,NA,FALSE,tested,Lakeside,San Diego County,32.831382,-116.930317
Chula Vista Elementary,Wolf Canyon Elementary,1950 Wolf Canyon Loop Chula Vista CA 91913-3948,NA,NA,FALSE,tested,Chula Vista,San Diego County,32.611599,-116.974779
San Marcos Unified,Woodland Park Middle,1270 Rock Springs Road San Marcos CA 92069-3220,NA,NA,FALSE,tested,San Marcos,San Diego County,33.14688,-117.137713
San Diego Unified,Zamorano Elementary,2655 Casey Street San Diego CA 92139-2989,NA,NA,FALSE,tested,San Diego,San Diego County,32.680375,-117.038606
